<?xml version="1.0" ?><gpx xmlns="http://www.topografix.com/GPX/1/1" creator="GaiaGPS" version="1.1" xmlns:xsi="http://www.w3.org/2001/XMLSchema-instance" xsi:schemaLocation="http://www.topografix.com/GPX/1/1 http://www.topografix.com/GPX/1/1/gpx.xsd"><trk><name>Track (5/13/23, 3:28:41PM)</name><desc></desc><extensions><line xmlns="http://www.topografix.com/GPX/gpx_style/0/2"><color>00B2FF</color></line></extensions><trkseg><trkpt lat="47.437348" lon="-121.774488"><ele>329.3</ele><time>2023-05-13T22:28:42Z</time></trkpt><trkpt lat="47.43734" lon="-121.774475"><ele>330.7</ele><time>2023-05-13T22:28:43Z</time></trkpt><trkpt lat="47.437374" lon="-121.774438"><ele>330.0</ele><time>2023-05-13T22:28:47Z</time></trkpt><trkpt lat="47.437575" lon="-121.774608"><ele>332.0</ele><time>2023-05-13T22:29:36Z</time></trkpt><trkpt lat="47.437583" lon="-121.774645"><ele>336.0</ele><time>2023-05-13T22:29:39Z</time></trkpt><trkpt lat="47.437634" lon="-121.774707"><ele>336.0</ele><time>2023-05-13T22:29:45Z</time></trkpt><trkpt lat="47.437674" lon="-121.774735"><ele>337.2</ele><time>2023-05-13T22:29:47Z</time></trkpt><trkpt lat="47.437754" lon="-121.774726"><ele>336.0</ele><time>2023-05-13T22:29:55Z</time></trkpt><trkpt lat="47.4378" lon="-121.774712"><ele>339.0</ele><time>2023-05-13T22:30:01Z</time></trkpt><trkpt lat="47.43786" lon="-121.774765"><ele>338.0</ele><time>2023-05-13T22:30:05Z</time></trkpt><trkpt lat="47.437883" lon="-121.774764"><ele>340.0</ele><time>2023-05-13T22:30:08Z</time></trkpt><trkpt lat="47.437985" lon="-121.774798"><ele>339.0</ele><time>2023-05-13T22:30:18Z</time></trkpt><trkpt lat="47.438008" lon="-121.774826"><ele>340.0</ele><time>2023-05-13T22:30:22Z</time></trkpt><trkpt lat="47.438077" lon="-121.77487"><ele>340.0</ele><time>2023-05-13T22:30:29Z</time></trkpt><trkpt lat="47.438188" lon="-121.774891"><ele>342.0</ele><time>2023-05-13T22:30:38Z</time></trkpt><trkpt lat="47.43826" lon="-121.774894"><ele>341.0</ele><time>2023-05-13T22:30:44Z</time></trkpt><trkpt lat="47.438288" lon="-121.774906"><ele>342.0</ele><time>2023-05-13T22:30:46Z</time></trkpt><trkpt lat="47.438349" lon="-121.774893"><ele>342.0</ele><time>2023-05-13T22:30:50Z</time></trkpt><trkpt lat="47.43843" lon="-121.774905"><ele>344.0</ele><time>2023-05-13T22:30:56Z</time></trkpt><trkpt lat="47.438482" lon="-121.774961"><ele>343.0</ele><time>2023-05-13T22:31:03Z</time></trkpt><trkpt lat="47.438554" lon="-121.774978"><ele>345.0</ele><time>2023-05-13T22:31:14Z</time></trkpt><trkpt lat="47.438594" lon="-121.77497"><ele>346.0</ele><time>2023-05-13T22:31:16Z</time></trkpt><trkpt lat="47.43863" lon="-121.774946"><ele>345.0</ele><time>2023-05-13T22:31:20Z</time></trkpt><trkpt lat="47.438657" lon="-121.774967"><ele>347.0</ele><time>2023-05-13T22:31:23Z</time></trkpt><trkpt lat="47.438699" lon="-121.774963"><ele>348.0</ele><time>2023-05-13T22:31:25Z</time></trkpt><trkpt lat="47.438725" lon="-121.774937"><ele>348.0</ele><time>2023-05-13T22:31:28Z</time></trkpt><trkpt lat="47.438823" lon="-121.774949"><ele>350.0</ele><time>2023-05-13T22:31:37Z</time></trkpt><trkpt lat="47.438896" lon="-121.775089"><ele>354.2</ele><time>2023-05-13T22:31:50Z</time></trkpt><trkpt lat="47.439001" lon="-121.775104"><ele>351.0</ele><time>2023-05-13T22:31:58Z</time></trkpt><trkpt lat="47.439038" lon="-121.775157"><ele>352.0</ele><time>2023-05-13T22:32:03Z</time></trkpt><trkpt lat="47.439072" lon="-121.775182"><ele>354.0</ele><time>2023-05-13T22:32:06Z</time></trkpt><trkpt lat="47.439152" lon="-121.775274"><ele>351.0</ele><time>2023-05-13T22:32:15Z</time></trkpt><trkpt lat="47.439193" lon="-121.7753"><ele>354.0</ele><time>2023-05-13T22:32:19Z</time></trkpt><trkpt lat="47.439247" lon="-121.775275"><ele>350.0</ele><time>2023-05-13T22:32:24Z</time></trkpt><trkpt lat="47.439278" lon="-121.775243"><ele>352.0</ele><time>2023-05-13T22:32:29Z</time></trkpt><trkpt lat="47.439345" lon="-121.775227"><ele>355.0</ele><time>2023-05-13T22:32:38Z</time></trkpt><trkpt lat="47.439393" lon="-121.77525"><ele>356.0</ele><time>2023-05-13T22:32:44Z</time></trkpt><trkpt lat="47.439407" lon="-121.77528"><ele>355.0</ele><time>2023-05-13T22:32:46Z</time></trkpt><trkpt lat="47.439462" lon="-121.775316"><ele>357.0</ele><time>2023-05-13T22:32:51Z</time></trkpt><trkpt lat="47.4395" lon="-121.775321"><ele>358.0</ele><time>2023-05-13T22:32:54Z</time></trkpt><trkpt lat="47.439534" lon="-121.775311"><ele>357.0</ele><time>2023-05-13T22:32:56Z</time></trkpt><trkpt lat="47.439567" lon="-121.775319"><ele>358.0</ele><time>2023-05-13T22:33:00Z</time></trkpt><trkpt lat="47.439606" lon="-121.775332"><ele>360.0</ele><time>2023-05-13T22:33:04Z</time></trkpt><trkpt lat="47.439668" lon="-121.775376"><ele>360.0</ele><time>2023-05-13T22:33:10Z</time></trkpt><trkpt lat="47.439679" lon="-121.775409"><ele>360.0</ele><time>2023-05-13T22:33:12Z</time></trkpt><trkpt lat="47.439667" lon="-121.775457"><ele>362.0</ele><time>2023-05-13T22:33:15Z</time></trkpt><trkpt lat="47.439625" lon="-121.77547"><ele>362.0</ele><time>2023-05-13T22:33:20Z</time></trkpt><trkpt lat="47.439592" lon="-121.775461"><ele>360.0</ele><time>2023-05-13T22:33:23Z</time></trkpt><trkpt lat="47.43956" lon="-121.775478"><ele>363.0</ele><time>2023-05-13T22:33:26Z</time></trkpt><trkpt lat="47.439429" lon="-121.775489"><ele>363.0</ele><time>2023-05-13T22:33:39Z</time></trkpt><trkpt lat="47.439398" lon="-121.775476"><ele>363.0</ele><time>2023-05-13T22:33:42Z</time></trkpt><trkpt lat="47.439337" lon="-121.77549"><ele>366.0</ele><time>2023-05-13T22:33:47Z</time></trkpt><trkpt lat="47.439296" lon="-121.775519"><ele>365.0</ele><time>2023-05-13T22:33:51Z</time></trkpt><trkpt lat="47.439256" lon="-121.775522"><ele>366.0</ele><time>2023-05-13T22:33:55Z</time></trkpt><trkpt lat="47.439226" lon="-121.775509"><ele>367.0</ele><time>2023-05-13T22:33:58Z</time></trkpt><trkpt lat="47.439198" lon="-121.775528"><ele>369.0</ele><time>2023-05-13T22:34:01Z</time></trkpt><trkpt lat="47.43918" lon="-121.775563"><ele>366.0</ele><time>2023-05-13T22:34:04Z</time></trkpt><trkpt lat="47.439118" lon="-121.775591"><ele>369.0</ele><time>2023-05-13T22:34:10Z</time></trkpt><trkpt lat="47.439064" lon="-121.775648"><ele>368.0</ele><time>2023-05-13T22:34:15Z</time></trkpt><trkpt lat="47.43893" lon="-121.775703"><ele>372.0</ele><time>2023-05-13T22:34:30Z</time></trkpt><trkpt lat="47.43887" lon="-121.775677"><ele>372.0</ele><time>2023-05-13T22:34:36Z</time></trkpt><trkpt lat="47.438794" lon="-121.7757"><ele>372.0</ele><time>2023-05-13T22:34:44Z</time></trkpt><trkpt lat="47.438748" lon="-121.775756"><ele>374.0</ele><time>2023-05-13T22:34:50Z</time></trkpt><trkpt lat="47.438736" lon="-121.775789"><ele>373.0</ele><time>2023-05-13T22:34:52Z</time></trkpt><trkpt lat="47.438675" lon="-121.775834"><ele>376.0</ele><time>2023-05-13T22:34:59Z</time></trkpt><trkpt lat="47.438492" lon="-121.775872"><ele>375.0</ele><time>2023-05-13T22:35:19Z</time></trkpt><trkpt lat="47.438392" lon="-121.775869"><ele>376.0</ele><time>2023-05-13T22:35:29Z</time></trkpt><trkpt lat="47.438329" lon="-121.775903"><ele>376.0</ele><time>2023-05-13T22:35:35Z</time></trkpt><trkpt lat="47.438221" lon="-121.775923"><ele>380.0</ele><time>2023-05-13T22:35:46Z</time></trkpt><trkpt lat="47.438197" lon="-121.775893"><ele>382.8</ele><time>2023-05-13T22:35:49Z</time></trkpt><trkpt lat="47.438152" lon="-121.775913"><ele>380.0</ele><time>2023-05-13T22:35:52Z</time></trkpt><trkpt lat="47.438045" lon="-121.775983"><ele>378.0</ele><time>2023-05-13T22:36:02Z</time></trkpt><trkpt lat="47.437957" lon="-121.776103"><ele>381.0</ele><time>2023-05-13T22:36:13Z</time></trkpt><trkpt lat="47.437892" lon="-121.776121"><ele>382.0</ele><time>2023-05-13T22:36:18Z</time></trkpt><trkpt lat="47.43783" lon="-121.776067"><ele>384.0</ele><time>2023-05-13T22:36:23Z</time></trkpt><trkpt lat="47.437792" lon="-121.776049"><ele>386.0</ele><time>2023-05-13T22:36:26Z</time></trkpt><trkpt lat="47.437632" lon="-121.776001"><ele>387.0</ele><time>2023-05-13T22:36:41Z</time></trkpt><trkpt lat="47.437612" lon="-121.775963"><ele>386.0</ele><time>2023-05-13T22:36:44Z</time></trkpt><trkpt lat="47.437559" lon="-121.775922"><ele>387.0</ele><time>2023-05-13T22:36:49Z</time></trkpt><trkpt lat="47.437422" lon="-121.775858"><ele>387.0</ele><time>2023-05-13T22:37:03Z</time></trkpt><trkpt lat="47.437391" lon="-121.775861"><ele>387.0</ele><time>2023-05-13T22:37:06Z</time></trkpt><trkpt lat="47.437359" lon="-121.775851"><ele>388.0</ele><time>2023-05-13T22:37:10Z</time></trkpt><trkpt lat="47.437326" lon="-121.77587"><ele>388.0</ele><time>2023-05-13T22:37:14Z</time></trkpt><trkpt lat="47.437255" lon="-121.775833"><ele>387.0</ele><time>2023-05-13T22:37:21Z</time></trkpt><trkpt lat="47.437199" lon="-121.775861"><ele>388.0</ele><time>2023-05-13T22:37:26Z</time></trkpt><trkpt lat="47.437115" lon="-121.775847"><ele>388.0</ele><time>2023-05-13T22:37:34Z</time></trkpt><trkpt lat="47.436982" lon="-121.775907"><ele>393.0</ele><time>2023-05-13T22:37:47Z</time></trkpt><trkpt lat="47.436871" lon="-121.775999"><ele>394.0</ele><time>2023-05-13T22:37:59Z</time></trkpt><trkpt lat="47.436836" lon="-121.776008"><ele>396.0</ele><time>2023-05-13T22:38:03Z</time></trkpt><trkpt lat="47.436725" lon="-121.776107"><ele>398.0</ele><time>2023-05-13T22:38:15Z</time></trkpt><trkpt lat="47.436642" lon="-121.776144"><ele>395.0</ele><time>2023-05-13T22:38:27Z</time></trkpt><trkpt lat="47.436618" lon="-121.776192"><ele>395.0</ele><time>2023-05-13T22:38:35Z</time></trkpt><trkpt lat="47.436567" lon="-121.776213"><ele>398.0</ele><time>2023-05-13T22:38:43Z</time></trkpt><trkpt lat="47.436539" lon="-121.776237"><ele>396.0</ele><time>2023-05-13T22:38:47Z</time></trkpt><trkpt lat="47.436471" lon="-121.77623"><ele>399.0</ele><time>2023-05-13T22:38:54Z</time></trkpt><trkpt lat="47.436404" lon="-121.776173"><ele>401.0</ele><time>2023-05-13T22:39:00Z</time></trkpt><trkpt lat="47.436342" lon="-121.776174"><ele>403.0</ele><time>2023-05-13T22:39:05Z</time></trkpt><trkpt lat="47.436329" lon="-121.776195"><ele>401.0</ele><time>2023-05-13T22:39:07Z</time></trkpt><trkpt lat="47.436186" lon="-121.776169"><ele>402.0</ele><time>2023-05-13T22:39:21Z</time></trkpt><trkpt lat="47.436119" lon="-121.776209"><ele>404.0</ele><time>2023-05-13T22:39:27Z</time></trkpt><trkpt lat="47.436081" lon="-121.776218"><ele>402.0</ele><time>2023-05-13T22:39:32Z</time></trkpt><trkpt lat="47.436058" lon="-121.776239"><ele>405.0</ele><time>2023-05-13T22:39:37Z</time></trkpt><trkpt lat="47.436027" lon="-121.776245"><ele>403.0</ele><time>2023-05-13T22:39:42Z</time></trkpt><trkpt lat="47.435995" lon="-121.776274"><ele>407.0</ele><time>2023-05-13T22:39:48Z</time></trkpt><trkpt lat="47.435932" lon="-121.776289"><ele>408.0</ele><time>2023-05-13T22:39:54Z</time></trkpt><trkpt lat="47.435867" lon="-121.776265"><ele>408.0</ele><time>2023-05-13T22:40:00Z</time></trkpt><trkpt lat="47.435746" lon="-121.776331"><ele>408.0</ele><time>2023-05-13T22:40:12Z</time></trkpt><trkpt lat="47.435695" lon="-121.776381"><ele>410.0</ele><time>2023-05-13T22:40:19Z</time></trkpt><trkpt lat="47.435621" lon="-121.776404"><ele>410.0</ele><time>2023-05-13T22:40:26Z</time></trkpt><trkpt lat="47.435587" lon="-121.776463"><ele>409.0</ele><time>2023-05-13T22:40:31Z</time></trkpt><trkpt lat="47.435482" lon="-121.776527"><ele>411.0</ele><time>2023-05-13T22:40:41Z</time></trkpt><trkpt lat="47.435439" lon="-121.776573"><ele>412.0</ele><time>2023-05-13T22:40:45Z</time></trkpt><trkpt lat="47.435363" lon="-121.776611"><ele>411.0</ele><time>2023-05-13T22:40:53Z</time></trkpt><trkpt lat="47.435316" lon="-121.776664"><ele>410.0</ele><time>2023-05-13T22:40:59Z</time></trkpt><trkpt lat="47.435217" lon="-121.776721"><ele>412.0</ele><time>2023-05-13T22:41:07Z</time></trkpt><trkpt lat="47.435176" lon="-121.776824"><ele>412.0</ele><time>2023-05-13T22:41:15Z</time></trkpt><trkpt lat="47.435089" lon="-121.77688"><ele>416.0</ele><time>2023-05-13T22:41:29Z</time></trkpt><trkpt lat="47.435026" lon="-121.776962"><ele>417.4</ele><time>2023-05-13T22:41:40Z</time></trkpt><trkpt lat="47.434898" lon="-121.776994"><ele>417.0</ele><time>2023-05-13T22:41:52Z</time></trkpt><trkpt lat="47.43487" lon="-121.777096"><ele>416.0</ele><time>2023-05-13T22:41:59Z</time></trkpt><trkpt lat="47.434842" lon="-121.77716"><ele>418.0</ele><time>2023-05-13T22:42:05Z</time></trkpt><trkpt lat="47.434811" lon="-121.777179"><ele>420.0</ele><time>2023-05-13T22:42:09Z</time></trkpt><trkpt lat="47.434779" lon="-121.777243"><ele>420.0</ele><time>2023-05-13T22:42:15Z</time></trkpt><trkpt lat="47.434746" lon="-121.777267"><ele>420.0</ele><time>2023-05-13T22:42:18Z</time></trkpt><trkpt lat="47.434583" lon="-121.777479"><ele>423.0</ele><time>2023-05-13T22:42:41Z</time></trkpt><trkpt lat="47.434558" lon="-121.777551"><ele>422.0</ele><time>2023-05-13T22:42:49Z</time></trkpt><trkpt lat="47.434517" lon="-121.777602"><ele>420.0</ele><time>2023-05-13T22:42:52Z</time></trkpt><trkpt lat="47.434449" lon="-121.777624"><ele>426.0</ele><time>2023-05-13T22:42:58Z</time></trkpt><trkpt lat="47.4344" lon="-121.777675"><ele>424.0</ele><time>2023-05-13T22:43:04Z</time></trkpt><trkpt lat="47.434363" lon="-121.77774"><ele>425.0</ele><time>2023-05-13T22:43:09Z</time></trkpt><trkpt lat="47.434332" lon="-121.777761"><ele>424.0</ele><time>2023-05-13T22:43:13Z</time></trkpt><trkpt lat="47.434322" lon="-121.777806"><ele>426.0</ele><time>2023-05-13T22:43:16Z</time></trkpt><trkpt lat="47.434287" lon="-121.777839"><ele>426.0</ele><time>2023-05-13T22:43:19Z</time></trkpt><trkpt lat="47.43427" lon="-121.777928"><ele>426.0</ele><time>2023-05-13T22:43:25Z</time></trkpt><trkpt lat="47.434247" lon="-121.777953"><ele>427.0</ele><time>2023-05-13T22:43:28Z</time></trkpt><trkpt lat="47.434219" lon="-121.777964"><ele>428.0</ele><time>2023-05-13T22:43:30Z</time></trkpt><trkpt lat="47.434184" lon="-121.778003"><ele>428.0</ele><time>2023-05-13T22:43:34Z</time></trkpt><trkpt lat="47.434147" lon="-121.778023"><ele>428.0</ele><time>2023-05-13T22:43:38Z</time></trkpt><trkpt lat="47.434126" lon="-121.778059"><ele>427.0</ele><time>2023-05-13T22:43:43Z</time></trkpt><trkpt lat="47.43409" lon="-121.778061"><ele>429.0</ele><time>2023-05-13T22:43:47Z</time></trkpt><trkpt lat="47.43407" lon="-121.778147"><ele>429.0</ele><time>2023-05-13T22:43:52Z</time></trkpt><trkpt lat="47.434044" lon="-121.778168"><ele>429.0</ele><time>2023-05-13T22:43:55Z</time></trkpt><trkpt lat="47.434007" lon="-121.778234"><ele>432.0</ele><time>2023-05-13T22:44:00Z</time></trkpt><trkpt lat="47.433972" lon="-121.778356"><ele>432.0</ele><time>2023-05-13T22:44:07Z</time></trkpt><trkpt lat="47.433933" lon="-121.778413"><ele>434.0</ele><time>2023-05-13T22:44:14Z</time></trkpt><trkpt lat="47.433914" lon="-121.778469"><ele>436.0</ele><time>2023-05-13T22:44:19Z</time></trkpt><trkpt lat="47.433809" lon="-121.778611"><ele>435.0</ele><time>2023-05-13T22:44:34Z</time></trkpt><trkpt lat="47.433789" lon="-121.778722"><ele>436.0</ele><time>2023-05-13T22:44:43Z</time></trkpt><trkpt lat="47.43376" lon="-121.778804"><ele>436.0</ele><time>2023-05-13T22:44:49Z</time></trkpt><trkpt lat="47.433729" lon="-121.77883"><ele>437.0</ele><time>2023-05-13T22:44:55Z</time></trkpt><trkpt lat="47.433708" lon="-121.778801"><ele>441.0</ele><time>2023-05-13T22:45:00Z</time></trkpt><trkpt lat="47.43369" lon="-121.778833"><ele>441.0</ele><time>2023-05-13T22:45:03Z</time></trkpt><trkpt lat="47.433705" lon="-121.778876"><ele>441.0</ele><time>2023-05-13T22:45:06Z</time></trkpt><trkpt lat="47.433689" lon="-121.778927"><ele>443.7</ele><time>2023-05-13T22:45:09Z</time></trkpt><trkpt lat="47.433648" lon="-121.778979"><ele>445.0</ele><time>2023-05-13T22:45:16Z</time></trkpt><trkpt lat="47.433617" lon="-121.779074"><ele>447.0</ele><time>2023-05-13T22:45:23Z</time></trkpt><trkpt lat="47.433575" lon="-121.779072"><ele>450.0</ele><time>2023-05-13T22:45:27Z</time></trkpt><trkpt lat="47.433475" lon="-121.77912"><ele>448.0</ele><time>2023-05-13T22:45:37Z</time></trkpt><trkpt lat="47.433431" lon="-121.779127"><ele>448.0</ele><time>2023-05-13T22:45:41Z</time></trkpt><trkpt lat="47.43334" lon="-121.779128"><ele>448.0</ele><time>2023-05-13T22:45:54Z</time></trkpt><trkpt lat="47.433283" lon="-121.779117"><ele>450.0</ele><time>2023-05-13T22:46:00Z</time></trkpt><trkpt lat="47.433275" lon="-121.779137"><ele>450.0</ele><time>2023-05-13T22:46:01Z</time></trkpt><trkpt lat="47.433217" lon="-121.77918"><ele>450.0</ele><time>2023-05-13T22:46:07Z</time></trkpt><trkpt lat="47.433205" lon="-121.779217"><ele>449.0</ele><time>2023-05-13T22:46:09Z</time></trkpt><trkpt lat="47.43318" lon="-121.779244"><ele>448.0</ele><time>2023-05-13T22:46:13Z</time></trkpt><trkpt lat="47.43314" lon="-121.779254"><ele>450.0</ele><time>2023-05-13T22:46:16Z</time></trkpt><trkpt lat="47.433106" lon="-121.779276"><ele>451.0</ele><time>2023-05-13T22:46:20Z</time></trkpt><trkpt lat="47.433089" lon="-121.779313"><ele>450.0</ele><time>2023-05-13T22:46:23Z</time></trkpt><trkpt lat="47.433081" lon="-121.779358"><ele>450.0</ele><time>2023-05-13T22:46:26Z</time></trkpt><trkpt lat="47.433092" lon="-121.779606"><ele>448.0</ele><time>2023-05-13T22:46:41Z</time></trkpt><trkpt lat="47.433075" lon="-121.779684"><ele>450.0</ele><time>2023-05-13T22:46:46Z</time></trkpt><trkpt lat="47.43301" lon="-121.779802"><ele>450.0</ele><time>2023-05-13T22:46:55Z</time></trkpt><trkpt lat="47.433007" lon="-121.779847"><ele>450.0</ele><time>2023-05-13T22:46:57Z</time></trkpt><trkpt lat="47.433036" lon="-121.779928"><ele>448.0</ele><time>2023-05-13T22:47:02Z</time></trkpt><trkpt lat="47.433034" lon="-121.779975"><ele>448.0</ele><time>2023-05-13T22:47:06Z</time></trkpt><trkpt lat="47.433056" lon="-121.780024"><ele>448.0</ele><time>2023-05-13T22:47:09Z</time></trkpt><trkpt lat="47.433067" lon="-121.780105"><ele>449.0</ele><time>2023-05-13T22:47:14Z</time></trkpt><trkpt lat="47.433135" lon="-121.780285"><ele>452.0</ele><time>2023-05-13T22:47:26Z</time></trkpt><trkpt lat="47.433134" lon="-121.780473"><ele>455.0</ele><time>2023-05-13T22:47:38Z</time></trkpt><trkpt lat="47.433147" lon="-121.78049"><ele>453.0</ele><time>2023-05-13T22:47:41Z</time></trkpt><trkpt lat="47.433179" lon="-121.780629"><ele>452.0</ele><time>2023-05-13T22:47:50Z</time></trkpt><trkpt lat="47.43316" lon="-121.780667"><ele>453.0</ele><time>2023-05-13T22:47:53Z</time></trkpt><trkpt lat="47.433174" lon="-121.780694"><ele>453.0</ele><time>2023-05-13T22:47:55Z</time></trkpt><trkpt lat="47.433169" lon="-121.78079"><ele>454.0</ele><time>2023-05-13T22:48:01Z</time></trkpt><trkpt lat="47.433131" lon="-121.780881"><ele>456.0</ele><time>2023-05-13T22:48:05Z</time></trkpt><trkpt lat="47.433084" lon="-121.781055"><ele>459.0</ele><time>2023-05-13T22:48:17Z</time></trkpt><trkpt lat="47.433061" lon="-121.781179"><ele>461.0</ele><time>2023-05-13T22:48:24Z</time></trkpt><trkpt lat="47.433063" lon="-121.781253"><ele>460.0</ele><time>2023-05-13T22:48:29Z</time></trkpt><trkpt lat="47.433073" lon="-121.781293"><ele>460.0</ele><time>2023-05-13T22:48:32Z</time></trkpt><trkpt lat="47.433205" lon="-121.781488"><ele>456.0</ele><time>2023-05-13T22:48:48Z</time></trkpt><trkpt lat="47.433204" lon="-121.781581"><ele>456.0</ele><time>2023-05-13T22:48:53Z</time></trkpt><trkpt lat="47.433185" lon="-121.781724"><ele>458.0</ele><time>2023-05-13T22:49:01Z</time></trkpt><trkpt lat="47.433201" lon="-121.781758"><ele>455.0</ele><time>2023-05-13T22:49:04Z</time></trkpt><trkpt lat="47.433201" lon="-121.78184"><ele>456.0</ele><time>2023-05-13T22:49:10Z</time></trkpt><trkpt lat="47.433317" lon="-121.782039"><ele>455.0</ele><time>2023-05-13T22:49:24Z</time></trkpt><trkpt lat="47.433343" lon="-121.782112"><ele>456.0</ele><time>2023-05-13T22:49:29Z</time></trkpt><trkpt lat="47.433289" lon="-121.782397"><ele>458.0</ele><time>2023-05-13T22:49:48Z</time></trkpt><trkpt lat="47.433289" lon="-121.782476"><ele>457.0</ele><time>2023-05-13T22:49:52Z</time></trkpt><trkpt lat="47.43331" lon="-121.782557"><ele>456.0</ele><time>2023-05-13T22:49:58Z</time></trkpt><trkpt lat="47.43329" lon="-121.78269"><ele>456.0</ele><time>2023-05-13T22:50:04Z</time></trkpt><trkpt lat="47.433308" lon="-121.782823"><ele>456.0</ele><time>2023-05-13T22:50:10Z</time></trkpt><trkpt lat="47.433295" lon="-121.782915"><ele>456.0</ele><time>2023-05-13T22:50:15Z</time></trkpt><trkpt lat="47.433345" lon="-121.782988"><ele>456.0</ele><time>2023-05-13T22:50:20Z</time></trkpt><trkpt lat="47.433353" lon="-121.783037"><ele>453.0</ele><time>2023-05-13T22:50:23Z</time></trkpt><trkpt lat="47.433404" lon="-121.783097"><ele>456.0</ele><time>2023-05-13T22:50:29Z</time></trkpt><trkpt lat="47.433401" lon="-121.78313"><ele>457.7</ele><time>2023-05-13T22:50:30Z</time></trkpt><trkpt lat="47.433421" lon="-121.783194"><ele>454.0</ele><time>2023-05-13T22:50:34Z</time></trkpt><trkpt lat="47.433417" lon="-121.783334"><ele>459.0</ele><time>2023-05-13T22:50:44Z</time></trkpt><trkpt lat="47.433452" lon="-121.783414"><ele>460.0</ele><time>2023-05-13T22:50:51Z</time></trkpt><trkpt lat="47.433444" lon="-121.7835"><ele>462.0</ele><time>2023-05-13T22:50:55Z</time></trkpt><trkpt lat="47.433477" lon="-121.783588"><ele>462.2</ele><time>2023-05-13T22:51:03Z</time></trkpt><trkpt lat="47.433467" lon="-121.783786"><ele>462.0</ele><time>2023-05-13T22:51:15Z</time></trkpt><trkpt lat="47.433476" lon="-121.783824"><ele>462.0</ele><time>2023-05-13T22:51:18Z</time></trkpt><trkpt lat="47.433532" lon="-121.783905"><ele>460.0</ele><time>2023-05-13T22:51:27Z</time></trkpt><trkpt lat="47.433573" lon="-121.783921"><ele>462.0</ele><time>2023-05-13T22:51:31Z</time></trkpt><trkpt lat="47.433588" lon="-121.783959"><ele>461.0</ele><time>2023-05-13T22:51:33Z</time></trkpt><trkpt lat="47.43372" lon="-121.784004"><ele>463.0</ele><time>2023-05-13T22:51:48Z</time></trkpt><trkpt lat="47.433727" lon="-121.784036"><ele>463.9</ele><time>2023-05-13T22:51:49Z</time></trkpt><trkpt lat="47.433716" lon="-121.784071"><ele>464.0</ele><time>2023-05-13T22:51:51Z</time></trkpt><trkpt lat="47.433717" lon="-121.784123"><ele>464.4</ele><time>2023-05-13T22:51:54Z</time></trkpt><trkpt lat="47.433809" lon="-121.78421"><ele>464.0</ele><time>2023-05-13T22:52:05Z</time></trkpt><trkpt lat="47.433892" lon="-121.784412"><ele>464.0</ele><time>2023-05-13T22:52:19Z</time></trkpt><trkpt lat="47.433961" lon="-121.784498"><ele>468.0</ele><time>2023-05-13T22:52:30Z</time></trkpt><trkpt lat="47.433998" lon="-121.78462"><ele>471.0</ele><time>2023-05-13T22:52:39Z</time></trkpt><trkpt lat="47.434029" lon="-121.784653"><ele>471.0</ele><time>2023-05-13T22:52:44Z</time></trkpt><trkpt lat="47.434038" lon="-121.78473"><ele>472.0</ele><time>2023-05-13T22:52:51Z</time></trkpt><trkpt lat="47.434063" lon="-121.784772"><ele>472.0</ele><time>2023-05-13T22:52:54Z</time></trkpt><trkpt lat="47.434084" lon="-121.784844"><ele>476.0</ele><time>2023-05-13T22:52:59Z</time></trkpt><trkpt lat="47.434234" lon="-121.785065"><ele>477.0</ele><time>2023-05-13T22:53:21Z</time></trkpt><trkpt lat="47.434227" lon="-121.785023"><ele>481.9</ele><time>2023-05-13T22:53:26Z</time></trkpt><trkpt lat="47.434247" lon="-121.785"><ele>480.0</ele><time>2023-05-13T22:53:28Z</time></trkpt><trkpt lat="47.434247" lon="-121.784959"><ele>481.0</ele><time>2023-05-13T22:53:29Z</time></trkpt><trkpt lat="47.434228" lon="-121.784918"><ele>482.8</ele><time>2023-05-13T22:53:31Z</time></trkpt><trkpt lat="47.434203" lon="-121.784894"><ele>483.7</ele><time>2023-05-13T22:53:32Z</time></trkpt><trkpt lat="47.434199" lon="-121.784692"><ele>483.0</ele><time>2023-05-13T22:53:46Z</time></trkpt><trkpt lat="47.434216" lon="-121.784657"><ele>484.0</ele><time>2023-05-13T22:53:49Z</time></trkpt><trkpt lat="47.434194" lon="-121.784565"><ele>485.0</ele><time>2023-05-13T22:53:56Z</time></trkpt><trkpt lat="47.434238" lon="-121.784314"><ele>491.0</ele><time>2023-05-13T22:54:14Z</time></trkpt><trkpt lat="47.434208" lon="-121.784214"><ele>492.0</ele><time>2023-05-13T22:54:21Z</time></trkpt><trkpt lat="47.434214" lon="-121.784164"><ele>494.0</ele><time>2023-05-13T22:54:25Z</time></trkpt><trkpt lat="47.434162" lon="-121.784045"><ele>494.0</ele><time>2023-05-13T22:54:36Z</time></trkpt><trkpt lat="47.434178" lon="-121.783954"><ele>496.0</ele><time>2023-05-13T22:54:41Z</time></trkpt><trkpt lat="47.434213" lon="-121.783888"><ele>495.0</ele><time>2023-05-13T22:54:47Z</time></trkpt><trkpt lat="47.434228" lon="-121.783816"><ele>497.7</ele><time>2023-05-13T22:54:50Z</time></trkpt><trkpt lat="47.434229" lon="-121.783747"><ele>498.0</ele><time>2023-05-13T22:54:54Z</time></trkpt><trkpt lat="47.434212" lon="-121.783702"><ele>499.0</ele><time>2023-05-13T22:54:57Z</time></trkpt><trkpt lat="47.43418" lon="-121.783717"><ele>500.0</ele><time>2023-05-13T22:55:08Z</time></trkpt><trkpt lat="47.434213" lon="-121.78369"><ele>500.3</ele><time>2023-05-13T22:55:13Z</time></trkpt><trkpt lat="47.434226" lon="-121.783611"><ele>500.0</ele><time>2023-05-13T22:55:18Z</time></trkpt><trkpt lat="47.434214" lon="-121.783576"><ele>501.0</ele><time>2023-05-13T22:55:19Z</time></trkpt><trkpt lat="47.434118" lon="-121.78349"><ele>500.0</ele><time>2023-05-13T22:55:26Z</time></trkpt><trkpt lat="47.434042" lon="-121.78324"><ele>501.0</ele><time>2023-05-13T22:55:43Z</time></trkpt><trkpt lat="47.434014" lon="-121.783079"><ele>504.0</ele><time>2023-05-13T22:55:55Z</time></trkpt><trkpt lat="47.433987" lon="-121.783015"><ele>505.0</ele><time>2023-05-13T22:55:59Z</time></trkpt><trkpt lat="47.433941" lon="-121.782845"><ele>506.0</ele><time>2023-05-13T22:56:13Z</time></trkpt><trkpt lat="47.433952" lon="-121.78276"><ele>508.0</ele><time>2023-05-13T22:56:18Z</time></trkpt><trkpt lat="47.433948" lon="-121.782721"><ele>507.0</ele><time>2023-05-13T22:56:21Z</time></trkpt><trkpt lat="47.433963" lon="-121.782658"><ele>507.0</ele><time>2023-05-13T22:56:25Z</time></trkpt><trkpt lat="47.433949" lon="-121.782582"><ele>508.0</ele><time>2023-05-13T22:56:31Z</time></trkpt><trkpt lat="47.433932" lon="-121.782362"><ele>512.0</ele><time>2023-05-13T22:56:46Z</time></trkpt><trkpt lat="47.433916" lon="-121.782319"><ele>514.3</ele><time>2023-05-13T22:56:47Z</time></trkpt><trkpt lat="47.433917" lon="-121.782216"><ele>518.0</ele><time>2023-05-13T22:56:53Z</time></trkpt><trkpt lat="47.433918" lon="-121.782168"><ele>521.5</ele><time>2023-05-13T22:56:57Z</time></trkpt><trkpt lat="47.433944" lon="-121.782089"><ele>520.0</ele><time>2023-05-13T22:57:01Z</time></trkpt><trkpt lat="47.433947" lon="-121.781971"><ele>522.0</ele><time>2023-05-13T22:57:07Z</time></trkpt><trkpt lat="47.433972" lon="-121.78189"><ele>522.0</ele><time>2023-05-13T22:57:11Z</time></trkpt><trkpt lat="47.433976" lon="-121.781843"><ele>521.0</ele><time>2023-05-13T22:57:13Z</time></trkpt><trkpt lat="47.433978" lon="-121.781803"><ele>522.0</ele><time>2023-05-13T22:57:15Z</time></trkpt><trkpt lat="47.43394" lon="-121.78174"><ele>519.0</ele><time>2023-05-13T22:57:20Z</time></trkpt><trkpt lat="47.433938" lon="-121.781579"><ele>520.0</ele><time>2023-05-13T22:57:30Z</time></trkpt><trkpt lat="47.433968" lon="-121.781518"><ele>519.0</ele><time>2023-05-13T22:57:34Z</time></trkpt><trkpt lat="47.434006" lon="-121.781646"><ele>522.0</ele><time>2023-05-13T22:57:42Z</time></trkpt><trkpt lat="47.434027" lon="-121.781677"><ele>522.0</ele><time>2023-05-13T22:57:45Z</time></trkpt><trkpt lat="47.434046" lon="-121.781758"><ele>523.0</ele><time>2023-05-13T22:57:51Z</time></trkpt><trkpt lat="47.434101" lon="-121.781876"><ele>523.0</ele><time>2023-05-13T22:58:00Z</time></trkpt><trkpt lat="47.434124" lon="-121.781903"><ele>525.0</ele><time>2023-05-13T22:58:03Z</time></trkpt><trkpt lat="47.434172" lon="-121.782026"><ele>528.0</ele><time>2023-05-13T22:58:16Z</time></trkpt><trkpt lat="47.434197" lon="-121.782286"><ele>532.0</ele><time>2023-05-13T22:58:34Z</time></trkpt><trkpt lat="47.434249" lon="-121.782507"><ele>537.0</ele><time>2023-05-13T22:58:52Z</time></trkpt><trkpt lat="47.434288" lon="-121.782554"><ele>537.0</ele><time>2023-05-13T22:58:57Z</time></trkpt><trkpt lat="47.434317" lon="-121.782621"><ele>537.0</ele><time>2023-05-13T22:59:03Z</time></trkpt><trkpt lat="47.434393" lon="-121.782718"><ele>536.0</ele><time>2023-05-13T22:59:12Z</time></trkpt><trkpt lat="47.434431" lon="-121.782792"><ele>537.0</ele><time>2023-05-13T22:59:18Z</time></trkpt><trkpt lat="47.434477" lon="-121.782851"><ele>540.0</ele><time>2023-05-13T22:59:23Z</time></trkpt><trkpt lat="47.434491" lon="-121.782886"><ele>540.0</ele><time>2023-05-13T22:59:27Z</time></trkpt><trkpt lat="47.434547" lon="-121.782967"><ele>540.0</ele><time>2023-05-13T22:59:34Z</time></trkpt><trkpt lat="47.434557" lon="-121.783008"><ele>544.0</ele><time>2023-05-13T22:59:37Z</time></trkpt><trkpt lat="47.434594" lon="-121.783015"><ele>540.0</ele><time>2023-05-13T22:59:41Z</time></trkpt><trkpt lat="47.434664" lon="-121.783071"><ele>542.0</ele><time>2023-05-13T22:59:47Z</time></trkpt><trkpt lat="47.434733" lon="-121.783185"><ele>542.0</ele><time>2023-05-13T22:59:55Z</time></trkpt><trkpt lat="47.434785" lon="-121.783218"><ele>544.0</ele><time>2023-05-13T23:00:03Z</time></trkpt><trkpt lat="47.43481" lon="-121.783305"><ele>546.0</ele><time>2023-05-13T23:00:07Z</time></trkpt><trkpt lat="47.434855" lon="-121.783377"><ele>546.6</ele><time>2023-05-13T23:00:13Z</time></trkpt><trkpt lat="47.434881" lon="-121.783399"><ele>546.0</ele><time>2023-05-13T23:00:17Z</time></trkpt><trkpt lat="47.434902" lon="-121.783455"><ele>548.0</ele><time>2023-05-13T23:00:21Z</time></trkpt><trkpt lat="47.434909" lon="-121.783578"><ele>548.0</ele><time>2023-05-13T23:00:26Z</time></trkpt><trkpt lat="47.435037" lon="-121.78389"><ele>553.0</ele><time>2023-05-13T23:00:53Z</time></trkpt><trkpt lat="47.435063" lon="-121.784024"><ele>559.0</ele><time>2023-05-13T23:01:03Z</time></trkpt><trkpt lat="47.435059" lon="-121.78415"><ele>560.0</ele><time>2023-05-13T23:01:10Z</time></trkpt><trkpt lat="47.435097" lon="-121.784246"><ele>558.0</ele><time>2023-05-13T23:01:18Z</time></trkpt><trkpt lat="47.435099" lon="-121.784334"><ele>561.0</ele><time>2023-05-13T23:01:23Z</time></trkpt><trkpt lat="47.435132" lon="-121.784391"><ele>560.0</ele><time>2023-05-13T23:01:27Z</time></trkpt><trkpt lat="47.435133" lon="-121.784425"><ele>558.0</ele><time>2023-05-13T23:01:29Z</time></trkpt><trkpt lat="47.435153" lon="-121.784484"><ele>555.0</ele><time>2023-05-13T23:01:39Z</time></trkpt><trkpt lat="47.435134" lon="-121.784531"><ele>558.0</ele><time>2023-05-13T23:01:55Z</time></trkpt><trkpt lat="47.435161" lon="-121.784482"><ele>551.0</ele><time>2023-05-13T23:02:15Z</time></trkpt><trkpt lat="47.435154" lon="-121.78452"><ele>549.0</ele><time>2023-05-13T23:02:32Z</time></trkpt><trkpt lat="47.435182" lon="-121.784553"><ele>556.0</ele><time>2023-05-13T23:02:37Z</time></trkpt><trkpt lat="47.435179" lon="-121.784591"><ele>558.3</ele><time>2023-05-13T23:02:39Z</time></trkpt><trkpt lat="47.435209" lon="-121.784661"><ele>558.0</ele><time>2023-05-13T23:02:46Z</time></trkpt><trkpt lat="47.435386" lon="-121.784759"><ele>559.0</ele><time>2023-05-13T23:03:03Z</time></trkpt><trkpt lat="47.435432" lon="-121.784874"><ele>560.0</ele><time>2023-05-13T23:03:09Z</time></trkpt><trkpt lat="47.435507" lon="-121.784971"><ele>562.0</ele><time>2023-05-13T23:03:20Z</time></trkpt><trkpt lat="47.435552" lon="-121.785135"><ele>561.0</ele><time>2023-05-13T23:03:31Z</time></trkpt><trkpt lat="47.43557" lon="-121.785039"><ele>563.8</ele><time>2023-05-13T23:03:36Z</time></trkpt><trkpt lat="47.435554" lon="-121.784835"><ele>567.0</ele><time>2023-05-13T23:03:48Z</time></trkpt><trkpt lat="47.43554" lon="-121.7848"><ele>570.0</ele><time>2023-05-13T23:03:51Z</time></trkpt><trkpt lat="47.435538" lon="-121.784749"><ele>570.0</ele><time>2023-05-13T23:03:53Z</time></trkpt><trkpt lat="47.435518" lon="-121.784711"><ele>572.0</ele><time>2023-05-13T23:03:56Z</time></trkpt><trkpt lat="47.435488" lon="-121.784702"><ele>572.0</ele><time>2023-05-13T23:03:59Z</time></trkpt><trkpt lat="47.435464" lon="-121.784658"><ele>572.0</ele><time>2023-05-13T23:04:02Z</time></trkpt><trkpt lat="47.435438" lon="-121.784639"><ele>573.0</ele><time>2023-05-13T23:04:05Z</time></trkpt><trkpt lat="47.43539" lon="-121.784492"><ele>572.0</ele><time>2023-05-13T23:04:14Z</time></trkpt><trkpt lat="47.435383" lon="-121.784442"><ele>572.0</ele><time>2023-05-13T23:04:18Z</time></trkpt><trkpt lat="47.435348" lon="-121.784422"><ele>574.3</ele><time>2023-05-13T23:04:21Z</time></trkpt><trkpt lat="47.435369" lon="-121.784357"><ele>573.0</ele><time>2023-05-13T23:04:23Z</time></trkpt><trkpt lat="47.435377" lon="-121.784222"><ele>580.0</ele><time>2023-05-13T23:04:33Z</time></trkpt><trkpt lat="47.435365" lon="-121.784123"><ele>580.0</ele><time>2023-05-13T23:04:42Z</time></trkpt><trkpt lat="47.435372" lon="-121.784074"><ele>581.7</ele><time>2023-05-13T23:04:45Z</time></trkpt><trkpt lat="47.435383" lon="-121.784058"><ele>580.0</ele><time>2023-05-13T23:04:46Z</time></trkpt><trkpt lat="47.435392" lon="-121.783933"><ele>582.0</ele><time>2023-05-13T23:04:55Z</time></trkpt><trkpt lat="47.435414" lon="-121.78386"><ele>582.0</ele><time>2023-05-13T23:05:01Z</time></trkpt><trkpt lat="47.435406" lon="-121.783719"><ele>584.0</ele><time>2023-05-13T23:05:10Z</time></trkpt><trkpt lat="47.435456" lon="-121.783561"><ele>585.0</ele><time>2023-05-13T23:05:20Z</time></trkpt><trkpt lat="47.435434" lon="-121.783487"><ele>585.0</ele><time>2023-05-13T23:05:26Z</time></trkpt><trkpt lat="47.435447" lon="-121.78344"><ele>586.0</ele><time>2023-05-13T23:05:29Z</time></trkpt><trkpt lat="47.435437" lon="-121.783376"><ele>588.0</ele><time>2023-05-13T23:05:31Z</time></trkpt><trkpt lat="47.435456" lon="-121.783324"><ele>588.0</ele><time>2023-05-13T23:05:36Z</time></trkpt><trkpt lat="47.435485" lon="-121.783289"><ele>588.0</ele><time>2023-05-13T23:05:41Z</time></trkpt><trkpt lat="47.435494" lon="-121.783175"><ele>590.0</ele><time>2023-05-13T23:05:49Z</time></trkpt><trkpt lat="47.435508" lon="-121.783141"><ele>590.0</ele><time>2023-05-13T23:05:51Z</time></trkpt><trkpt lat="47.435541" lon="-121.782956"><ele>591.0</ele><time>2023-05-13T23:06:04Z</time></trkpt><trkpt lat="47.435574" lon="-121.78287"><ele>594.0</ele><time>2023-05-13T23:06:12Z</time></trkpt><trkpt lat="47.435563" lon="-121.782833"><ele>595.0</ele><time>2023-05-13T23:06:15Z</time></trkpt><trkpt lat="47.435566" lon="-121.782768"><ele>595.1</ele><time>2023-05-13T23:06:18Z</time></trkpt><trkpt lat="47.435585" lon="-121.782691"><ele>594.0</ele><time>2023-05-13T23:06:21Z</time></trkpt><trkpt lat="47.435571" lon="-121.7826"><ele>593.0</ele><time>2023-05-13T23:06:29Z</time></trkpt><trkpt lat="47.435574" lon="-121.782557"><ele>595.0</ele><time>2023-05-13T23:06:32Z</time></trkpt><trkpt lat="47.435599" lon="-121.782477"><ele>596.0</ele><time>2023-05-13T23:06:37Z</time></trkpt><trkpt lat="47.435583" lon="-121.782445"><ele>596.0</ele><time>2023-05-13T23:06:39Z</time></trkpt><trkpt lat="47.435603" lon="-121.782288"><ele>597.0</ele><time>2023-05-13T23:06:51Z</time></trkpt><trkpt lat="47.435593" lon="-121.782249"><ele>598.0</ele><time>2023-05-13T23:06:53Z</time></trkpt><trkpt lat="47.435622" lon="-121.782161"><ele>600.0</ele><time>2023-05-13T23:06:58Z</time></trkpt><trkpt lat="47.435625" lon="-121.782117"><ele>600.0</ele><time>2023-05-13T23:07:00Z</time></trkpt><trkpt lat="47.435623" lon="-121.782086"><ele>599.7</ele><time>2023-05-13T23:07:02Z</time></trkpt><trkpt lat="47.43559" lon="-121.78204"><ele>600.0</ele><time>2023-05-13T23:07:05Z</time></trkpt><trkpt lat="47.435554" lon="-121.7818"><ele>602.0</ele><time>2023-05-13T23:07:16Z</time></trkpt><trkpt lat="47.435618" lon="-121.781736"><ele>600.0</ele><time>2023-05-13T23:07:21Z</time></trkpt><trkpt lat="47.435644" lon="-121.781663"><ele>602.0</ele><time>2023-05-13T23:07:28Z</time></trkpt><trkpt lat="47.435592" lon="-121.781537"><ele>602.0</ele><time>2023-05-13T23:07:35Z</time></trkpt><trkpt lat="47.435585" lon="-121.781389"><ele>604.0</ele><time>2023-05-13T23:07:45Z</time></trkpt><trkpt lat="47.435557" lon="-121.781294"><ele>606.0</ele><time>2023-05-13T23:07:51Z</time></trkpt><trkpt lat="47.435545" lon="-121.781198"><ele>608.7</ele><time>2023-05-13T23:07:54Z</time></trkpt><trkpt lat="47.435508" lon="-121.781137"><ele>609.0</ele><time>2023-05-13T23:07:58Z</time></trkpt><trkpt lat="47.435492" lon="-121.781061"><ele>612.0</ele><time>2023-05-13T23:08:01Z</time></trkpt><trkpt lat="47.435545" lon="-121.780973"><ele>609.0</ele><time>2023-05-13T23:08:11Z</time></trkpt><trkpt lat="47.435541" lon="-121.780904"><ele>608.0</ele><time>2023-05-13T23:08:16Z</time></trkpt><trkpt lat="47.435591" lon="-121.780684"><ele>607.0</ele><time>2023-05-13T23:08:34Z</time></trkpt><trkpt lat="47.435611" lon="-121.780637"><ele>608.0</ele><time>2023-05-13T23:08:36Z</time></trkpt><trkpt lat="47.43572" lon="-121.780477"><ele>608.0</ele><time>2023-05-13T23:08:50Z</time></trkpt><trkpt lat="47.435752" lon="-121.780389"><ele>609.0</ele><time>2023-05-13T23:08:57Z</time></trkpt><trkpt lat="47.435809" lon="-121.780286"><ele>611.0</ele><time>2023-05-13T23:09:11Z</time></trkpt><trkpt lat="47.436091" lon="-121.779958"><ele>616.8</ele><time>2023-05-13T23:09:45Z</time></trkpt><trkpt lat="47.436091" lon="-121.779926"><ele>615.0</ele><time>2023-05-13T23:09:47Z</time></trkpt><trkpt lat="47.436123" lon="-121.77983"><ele>618.0</ele><time>2023-05-13T23:09:57Z</time></trkpt><trkpt lat="47.436156" lon="-121.779801"><ele>618.0</ele><time>2023-05-13T23:10:01Z</time></trkpt><trkpt lat="47.43624" lon="-121.779671"><ele>618.0</ele><time>2023-05-13T23:10:12Z</time></trkpt><trkpt lat="47.43627" lon="-121.779647"><ele>618.0</ele><time>2023-05-13T23:10:16Z</time></trkpt><trkpt lat="47.43627" lon="-121.779564"><ele>620.0</ele><time>2023-05-13T23:10:23Z</time></trkpt><trkpt lat="47.436291" lon="-121.77953"><ele>616.0</ele><time>2023-05-13T23:10:27Z</time></trkpt><trkpt lat="47.436311" lon="-121.779549"><ele>620.0</ele><time>2023-05-13T23:10:32Z</time></trkpt><trkpt lat="47.436325" lon="-121.779627"><ele>612.0</ele><time>2023-05-13T23:10:42Z</time></trkpt><trkpt lat="47.436312" lon="-121.779697"><ele>618.0</ele><time>2023-05-13T23:10:51Z</time></trkpt><trkpt lat="47.436322" lon="-121.779864"><ele>622.0</ele><time>2023-05-13T23:11:05Z</time></trkpt><trkpt lat="47.436312" lon="-121.779918"><ele>625.0</ele><time>2023-05-13T23:11:08Z</time></trkpt><trkpt lat="47.436366" lon="-121.779945"><ele>624.0</ele><time>2023-05-13T23:11:14Z</time></trkpt><trkpt lat="47.436368" lon="-121.77989"><ele>626.0</ele><time>2023-05-13T23:11:21Z</time></trkpt><trkpt lat="47.436404" lon="-121.779906"><ele>624.0</ele><time>2023-05-13T23:12:09Z</time></trkpt><trkpt lat="47.436372" lon="-121.779839"><ele>616.0</ele><time>2023-05-13T23:15:15Z</time></trkpt><trkpt lat="47.436344" lon="-121.779905"><ele>626.0</ele><time>2023-05-13T23:17:10Z</time></trkpt><trkpt lat="47.436311" lon="-121.779859"><ele>630.0</ele><time>2023-05-13T23:17:25Z</time></trkpt><trkpt lat="47.436296" lon="-121.779516"><ele>624.0</ele><time>2023-05-13T23:17:51Z</time></trkpt><trkpt lat="47.436221" lon="-121.779407"><ele>624.0</ele><time>2023-05-13T23:18:01Z</time></trkpt><trkpt lat="47.436229" lon="-121.779362"><ele>623.7</ele><time>2023-05-13T23:18:06Z</time></trkpt><trkpt lat="47.436209" lon="-121.779301"><ele>623.0</ele><time>2023-05-13T23:18:11Z</time></trkpt><trkpt lat="47.436232" lon="-121.779245"><ele>623.0</ele><time>2023-05-13T23:18:17Z</time></trkpt><trkpt lat="47.436248" lon="-121.779039"><ele>627.0</ele><time>2023-05-13T23:18:39Z</time></trkpt><trkpt lat="47.43629" lon="-121.778964"><ele>628.0</ele><time>2023-05-13T23:18:51Z</time></trkpt><trkpt lat="47.436255" lon="-121.778903"><ele>628.0</ele><time>2023-05-13T23:18:59Z</time></trkpt><trkpt lat="47.436226" lon="-121.778797"><ele>628.0</ele><time>2023-05-13T23:19:09Z</time></trkpt><trkpt lat="47.436199" lon="-121.778766"><ele>630.0</ele><time>2023-05-13T23:19:14Z</time></trkpt><trkpt lat="47.436158" lon="-121.77869"><ele>630.0</ele><time>2023-05-13T23:19:23Z</time></trkpt><trkpt lat="47.436164" lon="-121.778631"><ele>633.0</ele><time>2023-05-13T23:19:32Z</time></trkpt><trkpt lat="47.436139" lon="-121.7786"><ele>633.0</ele><time>2023-05-13T23:19:35Z</time></trkpt><trkpt lat="47.436092" lon="-121.778596"><ele>635.0</ele><time>2023-05-13T23:20:13Z</time></trkpt><trkpt lat="47.436131" lon="-121.778617"><ele>635.0</ele><time>2023-05-13T23:21:00Z</time></trkpt><trkpt lat="47.436147" lon="-121.778578"><ele>632.0</ele><time>2023-05-13T23:21:07Z</time></trkpt><trkpt lat="47.436135" lon="-121.778541"><ele>632.0</ele><time>2023-05-13T23:21:11Z</time></trkpt><trkpt lat="47.436109" lon="-121.778519"><ele>630.0</ele><time>2023-05-13T23:22:23Z</time></trkpt><trkpt lat="47.436073" lon="-121.778527"><ele>627.0</ele><time>2023-05-13T23:23:39Z</time></trkpt><trkpt lat="47.436056" lon="-121.778502"><ele>634.0</ele><time>2023-05-13T23:23:46Z</time></trkpt><trkpt lat="47.436062" lon="-121.778453"><ele>634.0</ele><time>2023-05-13T23:23:51Z</time></trkpt><trkpt lat="47.436065" lon="-121.778469"><ele>632.0</ele><time>2023-05-13T23:24:49Z</time></trkpt><trkpt lat="47.436052" lon="-121.778429"><ele>636.6</ele><time>2023-05-13T23:25:31Z</time></trkpt></trkseg><trkseg><trkpt lat="47.436156" lon="-121.778532"><ele>618.6</ele><time>2023-05-13T23:30:43Z</time></trkpt><trkpt lat="47.436096" lon="-121.77852"><ele>628.0</ele><time>2023-05-13T23:43:31Z</time></trkpt><trkpt lat="47.436152" lon="-121.778579"><ele>632.0</ele><time>2023-05-13T23:44:35Z</time></trkpt><trkpt lat="47.436177" lon="-121.778684"><ele>630.0</ele><time>2023-05-13T23:44:44Z</time></trkpt><trkpt lat="47.436171" lon="-121.778728"><ele>632.0</ele><time>2023-05-13T23:44:47Z</time></trkpt><trkpt lat="47.436252" lon="-121.778871"><ele>628.0</ele><time>2023-05-13T23:46:17Z</time></trkpt><trkpt lat="47.43626" lon="-121.778975"><ele>627.0</ele><time>2023-05-13T23:46:26Z</time></trkpt><trkpt lat="47.43624" lon="-121.779062"><ele>624.0</ele><time>2023-05-13T23:46:43Z</time></trkpt><trkpt lat="47.436218" lon="-121.779453"><ele>622.0</ele><time>2023-05-13T23:47:10Z</time></trkpt><trkpt lat="47.436241" lon="-121.779492"><ele>620.0</ele><time>2023-05-13T23:47:14Z</time></trkpt><trkpt lat="47.436233" lon="-121.779528"><ele>618.0</ele><time>2023-05-13T23:47:16Z</time></trkpt><trkpt lat="47.436244" lon="-121.779615"><ele>617.0</ele><time>2023-05-13T23:47:21Z</time></trkpt><trkpt lat="47.43623" lon="-121.779678"><ele>613.0</ele><time>2023-05-13T23:47:27Z</time></trkpt><trkpt lat="47.436201" lon="-121.779691"><ele>612.0</ele><time>2023-05-13T23:47:29Z</time></trkpt><trkpt lat="47.436164" lon="-121.779691"><ele>612.0</ele><time>2023-05-13T23:47:31Z</time></trkpt><trkpt lat="47.436107" lon="-121.779805"><ele>614.0</ele><time>2023-05-13T23:47:39Z</time></trkpt><trkpt lat="47.436064" lon="-121.779858"><ele>614.0</ele><time>2023-05-13T23:47:44Z</time></trkpt><trkpt lat="47.435992" lon="-121.780034"><ele>616.0</ele><time>2023-05-13T23:47:54Z</time></trkpt><trkpt lat="47.435972" lon="-121.780062"><ele>616.0</ele><time>2023-05-13T23:47:56Z</time></trkpt><trkpt lat="47.435936" lon="-121.780059"><ele>615.0</ele><time>2023-05-13T23:47:59Z</time></trkpt><trkpt lat="47.435912" lon="-121.780106"><ele>617.0</ele><time>2023-05-13T23:48:02Z</time></trkpt><trkpt lat="47.435843" lon="-121.780126"><ele>615.0</ele><time>2023-05-13T23:48:08Z</time></trkpt><trkpt lat="47.435812" lon="-121.7802"><ele>616.0</ele><time>2023-05-13T23:48:12Z</time></trkpt><trkpt lat="47.435765" lon="-121.780262"><ele>615.0</ele><time>2023-05-13T23:48:18Z</time></trkpt><trkpt lat="47.435684" lon="-121.780441"><ele>609.0</ele><time>2023-05-13T23:48:33Z</time></trkpt><trkpt lat="47.43566" lon="-121.780462"><ele>609.0</ele><time>2023-05-13T23:48:36Z</time></trkpt><trkpt lat="47.435568" lon="-121.780623"><ele>610.0</ele><time>2023-05-13T23:48:48Z</time></trkpt><trkpt lat="47.435515" lon="-121.780756"><ele>610.0</ele><time>2023-05-13T23:48:56Z</time></trkpt><trkpt lat="47.435495" lon="-121.780909"><ele>608.0</ele><time>2023-05-13T23:49:05Z</time></trkpt><trkpt lat="47.435501" lon="-121.78102"><ele>608.0</ele><time>2023-05-13T23:49:12Z</time></trkpt><trkpt lat="47.435489" lon="-121.78106"><ele>608.1</ele><time>2023-05-13T23:49:16Z</time></trkpt><trkpt lat="47.435479" lon="-121.781189"><ele>603.0</ele><time>2023-05-13T23:49:24Z</time></trkpt><trkpt lat="47.435529" lon="-121.78143"><ele>606.0</ele><time>2023-05-13T23:49:38Z</time></trkpt><trkpt lat="47.435533" lon="-121.781517"><ele>605.0</ele><time>2023-05-13T23:49:44Z</time></trkpt><trkpt lat="47.435566" lon="-121.781747"><ele>603.0</ele><time>2023-05-13T23:49:58Z</time></trkpt><trkpt lat="47.435537" lon="-121.78194"><ele>602.0</ele><time>2023-05-13T23:50:09Z</time></trkpt><trkpt lat="47.435548" lon="-121.781985"><ele>602.0</ele><time>2023-05-13T23:50:11Z</time></trkpt><trkpt lat="47.435551" lon="-121.782181"><ele>603.0</ele><time>2023-05-13T23:50:22Z</time></trkpt><trkpt lat="47.43558" lon="-121.782253"><ele>602.0</ele><time>2023-05-13T23:50:29Z</time></trkpt><trkpt lat="47.435553" lon="-121.782458"><ele>599.0</ele><time>2023-05-13T23:50:42Z</time></trkpt><trkpt lat="47.43552" lon="-121.782603"><ele>598.4</ele><time>2023-05-13T23:50:51Z</time></trkpt><trkpt lat="47.435524" lon="-121.7827"><ele>597.0</ele><time>2023-05-13T23:50:59Z</time></trkpt><trkpt lat="47.435545" lon="-121.782851"><ele>596.0</ele><time>2023-05-13T23:51:11Z</time></trkpt><trkpt lat="47.435525" lon="-121.782941"><ele>596.0</ele><time>2023-05-13T23:51:17Z</time></trkpt><trkpt lat="47.435453" lon="-121.783127"><ele>592.0</ele><time>2023-05-13T23:51:30Z</time></trkpt><trkpt lat="47.435447" lon="-121.783241"><ele>594.0</ele><time>2023-05-13T23:51:35Z</time></trkpt><trkpt lat="47.435416" lon="-121.783387"><ele>597.3</ele><time>2023-05-13T23:51:42Z</time></trkpt><trkpt lat="47.435404" lon="-121.783409"><ele>596.0</ele><time>2023-05-13T23:51:43Z</time></trkpt><trkpt lat="47.435368" lon="-121.783435"><ele>596.0</ele><time>2023-05-13T23:51:47Z</time></trkpt><trkpt lat="47.435351" lon="-121.783933"><ele>586.0</ele><time>2023-05-13T23:52:22Z</time></trkpt><trkpt lat="47.435358" lon="-121.783969"><ele>585.0</ele><time>2023-05-13T23:52:24Z</time></trkpt><trkpt lat="47.435345" lon="-121.784132"><ele>584.0</ele><time>2023-05-13T23:52:33Z</time></trkpt><trkpt lat="47.435352" lon="-121.784264"><ele>583.0</ele><time>2023-05-13T23:52:40Z</time></trkpt><trkpt lat="47.435315" lon="-121.784371"><ele>582.0</ele><time>2023-05-13T23:52:48Z</time></trkpt><trkpt lat="47.435345" lon="-121.784479"><ele>580.0</ele><time>2023-05-13T23:52:56Z</time></trkpt><trkpt lat="47.435344" lon="-121.784523"><ele>580.0</ele><time>2023-05-13T23:52:58Z</time></trkpt><trkpt lat="47.435378" lon="-121.784599"><ele>579.0</ele><time>2023-05-13T23:53:02Z</time></trkpt><trkpt lat="47.435376" lon="-121.784637"><ele>580.3</ele><time>2023-05-13T23:53:03Z</time></trkpt><trkpt lat="47.435434" lon="-121.784675"><ele>575.0</ele><time>2023-05-13T23:53:08Z</time></trkpt><trkpt lat="47.435471" lon="-121.784724"><ele>569.0</ele><time>2023-05-13T23:53:14Z</time></trkpt><trkpt lat="47.435497" lon="-121.784843"><ele>570.4</ele><time>2023-05-13T23:53:22Z</time></trkpt><trkpt lat="47.435481" lon="-121.784915"><ele>572.6</ele><time>2023-05-13T23:53:25Z</time></trkpt><trkpt lat="47.435506" lon="-121.78508"><ele>568.0</ele><time>2023-05-13T23:53:37Z</time></trkpt><trkpt lat="47.435518" lon="-121.785109"><ele>568.0</ele><time>2023-05-13T23:53:40Z</time></trkpt><trkpt lat="47.43551" lon="-121.785163"><ele>567.0</ele><time>2023-05-13T23:53:44Z</time></trkpt><trkpt lat="47.435508" lon="-121.785096"><ele>566.0</ele><time>2023-05-13T23:53:49Z</time></trkpt><trkpt lat="47.435487" lon="-121.785061"><ele>566.0</ele><time>2023-05-13T23:53:51Z</time></trkpt><trkpt lat="47.435461" lon="-121.784901"><ele>566.3</ele><time>2023-05-13T23:54:01Z</time></trkpt><trkpt lat="47.43541" lon="-121.784806"><ele>564.0</ele><time>2023-05-13T23:54:08Z</time></trkpt><trkpt lat="47.43536" lon="-121.78475"><ele>564.0</ele><time>2023-05-13T23:54:13Z</time></trkpt><trkpt lat="47.43527" lon="-121.784673"><ele>564.0</ele><time>2023-05-13T23:54:24Z</time></trkpt><trkpt lat="47.435213" lon="-121.784658"><ele>564.0</ele><time>2023-05-13T23:54:30Z</time></trkpt><trkpt lat="47.435177" lon="-121.784613"><ele>564.0</ele><time>2023-05-13T23:54:35Z</time></trkpt><trkpt lat="47.435136" lon="-121.784466"><ele>560.0</ele><time>2023-05-13T23:54:46Z</time></trkpt><trkpt lat="47.435124" lon="-121.78437"><ele>560.0</ele><time>2023-05-13T23:54:52Z</time></trkpt><trkpt lat="47.435006" lon="-121.783934"><ele>560.0</ele><time>2023-05-13T23:55:18Z</time></trkpt><trkpt lat="47.435016" lon="-121.783901"><ele>557.0</ele><time>2023-05-13T23:55:21Z</time></trkpt><trkpt lat="47.435008" lon="-121.783857"><ele>559.0</ele><time>2023-05-13T23:55:24Z</time></trkpt><trkpt lat="47.43491" lon="-121.783597"><ele>554.0</ele><time>2023-05-13T23:55:48Z</time></trkpt><trkpt lat="47.434896" lon="-121.783514"><ele>555.2</ele><time>2023-05-13T23:55:53Z</time></trkpt><trkpt lat="47.434854" lon="-121.783433"><ele>552.0</ele><time>2023-05-13T23:56:00Z</time></trkpt><trkpt lat="47.434811" lon="-121.783387"><ele>551.0</ele><time>2023-05-13T23:56:06Z</time></trkpt><trkpt lat="47.434793" lon="-121.783269"><ele>549.0</ele><time>2023-05-13T23:56:14Z</time></trkpt><trkpt lat="47.4347" lon="-121.783115"><ele>549.0</ele><time>2023-05-13T23:56:28Z</time></trkpt><trkpt lat="47.434671" lon="-121.783048"><ele>548.0</ele><time>2023-05-13T23:56:31Z</time></trkpt><trkpt lat="47.434542" lon="-121.782989"><ele>548.0</ele><time>2023-05-13T23:56:43Z</time></trkpt><trkpt lat="47.434493" lon="-121.782933"><ele>546.0</ele><time>2023-05-13T23:56:49Z</time></trkpt><trkpt lat="47.434408" lon="-121.782769"><ele>544.0</ele><time>2023-05-13T23:57:01Z</time></trkpt><trkpt lat="47.434288" lon="-121.782594"><ele>542.0</ele><time>2023-05-13T23:57:16Z</time></trkpt><trkpt lat="47.434171" lon="-121.782345"><ele>537.0</ele><time>2023-05-13T23:57:38Z</time></trkpt><trkpt lat="47.43417" lon="-121.782262"><ele>535.0</ele><time>2023-05-13T23:57:44Z</time></trkpt><trkpt lat="47.434147" lon="-121.782177"><ele>536.0</ele><time>2023-05-13T23:57:50Z</time></trkpt><trkpt lat="47.434137" lon="-121.782057"><ele>535.0</ele><time>2023-05-13T23:57:59Z</time></trkpt><trkpt lat="47.434144" lon="-121.781976"><ele>530.0</ele><time>2023-05-13T23:58:06Z</time></trkpt><trkpt lat="47.434131" lon="-121.781921"><ele>528.0</ele><time>2023-05-13T23:58:11Z</time></trkpt><trkpt lat="47.434101" lon="-121.781879"><ele>531.0</ele><time>2023-05-13T23:58:14Z</time></trkpt><trkpt lat="47.434095" lon="-121.781811"><ele>528.0</ele><time>2023-05-13T23:58:19Z</time></trkpt><trkpt lat="47.434059" lon="-121.781763"><ele>528.0</ele><time>2023-05-13T23:58:22Z</time></trkpt><trkpt lat="47.433976" lon="-121.781704"><ele>532.0</ele><time>2023-05-13T23:58:29Z</time></trkpt><trkpt lat="47.433967" lon="-121.781631"><ele>528.0</ele><time>2023-05-13T23:58:35Z</time></trkpt><trkpt lat="47.433921" lon="-121.781532"><ele>524.0</ele><time>2023-05-13T23:58:44Z</time></trkpt><trkpt lat="47.433906" lon="-121.78157"><ele>524.0</ele><time>2023-05-13T23:58:48Z</time></trkpt><trkpt lat="47.433927" lon="-121.781688"><ele>519.0</ele><time>2023-05-13T23:58:54Z</time></trkpt><trkpt lat="47.433925" lon="-121.781797"><ele>520.0</ele><time>2023-05-13T23:59:01Z</time></trkpt><trkpt lat="47.433944" lon="-121.781864"><ele>519.0</ele><time>2023-05-13T23:59:05Z</time></trkpt><trkpt lat="47.43396" lon="-121.78198"><ele>520.0</ele><time>2023-05-13T23:59:12Z</time></trkpt><trkpt lat="47.433949" lon="-121.782083"><ele>519.0</ele><time>2023-05-13T23:59:19Z</time></trkpt><trkpt lat="47.433919" lon="-121.782138"><ele>516.0</ele><time>2023-05-13T23:59:24Z</time></trkpt><trkpt lat="47.43388" lon="-121.782303"><ele>518.0</ele><time>2023-05-13T23:59:34Z</time></trkpt><trkpt lat="47.433882" lon="-121.782383"><ele>516.0</ele><time>2023-05-13T23:59:39Z</time></trkpt><trkpt lat="47.433908" lon="-121.782456"><ele>516.0</ele><time>2023-05-13T23:59:46Z</time></trkpt><trkpt lat="47.433938" lon="-121.78268"><ele>516.0</ele><time>2023-05-14T00:00:01Z</time></trkpt><trkpt lat="47.43393" lon="-121.782868"><ele>513.0</ele><time>2023-05-14T00:00:14Z</time></trkpt><trkpt lat="47.433938" lon="-121.782956"><ele>511.0</ele><time>2023-05-14T00:00:20Z</time></trkpt><trkpt lat="47.434011" lon="-121.783196"><ele>508.0</ele><time>2023-05-14T00:00:39Z</time></trkpt><trkpt lat="47.434032" lon="-121.783316"><ele>508.0</ele><time>2023-05-14T00:00:46Z</time></trkpt><trkpt lat="47.434071" lon="-121.783421"><ele>507.0</ele><time>2023-05-14T00:00:52Z</time></trkpt><trkpt lat="47.434075" lon="-121.783477"><ele>506.3</ele><time>2023-05-14T00:00:56Z</time></trkpt><trkpt lat="47.434164" lon="-121.783644"><ele>501.0</ele><time>2023-05-14T00:01:11Z</time></trkpt><trkpt lat="47.43417" lon="-121.783679"><ele>504.0</ele><time>2023-05-14T00:01:14Z</time></trkpt><trkpt lat="47.434172" lon="-121.783732"><ele>504.0</ele><time>2023-05-14T00:01:17Z</time></trkpt><trkpt lat="47.434149" lon="-121.783763"><ele>505.0</ele><time>2023-05-14T00:01:19Z</time></trkpt><trkpt lat="47.434139" lon="-121.783831"><ele>504.0</ele><time>2023-05-14T00:01:24Z</time></trkpt><trkpt lat="47.434155" lon="-121.783956"><ele>503.0</ele><time>2023-05-14T00:01:31Z</time></trkpt><trkpt lat="47.43414" lon="-121.784104"><ele>502.0</ele><time>2023-05-14T00:01:42Z</time></trkpt><trkpt lat="47.434196" lon="-121.784387"><ele>498.0</ele><time>2023-05-14T00:02:03Z</time></trkpt><trkpt lat="47.434181" lon="-121.784549"><ele>496.0</ele><time>2023-05-14T00:02:17Z</time></trkpt><trkpt lat="47.434148" lon="-121.784656"><ele>492.0</ele><time>2023-05-14T00:02:27Z</time></trkpt><trkpt lat="47.434162" lon="-121.785044"><ele>486.0</ele><time>2023-05-14T00:02:54Z</time></trkpt><trkpt lat="47.434126" lon="-121.784897"><ele>487.0</ele><time>2023-05-14T00:03:02Z</time></trkpt><trkpt lat="47.434024" lon="-121.784756"><ele>483.0</ele><time>2023-05-14T00:03:15Z</time></trkpt><trkpt lat="47.433942" lon="-121.784436"><ele>476.0</ele><time>2023-05-14T00:03:37Z</time></trkpt><trkpt lat="47.433919" lon="-121.784414"><ele>476.0</ele><time>2023-05-14T00:03:40Z</time></trkpt><trkpt lat="47.433888" lon="-121.784404"><ele>475.0</ele><time>2023-05-14T00:03:43Z</time></trkpt><trkpt lat="47.433832" lon="-121.784294"><ele>474.0</ele><time>2023-05-14T00:03:52Z</time></trkpt><trkpt lat="47.433806" lon="-121.78427"><ele>474.0</ele><time>2023-05-14T00:03:54Z</time></trkpt><trkpt lat="47.433777" lon="-121.784198"><ele>472.0</ele><time>2023-05-14T00:04:00Z</time></trkpt><trkpt lat="47.433725" lon="-121.784154"><ele>471.0</ele><time>2023-05-14T00:04:05Z</time></trkpt><trkpt lat="47.433708" lon="-121.784127"><ele>470.0</ele><time>2023-05-14T00:04:07Z</time></trkpt><trkpt lat="47.433675" lon="-121.783931"><ele>468.0</ele><time>2023-05-14T00:04:22Z</time></trkpt><trkpt lat="47.433641" lon="-121.783914"><ele>468.0</ele><time>2023-05-14T00:04:26Z</time></trkpt><trkpt lat="47.433577" lon="-121.783924"><ele>466.0</ele><time>2023-05-14T00:04:32Z</time></trkpt><trkpt lat="47.433512" lon="-121.783867"><ele>465.0</ele><time>2023-05-14T00:04:41Z</time></trkpt><trkpt lat="47.433464" lon="-121.783791"><ele>464.0</ele><time>2023-05-14T00:04:46Z</time></trkpt><trkpt lat="47.433436" lon="-121.783685"><ele>464.0</ele><time>2023-05-14T00:04:51Z</time></trkpt><trkpt lat="47.433485" lon="-121.783519"><ele>459.2</ele><time>2023-05-14T00:05:00Z</time></trkpt><trkpt lat="47.433483" lon="-121.78348"><ele>458.0</ele><time>2023-05-14T00:05:01Z</time></trkpt><trkpt lat="47.433459" lon="-121.783445"><ele>458.0</ele><time>2023-05-14T00:05:02Z</time></trkpt><trkpt lat="47.43346" lon="-121.783385"><ele>461.1</ele><time>2023-05-14T00:05:06Z</time></trkpt><trkpt lat="47.433357" lon="-121.783103"><ele>462.0</ele><time>2023-05-14T00:05:21Z</time></trkpt><trkpt lat="47.433334" lon="-121.782985"><ele>460.0</ele><time>2023-05-14T00:05:31Z</time></trkpt><trkpt lat="47.433324" lon="-121.782838"><ele>457.0</ele><time>2023-05-14T00:05:41Z</time></trkpt><trkpt lat="47.43326" lon="-121.782647"><ele>457.0</ele><time>2023-05-14T00:05:52Z</time></trkpt><trkpt lat="47.433267" lon="-121.782601"><ele>457.6</ele><time>2023-05-14T00:05:57Z</time></trkpt><trkpt lat="47.43326" lon="-121.78257"><ele>456.0</ele><time>2023-05-14T00:05:59Z</time></trkpt><trkpt lat="47.43328" lon="-121.782489"><ele>456.0</ele><time>2023-05-14T00:06:04Z</time></trkpt><trkpt lat="47.433285" lon="-121.782367"><ele>456.0</ele><time>2023-05-14T00:06:11Z</time></trkpt><trkpt lat="47.433269" lon="-121.782293"><ele>456.0</ele><time>2023-05-14T00:06:16Z</time></trkpt><trkpt lat="47.4333" lon="-121.78219"><ele>457.0</ele><time>2023-05-14T00:06:29Z</time></trkpt><trkpt lat="47.433301" lon="-121.782074"><ele>459.0</ele><time>2023-05-14T00:06:38Z</time></trkpt><trkpt lat="47.433279" lon="-121.782002"><ele>460.0</ele><time>2023-05-14T00:06:43Z</time></trkpt><trkpt lat="47.433251" lon="-121.781959"><ele>461.2</ele><time>2023-05-14T00:06:46Z</time></trkpt><trkpt lat="47.433205" lon="-121.781924"><ele>468.0</ele><time>2023-05-14T00:06:54Z</time></trkpt><trkpt lat="47.433183" lon="-121.781885"><ele>468.0</ele><time>2023-05-14T00:06:58Z</time></trkpt><trkpt lat="47.433179" lon="-121.781845"><ele>465.0</ele><time>2023-05-14T00:07:01Z</time></trkpt><trkpt lat="47.433159" lon="-121.781805"><ele>465.0</ele><time>2023-05-14T00:07:04Z</time></trkpt><trkpt lat="47.433131" lon="-121.781631"><ele>463.6</ele><time>2023-05-14T00:07:14Z</time></trkpt><trkpt lat="47.433164" lon="-121.781592"><ele>459.0</ele><time>2023-05-14T00:07:18Z</time></trkpt><trkpt lat="47.43317" lon="-121.781549"><ele>460.0</ele><time>2023-05-14T00:07:21Z</time></trkpt><trkpt lat="47.433132" lon="-121.781366"><ele>460.0</ele><time>2023-05-14T00:07:31Z</time></trkpt><trkpt lat="47.433082" lon="-121.781299"><ele>460.0</ele><time>2023-05-14T00:07:37Z</time></trkpt><trkpt lat="47.433054" lon="-121.781186"><ele>458.0</ele><time>2023-05-14T00:07:45Z</time></trkpt><trkpt lat="47.43311" lon="-121.780991"><ele>456.0</ele><time>2023-05-14T00:07:57Z</time></trkpt><trkpt lat="47.433147" lon="-121.780755"><ele>453.0</ele><time>2023-05-14T00:08:12Z</time></trkpt><trkpt lat="47.433125" lon="-121.780637"><ele>452.0</ele><time>2023-05-14T00:08:19Z</time></trkpt><trkpt lat="47.433135" lon="-121.780546"><ele>454.0</ele><time>2023-05-14T00:08:22Z</time></trkpt><trkpt lat="47.433105" lon="-121.780265"><ele>454.0</ele><time>2023-05-14T00:08:39Z</time></trkpt><trkpt lat="47.433121" lon="-121.780174"><ele>454.0</ele><time>2023-05-14T00:08:43Z</time></trkpt><trkpt lat="47.433081" lon="-121.780037"><ele>456.0</ele><time>2023-05-14T00:08:49Z</time></trkpt><trkpt lat="47.433001" lon="-121.779899"><ele>453.0</ele><time>2023-05-14T00:08:58Z</time></trkpt><trkpt lat="47.432986" lon="-121.77976"><ele>450.0</ele><time>2023-05-14T00:09:09Z</time></trkpt><trkpt lat="47.43302" lon="-121.779713"><ele>450.0</ele><time>2023-05-14T00:09:13Z</time></trkpt><trkpt lat="47.433054" lon="-121.779733"><ele>450.4</ele><time>2023-05-14T00:09:15Z</time></trkpt><trkpt lat="47.433068" lon="-121.779676"><ele>449.0</ele><time>2023-05-14T00:09:18Z</time></trkpt><trkpt lat="47.433078" lon="-121.779545"><ele>450.0</ele><time>2023-05-14T00:09:24Z</time></trkpt><trkpt lat="47.433071" lon="-121.779316"><ele>450.0</ele><time>2023-05-14T00:09:35Z</time></trkpt><trkpt lat="47.433087" lon="-121.779287"><ele>448.0</ele><time>2023-05-14T00:09:38Z</time></trkpt><trkpt lat="47.43317" lon="-121.779229"><ele>447.0</ele><time>2023-05-14T00:09:47Z</time></trkpt><trkpt lat="47.433198" lon="-121.779193"><ele>447.0</ele><time>2023-05-14T00:09:50Z</time></trkpt><trkpt lat="47.433326" lon="-121.779153"><ele>448.0</ele><time>2023-05-14T00:10:02Z</time></trkpt><trkpt lat="47.433377" lon="-121.77916"><ele>450.0</ele><time>2023-05-14T00:10:06Z</time></trkpt><trkpt lat="47.433434" lon="-121.779126"><ele>448.0</ele><time>2023-05-14T00:10:11Z</time></trkpt><trkpt lat="47.433503" lon="-121.779103"><ele>451.0</ele><time>2023-05-14T00:10:18Z</time></trkpt><trkpt lat="47.433567" lon="-121.779102"><ele>449.0</ele><time>2023-05-14T00:10:22Z</time></trkpt><trkpt lat="47.433617" lon="-121.779062"><ele>448.0</ele><time>2023-05-14T00:10:25Z</time></trkpt><trkpt lat="47.433654" lon="-121.779056"><ele>447.0</ele><time>2023-05-14T00:10:27Z</time></trkpt><trkpt lat="47.43369" lon="-121.779025"><ele>444.0</ele><time>2023-05-14T00:10:31Z</time></trkpt><trkpt lat="47.43372" lon="-121.779038"><ele>441.0</ele><time>2023-05-14T00:10:35Z</time></trkpt><trkpt lat="47.433711" lon="-121.77897"><ele>440.7</ele><time>2023-05-14T00:10:43Z</time></trkpt><trkpt lat="47.433726" lon="-121.77881"><ele>440.0</ele><time>2023-05-14T00:10:53Z</time></trkpt><trkpt lat="47.433802" lon="-121.778604"><ele>435.0</ele><time>2023-05-14T00:11:08Z</time></trkpt><trkpt lat="47.433851" lon="-121.77854"><ele>432.0</ele><time>2023-05-14T00:11:15Z</time></trkpt><trkpt lat="47.433881" lon="-121.77852"><ele>432.0</ele><time>2023-05-14T00:11:18Z</time></trkpt><trkpt lat="47.433972" lon="-121.778373"><ele>434.0</ele><time>2023-05-14T00:11:28Z</time></trkpt><trkpt lat="47.434036" lon="-121.778171"><ele>431.0</ele><time>2023-05-14T00:11:50Z</time></trkpt><trkpt lat="47.434098" lon="-121.778063"><ele>432.0</ele><time>2023-05-14T00:12:00Z</time></trkpt><trkpt lat="47.434156" lon="-121.778026"><ele>432.0</ele><time>2023-05-14T00:12:05Z</time></trkpt><trkpt lat="47.434202" lon="-121.777955"><ele>432.0</ele><time>2023-05-14T00:12:10Z</time></trkpt><trkpt lat="47.434284" lon="-121.777872"><ele>432.0</ele><time>2023-05-14T00:12:17Z</time></trkpt><trkpt lat="47.434419" lon="-121.77767"><ele>430.0</ele><time>2023-05-14T00:12:32Z</time></trkpt><trkpt lat="47.434464" lon="-121.777636"><ele>429.0</ele><time>2023-05-14T00:12:37Z</time></trkpt><trkpt lat="47.434554" lon="-121.777605"><ele>428.0</ele><time>2023-05-14T00:12:44Z</time></trkpt><trkpt lat="47.434567" lon="-121.777542"><ele>426.0</ele><time>2023-05-14T00:12:50Z</time></trkpt><trkpt lat="47.4346" lon="-121.777522"><ele>426.0</ele><time>2023-05-14T00:12:52Z</time></trkpt><trkpt lat="47.434672" lon="-121.777448"><ele>426.0</ele><time>2023-05-14T00:12:59Z</time></trkpt><trkpt lat="47.434685" lon="-121.777405"><ele>426.0</ele><time>2023-05-14T00:13:01Z</time></trkpt><trkpt lat="47.434932" lon="-121.777038"><ele>417.0</ele><time>2023-05-14T00:13:36Z</time></trkpt><trkpt lat="47.435039" lon="-121.776998"><ele>419.0</ele><time>2023-05-14T00:13:45Z</time></trkpt><trkpt lat="47.435071" lon="-121.776973"><ele>417.0</ele><time>2023-05-14T00:13:49Z</time></trkpt><trkpt lat="47.435128" lon="-121.776902"><ele>418.0</ele><time>2023-05-14T00:13:56Z</time></trkpt><trkpt lat="47.435191" lon="-121.776878"><ele>418.0</ele><time>2023-05-14T00:14:02Z</time></trkpt><trkpt lat="47.435253" lon="-121.776751"><ele>416.0</ele><time>2023-05-14T00:14:12Z</time></trkpt><trkpt lat="47.435283" lon="-121.776731"><ele>414.0</ele><time>2023-05-14T00:14:16Z</time></trkpt><trkpt lat="47.435333" lon="-121.776665"><ele>416.0</ele><time>2023-05-14T00:14:21Z</time></trkpt><trkpt lat="47.435394" lon="-121.776633"><ele>415.0</ele><time>2023-05-14T00:14:25Z</time></trkpt><trkpt lat="47.435451" lon="-121.776582"><ele>417.0</ele><time>2023-05-14T00:14:31Z</time></trkpt><trkpt lat="47.435481" lon="-121.776593"><ele>417.0</ele><time>2023-05-14T00:14:34Z</time></trkpt><trkpt lat="47.43549" lon="-121.776561"><ele>416.0</ele><time>2023-05-14T00:14:37Z</time></trkpt><trkpt lat="47.435559" lon="-121.776534"><ele>414.0</ele><time>2023-05-14T00:14:43Z</time></trkpt><trkpt lat="47.435647" lon="-121.776448"><ele>414.0</ele><time>2023-05-14T00:14:52Z</time></trkpt><trkpt lat="47.435734" lon="-121.77639"><ele>412.0</ele><time>2023-05-14T00:15:03Z</time></trkpt><trkpt lat="47.435774" lon="-121.776389"><ele>413.1</ele><time>2023-05-14T00:15:06Z</time></trkpt><trkpt lat="47.435822" lon="-121.776358"><ele>409.0</ele><time>2023-05-14T00:15:10Z</time></trkpt><trkpt lat="47.435884" lon="-121.776353"><ele>411.0</ele><time>2023-05-14T00:15:17Z</time></trkpt><trkpt lat="47.435956" lon="-121.776332"><ele>410.0</ele><time>2023-05-14T00:15:24Z</time></trkpt><trkpt lat="47.436015" lon="-121.776302"><ele>405.0</ele><time>2023-05-14T00:15:31Z</time></trkpt><trkpt lat="47.436055" lon="-121.776299"><ele>404.0</ele><time>2023-05-14T00:15:34Z</time></trkpt><trkpt lat="47.436117" lon="-121.776271"><ele>406.0</ele><time>2023-05-14T00:15:39Z</time></trkpt><trkpt lat="47.43617" lon="-121.776231"><ele>404.0</ele><time>2023-05-14T00:15:44Z</time></trkpt><trkpt lat="47.436233" lon="-121.77623"><ele>406.0</ele><time>2023-05-14T00:15:48Z</time></trkpt><trkpt lat="47.436305" lon="-121.776255"><ele>406.0</ele><time>2023-05-14T00:15:52Z</time></trkpt><trkpt lat="47.436363" lon="-121.776265"><ele>405.0</ele><time>2023-05-14T00:15:57Z</time></trkpt><trkpt lat="47.436412" lon="-121.776259"><ele>405.0</ele><time>2023-05-14T00:16:00Z</time></trkpt><trkpt lat="47.436484" lon="-121.77628"><ele>406.0</ele><time>2023-05-14T00:16:05Z</time></trkpt><trkpt lat="47.436529" lon="-121.776267"><ele>408.0</ele><time>2023-05-14T00:16:08Z</time></trkpt><trkpt lat="47.436598" lon="-121.776265"><ele>408.0</ele><time>2023-05-14T00:16:14Z</time></trkpt><trkpt lat="47.436636" lon="-121.77621"><ele>404.0</ele><time>2023-05-14T00:16:20Z</time></trkpt><trkpt lat="47.436668" lon="-121.776193"><ele>405.0</ele><time>2023-05-14T00:16:24Z</time></trkpt><trkpt lat="47.436708" lon="-121.776126"><ele>401.0</ele><time>2023-05-14T00:16:31Z</time></trkpt><trkpt lat="47.436756" lon="-121.776118"><ele>400.0</ele><time>2023-05-14T00:16:37Z</time></trkpt><trkpt lat="47.436802" lon="-121.776072"><ele>402.0</ele><time>2023-05-14T00:16:41Z</time></trkpt><trkpt lat="47.436986" lon="-121.775958"><ele>398.0</ele><time>2023-05-14T00:17:00Z</time></trkpt><trkpt lat="47.437045" lon="-121.775937"><ele>398.0</ele><time>2023-05-14T00:17:04Z</time></trkpt><trkpt lat="47.437171" lon="-121.775868"><ele>394.0</ele><time>2023-05-14T00:17:18Z</time></trkpt><trkpt lat="47.437257" lon="-121.775837"><ele>396.0</ele><time>2023-05-14T00:17:24Z</time></trkpt><trkpt lat="47.437326" lon="-121.77588"><ele>393.0</ele><time>2023-05-14T00:17:31Z</time></trkpt><trkpt lat="47.437366" lon="-121.775884"><ele>394.0</ele><time>2023-05-14T00:17:33Z</time></trkpt><trkpt lat="47.437405" lon="-121.77587"><ele>393.9</ele><time>2023-05-14T00:17:37Z</time></trkpt><trkpt lat="47.437557" lon="-121.775984"><ele>390.0</ele><time>2023-05-14T00:17:53Z</time></trkpt><trkpt lat="47.437576" lon="-121.776026"><ele>388.0</ele><time>2023-05-14T00:17:57Z</time></trkpt><trkpt lat="47.437612" lon="-121.776048"><ele>391.0</ele><time>2023-05-14T00:18:00Z</time></trkpt><trkpt lat="47.43775" lon="-121.776084"><ele>390.0</ele><time>2023-05-14T00:18:10Z</time></trkpt><trkpt lat="47.437814" lon="-121.776119"><ele>390.0</ele><time>2023-05-14T00:18:14Z</time></trkpt><trkpt lat="47.437916" lon="-121.776136"><ele>390.0</ele><time>2023-05-14T00:18:21Z</time></trkpt><trkpt lat="47.437955" lon="-121.776134"><ele>389.0</ele><time>2023-05-14T00:18:24Z</time></trkpt><trkpt lat="47.437972" lon="-121.776094"><ele>390.0</ele><time>2023-05-14T00:18:27Z</time></trkpt><trkpt lat="47.438005" lon="-121.776067"><ele>389.0</ele><time>2023-05-14T00:18:29Z</time></trkpt><trkpt lat="47.43805" lon="-121.776005"><ele>389.0</ele><time>2023-05-14T00:18:34Z</time></trkpt><trkpt lat="47.438112" lon="-121.775976"><ele>384.0</ele><time>2023-05-14T00:18:41Z</time></trkpt><trkpt lat="47.438138" lon="-121.775951"><ele>386.0</ele><time>2023-05-14T00:18:43Z</time></trkpt><trkpt lat="47.438175" lon="-121.775939"><ele>388.0</ele><time>2023-05-14T00:18:46Z</time></trkpt><trkpt lat="47.438215" lon="-121.775945"><ele>387.0</ele><time>2023-05-14T00:18:48Z</time></trkpt><trkpt lat="47.438255" lon="-121.775932"><ele>387.0</ele><time>2023-05-14T00:18:51Z</time></trkpt><trkpt lat="47.438293" lon="-121.775942"><ele>382.0</ele><time>2023-05-14T00:18:55Z</time></trkpt><trkpt lat="47.438382" lon="-121.77587"><ele>380.0</ele><time>2023-05-14T00:19:08Z</time></trkpt><trkpt lat="47.438419" lon="-121.775881"><ele>379.0</ele><time>2023-05-14T00:19:11Z</time></trkpt><trkpt lat="47.438526" lon="-121.775876"><ele>380.0</ele><time>2023-05-14T00:19:18Z</time></trkpt><trkpt lat="47.438557" lon="-121.775863"><ele>380.0</ele><time>2023-05-14T00:19:21Z</time></trkpt><trkpt lat="47.438671" lon="-121.775847"><ele>380.0</ele><time>2023-05-14T00:19:29Z</time></trkpt><trkpt lat="47.438706" lon="-121.775831"><ele>379.0</ele><time>2023-05-14T00:19:32Z</time></trkpt><trkpt lat="47.43877" lon="-121.775754"><ele>376.0</ele><time>2023-05-14T00:19:41Z</time></trkpt><trkpt lat="47.438805" lon="-121.775733"><ele>375.0</ele><time>2023-05-14T00:19:44Z</time></trkpt><trkpt lat="47.438883" lon="-121.775713"><ele>374.0</ele><time>2023-05-14T00:19:50Z</time></trkpt><trkpt lat="47.438916" lon="-121.775724"><ele>372.0</ele><time>2023-05-14T00:19:53Z</time></trkpt><trkpt lat="47.438958" lon="-121.775724"><ele>374.0</ele><time>2023-05-14T00:19:56Z</time></trkpt><trkpt lat="47.439119" lon="-121.775637"><ele>371.8</ele><time>2023-05-14T00:20:10Z</time></trkpt><trkpt lat="47.439154" lon="-121.775636"><ele>372.0</ele><time>2023-05-14T00:20:12Z</time></trkpt><trkpt lat="47.439157" lon="-121.775571"><ele>372.0</ele><time>2023-05-14T00:20:14Z</time></trkpt><trkpt lat="47.439216" lon="-121.775527"><ele>372.0</ele><time>2023-05-14T00:20:19Z</time></trkpt><trkpt lat="47.43926" lon="-121.775471"><ele>374.0</ele><time>2023-05-14T00:20:24Z</time></trkpt><trkpt lat="47.439316" lon="-121.775502"><ele>373.0</ele><time>2023-05-14T00:20:27Z</time></trkpt><trkpt lat="47.439403" lon="-121.775464"><ele>375.0</ele><time>2023-05-14T00:20:34Z</time></trkpt><trkpt lat="47.439479" lon="-121.775474"><ele>372.0</ele><time>2023-05-14T00:20:40Z</time></trkpt><trkpt lat="47.43949" lon="-121.775511"><ele>368.0</ele><time>2023-05-14T00:20:44Z</time></trkpt><trkpt lat="47.439532" lon="-121.775534"><ele>369.0</ele><time>2023-05-14T00:20:46Z</time></trkpt><trkpt lat="47.439598" lon="-121.775486"><ele>366.0</ele><time>2023-05-14T00:20:53Z</time></trkpt><trkpt lat="47.439617" lon="-121.775447"><ele>366.0</ele><time>2023-05-14T00:20:57Z</time></trkpt><trkpt lat="47.439658" lon="-121.775415"><ele>360.0</ele><time>2023-05-14T00:21:05Z</time></trkpt><trkpt lat="47.439664" lon="-121.77534"><ele>365.9</ele><time>2023-05-14T00:21:10Z</time></trkpt><trkpt lat="47.439633" lon="-121.775284"><ele>364.0</ele><time>2023-05-14T00:21:14Z</time></trkpt><trkpt lat="47.439599" lon="-121.775266"><ele>364.0</ele><time>2023-05-14T00:21:16Z</time></trkpt><trkpt lat="47.43951" lon="-121.775244"><ele>366.0</ele><time>2023-05-14T00:21:23Z</time></trkpt><trkpt lat="47.439485" lon="-121.775219"><ele>369.0</ele><time>2023-05-14T00:21:26Z</time></trkpt><trkpt lat="47.439454" lon="-121.775217"><ele>369.0</ele><time>2023-05-14T00:21:29Z</time></trkpt><trkpt lat="47.439402" lon="-121.775244"><ele>366.0</ele><time>2023-05-14T00:21:32Z</time></trkpt><trkpt lat="47.439367" lon="-121.775202"><ele>366.0</ele><time>2023-05-14T00:21:36Z</time></trkpt><trkpt lat="47.439264" lon="-121.775119"><ele>366.0</ele><time>2023-05-14T00:21:46Z</time></trkpt><trkpt lat="47.439238" lon="-121.775149"><ele>366.8</ele><time>2023-05-14T00:21:49Z</time></trkpt><trkpt lat="47.439213" lon="-121.775222"><ele>359.0</ele><time>2023-05-14T00:21:54Z</time></trkpt><trkpt lat="47.439148" lon="-121.775236"><ele>357.0</ele><time>2023-05-14T00:22:00Z</time></trkpt><trkpt lat="47.43907" lon="-121.775142"><ele>356.8</ele><time>2023-05-14T00:22:07Z</time></trkpt><trkpt lat="47.439038" lon="-121.775081"><ele>356.0</ele><time>2023-05-14T00:22:12Z</time></trkpt><trkpt lat="47.439009" lon="-121.775073"><ele>355.0</ele><time>2023-05-14T00:22:14Z</time></trkpt><trkpt lat="47.438962" lon="-121.775008"><ele>356.0</ele><time>2023-05-14T00:22:19Z</time></trkpt><trkpt lat="47.438927" lon="-121.775008"><ele>356.0</ele><time>2023-05-14T00:22:21Z</time></trkpt><trkpt lat="47.43886" lon="-121.774973"><ele>354.0</ele><time>2023-05-14T00:22:27Z</time></trkpt><trkpt lat="47.438823" lon="-121.774946"><ele>353.0</ele><time>2023-05-14T00:22:30Z</time></trkpt><trkpt lat="47.4388" lon="-121.774911"><ele>354.0</ele><time>2023-05-14T00:22:32Z</time></trkpt><trkpt lat="47.438709" lon="-121.774862"><ele>353.0</ele><time>2023-05-14T00:22:38Z</time></trkpt><trkpt lat="47.43867" lon="-121.774899"><ele>352.0</ele><time>2023-05-14T00:22:41Z</time></trkpt><trkpt lat="47.438634" lon="-121.774871"><ele>352.0</ele><time>2023-05-14T00:22:47Z</time></trkpt><trkpt lat="47.438602" lon="-121.774826"><ele>350.9</ele><time>2023-05-14T00:22:52Z</time></trkpt><trkpt lat="47.438569" lon="-121.774823"><ele>350.0</ele><time>2023-05-14T00:22:54Z</time></trkpt><trkpt lat="47.438533" lon="-121.774844"><ele>349.8</ele><time>2023-05-14T00:22:55Z</time></trkpt><trkpt lat="47.438411" lon="-121.774876"><ele>348.0</ele><time>2023-05-14T00:23:11Z</time></trkpt><trkpt lat="47.438375" lon="-121.774859"><ele>348.0</ele><time>2023-05-14T00:23:14Z</time></trkpt><trkpt lat="47.438351" lon="-121.774835"><ele>348.0</ele><time>2023-05-14T00:23:17Z</time></trkpt><trkpt lat="47.438321" lon="-121.774828"><ele>348.0</ele><time>2023-05-14T00:23:19Z</time></trkpt><trkpt lat="47.438285" lon="-121.774838"><ele>347.0</ele><time>2023-05-14T00:23:22Z</time></trkpt><trkpt lat="47.438246" lon="-121.774828"><ele>346.0</ele><time>2023-05-14T00:23:24Z</time></trkpt><trkpt lat="47.43823" lon="-121.774794"><ele>346.8</ele><time>2023-05-14T00:23:26Z</time></trkpt><trkpt lat="47.438198" lon="-121.774778"><ele>349.0</ele><time>2023-05-14T00:23:28Z</time></trkpt><trkpt lat="47.438155" lon="-121.774781"><ele>349.0</ele><time>2023-05-14T00:23:31Z</time></trkpt><trkpt lat="47.438114" lon="-121.774754"><ele>350.0</ele><time>2023-05-14T00:23:34Z</time></trkpt><trkpt lat="47.438077" lon="-121.774763"><ele>350.0</ele><time>2023-05-14T00:23:37Z</time></trkpt><trkpt lat="47.438008" lon="-121.774752"><ele>350.0</ele><time>2023-05-14T00:23:42Z</time></trkpt><trkpt lat="47.437978" lon="-121.774685"><ele>352.0</ele><time>2023-05-14T00:23:48Z</time></trkpt><trkpt lat="47.437939" lon="-121.774673"><ele>349.0</ele><time>2023-05-14T00:23:52Z</time></trkpt><trkpt lat="47.437928" lon="-121.774708"><ele>345.0</ele><time>2023-05-14T00:23:55Z</time></trkpt><trkpt lat="47.437848" lon="-121.774721"><ele>342.0</ele><time>2023-05-14T00:24:03Z</time></trkpt><trkpt lat="47.437831" lon="-121.774696"><ele>342.0</ele><time>2023-05-14T00:24:06Z</time></trkpt><trkpt lat="47.437769" lon="-121.774659"><ele>342.0</ele><time>2023-05-14T00:24:11Z</time></trkpt><trkpt lat="47.43774" lon="-121.774687"><ele>342.0</ele><time>2023-05-14T00:24:15Z</time></trkpt><trkpt lat="47.43769" lon="-121.774673"><ele>340.6</ele><time>2023-05-14T00:24:20Z</time></trkpt><trkpt lat="47.437638" lon="-121.774627"><ele>342.0</ele><time>2023-05-14T00:24:24Z</time></trkpt><trkpt lat="47.43758" lon="-121.77454"><ele>337.0</ele><time>2023-05-14T00:24:34Z</time></trkpt><trkpt lat="47.437545" lon="-121.77452"><ele>336.0</ele><time>2023-05-14T00:24:37Z</time></trkpt><trkpt lat="47.437492" lon="-121.774469"><ele>338.0</ele><time>2023-05-14T00:24:42Z</time></trkpt><trkpt lat="47.437398" lon="-121.77443"><ele>333.0</ele><time>2023-05-14T00:24:54Z</time></trkpt><trkpt lat="47.437296" lon="-121.774349"><ele>332.0</ele><time>2023-05-14T00:25:05Z</time></trkpt><trkpt lat="47.437255" lon="-121.774345"><ele>332.1</ele><time>2023-05-14T00:25:09Z</time></trkpt><trkpt lat="47.437217" lon="-121.774299"><ele>332.0</ele><time>2023-05-14T00:25:14Z</time></trkpt><trkpt lat="47.43718" lon="-121.774294"><ele>330.0</ele><time>2023-05-14T00:25:18Z</time></trkpt><trkpt lat="47.437156" lon="-121.774216"><ele>330.0</ele><time>2023-05-14T00:25:24Z</time></trkpt><trkpt lat="47.437119" lon="-121.774218"><ele>331.0</ele><time>2023-05-14T00:25:26Z</time></trkpt><trkpt lat="47.437093" lon="-121.774203"><ele>332.0</ele><time>2023-05-14T00:25:28Z</time></trkpt><trkpt lat="47.437068" lon="-121.774118"><ele>329.0</ele><time>2023-05-14T00:25:34Z</time></trkpt><trkpt lat="47.43698" lon="-121.774046"><ele>332.0</ele><time>2023-05-14T00:25:43Z</time></trkpt><trkpt lat="47.436942" lon="-121.773984"><ele>332.0</ele><time>2023-05-14T00:25:48Z</time></trkpt><trkpt lat="47.436913" lon="-121.773911"><ele>331.0</ele><time>2023-05-14T00:25:52Z</time></trkpt><trkpt lat="47.436843" lon="-121.773822"><ele>329.0</ele><time>2023-05-14T00:26:01Z</time></trkpt><trkpt lat="47.436803" lon="-121.773787"><ele>330.0</ele><time>2023-05-14T00:26:06Z</time></trkpt><trkpt lat="47.436764" lon="-121.773787"><ele>329.0</ele><time>2023-05-14T00:26:09Z</time></trkpt><trkpt lat="47.436709" lon="-121.773754"><ele>332.0</ele><time>2023-05-14T00:26:15Z</time></trkpt><trkpt lat="47.436675" lon="-121.773766"><ele>332.0</ele><time>2023-05-14T00:26:18Z</time></trkpt><trkpt lat="47.436644" lon="-121.773755"><ele>330.0</ele><time>2023-05-14T00:26:20Z</time></trkpt><trkpt lat="47.436593" lon="-121.77371"><ele>333.0</ele><time>2023-05-14T00:26:25Z</time></trkpt><trkpt lat="47.436575" lon="-121.773673"><ele>330.0</ele><time>2023-05-14T00:26:28Z</time></trkpt><trkpt lat="47.436543" lon="-121.773646"><ele>330.0</ele><time>2023-05-14T00:26:31Z</time></trkpt><trkpt lat="47.436556" lon="-121.773585"><ele>329.0</ele><time>2023-05-14T00:26:34Z</time></trkpt><trkpt lat="47.436619" lon="-121.773537"><ele>327.0</ele><time>2023-05-14T00:26:38Z</time></trkpt><trkpt lat="47.436641" lon="-121.773469"><ele>325.0</ele><time>2023-05-14T00:26:42Z</time></trkpt><trkpt lat="47.436625" lon="-121.773438"><ele>324.0</ele><time>2023-05-14T00:26:44Z</time></trkpt><trkpt lat="47.436594" lon="-121.773421"><ele>326.0</ele><time>2023-05-14T00:26:45Z</time></trkpt><trkpt lat="47.436551" lon="-121.773295"><ele>323.0</ele><time>2023-05-14T00:26:54Z</time></trkpt><trkpt lat="47.436553" lon="-121.773214"><ele>315.0</ele><time>2023-05-14T00:27:00Z</time></trkpt><trkpt lat="47.436531" lon="-121.773181"><ele>312.0</ele><time>2023-05-14T00:27:04Z</time></trkpt><trkpt lat="47.43652" lon="-121.773142"><ele>312.0</ele><time>2023-05-14T00:27:06Z</time></trkpt><trkpt lat="47.436419" lon="-121.773038"><ele>312.0</ele><time>2023-05-14T00:27:17Z</time></trkpt><trkpt lat="47.436355" lon="-121.773035"><ele>308.0</ele><time>2023-05-14T00:27:22Z</time></trkpt><trkpt lat="47.436317" lon="-121.773084"><ele>304.0</ele><time>2023-05-14T00:27:27Z</time></trkpt><trkpt lat="47.436272" lon="-121.773227"><ele>301.0</ele><time>2023-05-14T00:27:35Z</time></trkpt><trkpt lat="47.436227" lon="-121.773231"><ele>303.0</ele><time>2023-05-14T00:27:38Z</time></trkpt><trkpt lat="47.436206" lon="-121.773267"><ele>304.0</ele><time>2023-05-14T00:27:41Z</time></trkpt><trkpt lat="47.436175" lon="-121.773283"><ele>303.0</ele><time>2023-05-14T00:27:45Z</time></trkpt><trkpt lat="47.436144" lon="-121.773269"><ele>305.0</ele><time>2023-05-14T00:27:47Z</time></trkpt><trkpt lat="47.436085" lon="-121.773272"><ele>305.0</ele><time>2023-05-14T00:27:54Z</time></trkpt><trkpt lat="47.436051" lon="-121.773223"><ele>306.0</ele><time>2023-05-14T00:28:00Z</time></trkpt><trkpt lat="47.435995" lon="-121.773065"><ele>308.0</ele><time>2023-05-14T00:28:08Z</time></trkpt><trkpt lat="47.435965" lon="-121.773047"><ele>308.0</ele><time>2023-05-14T00:28:10Z</time></trkpt><trkpt lat="47.435897" lon="-121.773085"><ele>303.0</ele><time>2023-05-14T00:28:16Z</time></trkpt><trkpt lat="47.435868" lon="-121.773076"><ele>300.0</ele><time>2023-05-14T00:28:20Z</time></trkpt><trkpt lat="47.435801" lon="-121.773096"><ele>304.0</ele><time>2023-05-14T00:28:24Z</time></trkpt><trkpt lat="47.435773" lon="-121.773083"><ele>304.0</ele><time>2023-05-14T00:28:25Z</time></trkpt><trkpt lat="47.435711" lon="-121.773078"><ele>305.0</ele><time>2023-05-14T00:28:31Z</time></trkpt><trkpt lat="47.435639" lon="-121.773097"><ele>303.0</ele><time>2023-05-14T00:28:37Z</time></trkpt><trkpt lat="47.435602" lon="-121.77307"><ele>303.0</ele><time>2023-05-14T00:28:40Z</time></trkpt><trkpt lat="47.435589" lon="-121.773022"><ele>305.0</ele><time>2023-05-14T00:28:43Z</time></trkpt><trkpt lat="47.435604" lon="-121.772978"><ele>305.2</ele><time>2023-05-14T00:28:44Z</time></trkpt><trkpt lat="47.435631" lon="-121.772944"><ele>304.0</ele><time>2023-05-14T00:28:46Z</time></trkpt><trkpt lat="47.435669" lon="-121.772924"><ele>303.0</ele><time>2023-05-14T00:28:48Z</time></trkpt><trkpt lat="47.43576" lon="-121.772825"><ele>298.0</ele><time>2023-05-14T00:28:56Z</time></trkpt><trkpt lat="47.435802" lon="-121.772671"><ele>294.0</ele><time>2023-05-14T00:29:07Z</time></trkpt><trkpt lat="47.435804" lon="-121.772639"><ele>293.0</ele><time>2023-05-14T00:29:09Z</time></trkpt><trkpt lat="47.435793" lon="-121.772602"><ele>294.0</ele><time>2023-05-14T00:29:11Z</time></trkpt><trkpt lat="47.435802" lon="-121.772564"><ele>294.0</ele><time>2023-05-14T00:29:13Z</time></trkpt><trkpt lat="47.435792" lon="-121.772506"><ele>294.0</ele><time>2023-05-14T00:29:15Z</time></trkpt><trkpt lat="47.435817" lon="-121.772456"><ele>293.0</ele><time>2023-05-14T00:29:19Z</time></trkpt><trkpt lat="47.435824" lon="-121.77238"><ele>291.1</ele><time>2023-05-14T00:29:24Z</time></trkpt><trkpt lat="47.435805" lon="-121.772355"><ele>290.0</ele><time>2023-05-14T00:29:26Z</time></trkpt><trkpt lat="47.435843" lon="-121.772289"><ele>289.0</ele><time>2023-05-14T00:29:30Z</time></trkpt><trkpt lat="47.43583" lon="-121.77223"><ele>290.0</ele><time>2023-05-14T00:29:32Z</time></trkpt><trkpt lat="47.435806" lon="-121.772187"><ele>290.0</ele><time>2023-05-14T00:29:35Z</time></trkpt><trkpt lat="47.435787" lon="-121.772058"><ele>290.0</ele><time>2023-05-14T00:29:43Z</time></trkpt><trkpt lat="47.435803" lon="-121.771988"><ele>290.0</ele><time>2023-05-14T00:29:46Z</time></trkpt><trkpt lat="47.435837" lon="-121.771974"><ele>291.0</ele><time>2023-05-14T00:29:50Z</time></trkpt><trkpt lat="47.435812" lon="-121.771962"><ele>292.2</ele><time>2023-05-14T00:29:52Z</time></trkpt><trkpt lat="47.435797" lon="-121.771892"><ele>290.0</ele><time>2023-05-14T00:29:54Z</time></trkpt><trkpt lat="47.435807" lon="-121.771814"><ele>287.0</ele><time>2023-05-14T00:29:59Z</time></trkpt><trkpt lat="47.435776" lon="-121.771775"><ele>286.0</ele><time>2023-05-14T00:30:01Z</time></trkpt><trkpt lat="47.435728" lon="-121.771742"><ele>288.4</ele><time>2023-05-14T00:30:06Z</time></trkpt><trkpt lat="47.435697" lon="-121.771738"><ele>288.1</ele><time>2023-05-14T00:30:07Z</time></trkpt><trkpt lat="47.43569" lon="-121.7717"><ele>289.3</ele><time>2023-05-14T00:30:09Z</time></trkpt><trkpt lat="47.435645" lon="-121.771698"><ele>288.0</ele><time>2023-05-14T00:30:11Z</time></trkpt><trkpt lat="47.435627" lon="-121.771665"><ele>290.0</ele><time>2023-05-14T00:30:13Z</time></trkpt><trkpt lat="47.435627" lon="-121.771585"><ele>288.0</ele><time>2023-05-14T00:30:16Z</time></trkpt><trkpt lat="47.435643" lon="-121.771532"><ele>286.0</ele><time>2023-05-14T00:30:18Z</time></trkpt><trkpt lat="47.435711" lon="-121.771405"><ele>288.0</ele><time>2023-05-14T00:30:25Z</time></trkpt><trkpt lat="47.43576" lon="-121.771387"><ele>285.2</ele><time>2023-05-14T00:30:29Z</time></trkpt><trkpt lat="47.435797" lon="-121.771318"><ele>283.0</ele><time>2023-05-14T00:30:34Z</time></trkpt><trkpt lat="47.435817" lon="-121.771232"><ele>282.0</ele><time>2023-05-14T00:30:38Z</time></trkpt><trkpt lat="47.435881" lon="-121.771188"><ele>282.0</ele><time>2023-05-14T00:30:43Z</time></trkpt><trkpt lat="47.435946" lon="-121.771109"><ele>281.0</ele><time>2023-05-14T00:30:51Z</time></trkpt><trkpt lat="47.435976" lon="-121.771046"><ele>280.0</ele><time>2023-05-14T00:30:56Z</time></trkpt><trkpt lat="47.436034" lon="-121.770999"><ele>279.0</ele><time>2023-05-14T00:31:01Z</time></trkpt><trkpt lat="47.436078" lon="-121.770946"><ele>279.0</ele><time>2023-05-14T00:31:06Z</time></trkpt><trkpt lat="47.436106" lon="-121.770887"><ele>282.0</ele><time>2023-05-14T00:31:11Z</time></trkpt><trkpt lat="47.436163" lon="-121.770841"><ele>280.0</ele><time>2023-05-14T00:31:16Z</time></trkpt><trkpt lat="47.436231" lon="-121.770715"><ele>281.9</ele><time>2023-05-14T00:31:26Z</time></trkpt><trkpt lat="47.436232" lon="-121.770673"><ele>280.0</ele><time>2023-05-14T00:31:29Z</time></trkpt><trkpt lat="47.436261" lon="-121.770603"><ele>281.0</ele><time>2023-05-14T00:31:34Z</time></trkpt><trkpt lat="47.436261" lon="-121.770474"><ele>280.0</ele><time>2023-05-14T00:31:42Z</time></trkpt><trkpt lat="47.436289" lon="-121.770348"><ele>282.0</ele><time>2023-05-14T00:31:49Z</time></trkpt><trkpt lat="47.436292" lon="-121.770212"><ele>280.0</ele><time>2023-05-14T00:31:57Z</time></trkpt><trkpt lat="47.436303" lon="-121.770175"><ele>281.0</ele><time>2023-05-14T00:32:00Z</time></trkpt><trkpt lat="47.436296" lon="-121.770036"><ele>281.0</ele><time>2023-05-14T00:32:06Z</time></trkpt><trkpt lat="47.436275" lon="-121.769968"><ele>282.5</ele><time>2023-05-14T00:32:10Z</time></trkpt><trkpt lat="47.436266" lon="-121.76974"><ele>280.0</ele><time>2023-05-14T00:32:23Z</time></trkpt><trkpt lat="47.436243" lon="-121.769673"><ele>282.0</ele><time>2023-05-14T00:32:27Z</time></trkpt><trkpt lat="47.436231" lon="-121.769584"><ele>282.0</ele><time>2023-05-14T00:32:33Z</time></trkpt><trkpt lat="47.436161" lon="-121.769443"><ele>280.0</ele><time>2023-05-14T00:32:44Z</time></trkpt><trkpt lat="47.436035" lon="-121.769338"><ele>280.0</ele><time>2023-05-14T00:32:55Z</time></trkpt><trkpt lat="47.43594" lon="-121.769283"><ele>280.0</ele><time>2023-05-14T00:33:06Z</time></trkpt><trkpt lat="47.435819" lon="-121.76924"><ele>281.0</ele><time>2023-05-14T00:33:17Z</time></trkpt><trkpt lat="47.43579" lon="-121.769212"><ele>281.0</ele><time>2023-05-14T00:33:20Z</time></trkpt><trkpt lat="47.435689" lon="-121.769213"><ele>280.0</ele><time>2023-05-14T00:33:28Z</time></trkpt><trkpt lat="47.43552" lon="-121.769232"><ele>284.0</ele><time>2023-05-14T00:33:41Z</time></trkpt><trkpt lat="47.435465" lon="-121.769212"><ele>282.0</ele><time>2023-05-14T00:33:46Z</time></trkpt><trkpt lat="47.435293" lon="-121.769233"><ele>282.0</ele><time>2023-05-14T00:34:03Z</time></trkpt><trkpt lat="47.435138" lon="-121.76923"><ele>279.0</ele><time>2023-05-14T00:34:16Z</time></trkpt><trkpt lat="47.435085" lon="-121.769177"><ele>278.0</ele><time>2023-05-14T00:34:22Z</time></trkpt><trkpt lat="47.435018" lon="-121.769157"><ele>280.0</ele><time>2023-05-14T00:34:27Z</time></trkpt><trkpt lat="47.43499" lon="-121.769136"><ele>279.0</ele><time>2023-05-14T00:34:29Z</time></trkpt><trkpt lat="47.434953" lon="-121.769051"><ele>279.0</ele><time>2023-05-14T00:34:36Z</time></trkpt><trkpt lat="47.434864" lon="-121.76894"><ele>278.0</ele><time>2023-05-14T00:34:46Z</time></trkpt><trkpt lat="47.434808" lon="-121.768841"><ele>276.0</ele><time>2023-05-14T00:34:52Z</time></trkpt><trkpt lat="47.434754" lon="-121.76879"><ele>276.0</ele><time>2023-05-14T00:35:00Z</time></trkpt><trkpt lat="47.434799" lon="-121.768785"><ele>276.0</ele><time>2023-05-14T00:35:04Z</time></trkpt><trkpt lat="47.43486" lon="-121.768829"><ele>276.0</ele><time>2023-05-14T00:35:08Z</time></trkpt><trkpt lat="47.434907" lon="-121.768778"><ele>276.0</ele><time>2023-05-14T00:35:12Z</time></trkpt><trkpt lat="47.435088" lon="-121.768732"><ele>278.0</ele><time>2023-05-14T00:35:25Z</time></trkpt><trkpt lat="47.435151" lon="-121.768694"><ele>278.0</ele><time>2023-05-14T00:35:31Z</time></trkpt><trkpt lat="47.435215" lon="-121.768553"><ele>276.0</ele><time>2023-05-14T00:35:39Z</time></trkpt><trkpt lat="47.435301" lon="-121.768499"><ele>275.0</ele><time>2023-05-14T00:35:48Z</time></trkpt><trkpt lat="47.435359" lon="-121.768443"><ele>276.0</ele><time>2023-05-14T00:35:57Z</time></trkpt><trkpt lat="47.435425" lon="-121.768428"><ele>276.0</ele><time>2023-05-14T00:36:03Z</time></trkpt><trkpt lat="47.435483" lon="-121.768435"><ele>275.0</ele><time>2023-05-14T00:36:05Z</time></trkpt><trkpt lat="47.435502" lon="-121.768409"><ele>276.0</ele><time>2023-05-14T00:36:08Z</time></trkpt><trkpt lat="47.435543" lon="-121.768409"><ele>276.0</ele><time>2023-05-14T00:36:11Z</time></trkpt><trkpt lat="47.435597" lon="-121.768375"><ele>276.0</ele><time>2023-05-14T00:36:17Z</time></trkpt><trkpt lat="47.435625" lon="-121.768333"><ele>277.0</ele><time>2023-05-14T00:36:20Z</time></trkpt><trkpt lat="47.435733" lon="-121.768235"><ele>279.0</ele><time>2023-05-14T00:36:30Z</time></trkpt><trkpt lat="47.435904" lon="-121.768133"><ele>278.0</ele><time>2023-05-14T00:36:46Z</time></trkpt><trkpt lat="47.435932" lon="-121.768061"><ele>278.0</ele><time>2023-05-14T00:36:51Z</time></trkpt><trkpt lat="47.435943" lon="-121.767972"><ele>270.0</ele><time>2023-05-14T00:37:00Z</time></trkpt><trkpt lat="47.435967" lon="-121.767974"><ele>278.0</ele><time>2023-05-14T00:37:05Z</time></trkpt><trkpt lat="47.436096" lon="-121.767921"><ele>280.0</ele><time>2023-05-14T00:38:45Z</time></trkpt><trkpt lat="47.436032" lon="-121.767909"><ele>281.9</ele><time>2023-05-14T00:38:51Z</time></trkpt><trkpt lat="47.435999" lon="-121.767913"><ele>281.9</ele><time>2023-05-14T00:38:52Z</time></trkpt><trkpt lat="47.435928" lon="-121.767955"><ele>282.6</ele><time>2023-05-14T00:38:54Z</time></trkpt><trkpt lat="47.435747" lon="-121.768021"><ele>283.0</ele><time>2023-05-14T00:38:58Z</time></trkpt><trkpt lat="47.43551" lon="-121.768043"><ele>281.0</ele><time>2023-05-14T00:39:03Z</time></trkpt><trkpt lat="47.435464" lon="-121.768069"><ele>281.6</ele><time>2023-05-14T00:39:04Z</time></trkpt><trkpt lat="47.435441" lon="-121.768115"><ele>281.2</ele><time>2023-05-14T00:39:05Z</time></trkpt><trkpt lat="47.435411" lon="-121.768221"><ele>279.5</ele><time>2023-05-14T00:39:07Z</time></trkpt><trkpt lat="47.435388" lon="-121.768382"><ele>278.9</ele><time>2023-05-14T00:39:11Z</time></trkpt><trkpt lat="47.435395" lon="-121.768421"><ele>278.6</ele><time>2023-05-14T00:39:12Z</time></trkpt><trkpt lat="47.435423" lon="-121.768463"><ele>278.5</ele><time>2023-05-14T00:39:13Z</time></trkpt><trkpt lat="47.43548" lon="-121.76848"><ele>278.2</ele><time>2023-05-14T00:39:14Z</time></trkpt><trkpt lat="47.435524" lon="-121.768462"><ele>278.7</ele><time>2023-05-14T00:39:15Z</time></trkpt><trkpt lat="47.435686" lon="-121.768292"><ele>277.4</ele><time>2023-05-14T00:39:20Z</time></trkpt><trkpt lat="47.435846" lon="-121.768196"><ele>277.1</ele><time>2023-05-14T00:39:28Z</time></trkpt></trkseg></trk></gpx>