<?xml version="1.0" ?><gpx xmlns="http://www.topografix.com/GPX/1/1" creator="GaiaGPS" version="1.1" xmlns:xsi="http://www.w3.org/2001/XMLSchema-instance" xsi:schemaLocation="http://www.topografix.com/GPX/1/1 http://www.topografix.com/GPX/1/1/gpx.xsd"><trk><name>Track (8/19/23, 10:27:01AM)</name><desc></desc><extensions><line xmlns="http://www.topografix.com/GPX/gpx_style/0/2"><color>4ABD32</color></line></extensions><trkseg><trkpt lat="46.887683" lon="-121.504865"><ele>1650.4</ele><time>2023-08-19T17:27:02Z</time></trkpt><trkpt lat="46.887723" lon="-121.504968"><ele>1658.2</ele><time>2023-08-19T17:27:14Z</time></trkpt><trkpt lat="46.887867" lon="-121.505037"><ele>1654.0</ele><time>2023-08-19T17:27:22Z</time></trkpt><trkpt lat="46.887973" lon="-121.505127"><ele>1653.0</ele><time>2023-08-19T17:27:29Z</time></trkpt><trkpt lat="46.888004" lon="-121.505142"><ele>1652.0</ele><time>2023-08-19T17:27:31Z</time></trkpt><trkpt lat="46.888024" lon="-121.505179"><ele>1653.6</ele><time>2023-08-19T17:27:33Z</time></trkpt><trkpt lat="46.88806" lon="-121.505171"><ele>1652.0</ele><time>2023-08-19T17:27:34Z</time></trkpt><trkpt lat="46.888065" lon="-121.505202"><ele>1652.0</ele><time>2023-08-19T17:27:36Z</time></trkpt><trkpt lat="46.888092" lon="-121.505231"><ele>1652.0</ele><time>2023-08-19T17:27:39Z</time></trkpt><trkpt lat="46.888062" lon="-121.505308"><ele>1652.0</ele><time>2023-08-19T17:27:42Z</time></trkpt><trkpt lat="46.888126" lon="-121.505355"><ele>1650.0</ele><time>2023-08-19T17:27:47Z</time></trkpt><trkpt lat="46.888157" lon="-121.505471"><ele>1654.1</ele><time>2023-08-19T17:27:53Z</time></trkpt><trkpt lat="46.888191" lon="-121.505534"><ele>1654.0</ele><time>2023-08-19T17:27:57Z</time></trkpt><trkpt lat="46.888192" lon="-121.505594"><ele>1653.0</ele><time>2023-08-19T17:27:59Z</time></trkpt><trkpt lat="46.888236" lon="-121.505668"><ele>1655.0</ele><time>2023-08-19T17:28:05Z</time></trkpt><trkpt lat="46.888276" lon="-121.505684"><ele>1656.0</ele><time>2023-08-19T17:28:08Z</time></trkpt><trkpt lat="46.888318" lon="-121.505682"><ele>1657.0</ele><time>2023-08-19T17:28:09Z</time></trkpt><trkpt lat="46.888324" lon="-121.505741"><ele>1657.0</ele><time>2023-08-19T17:28:14Z</time></trkpt><trkpt lat="46.888389" lon="-121.505838"><ele>1662.0</ele><time>2023-08-19T17:28:24Z</time></trkpt><trkpt lat="46.888374" lon="-121.505899"><ele>1662.0</ele><time>2023-08-19T17:28:26Z</time></trkpt><trkpt lat="46.888414" lon="-121.505897"><ele>1664.0</ele><time>2023-08-19T17:28:29Z</time></trkpt><trkpt lat="46.888383" lon="-121.505916"><ele>1664.0</ele><time>2023-08-19T17:28:32Z</time></trkpt><trkpt lat="46.888452" lon="-121.505949"><ele>1662.0</ele><time>2023-08-19T17:28:37Z</time></trkpt><trkpt lat="46.88845" lon="-121.50598"><ele>1666.0</ele><time>2023-08-19T17:28:41Z</time></trkpt><trkpt lat="46.888421" lon="-121.506051"><ele>1668.0</ele><time>2023-08-19T17:28:46Z</time></trkpt><trkpt lat="46.888505" lon="-121.506065"><ele>1670.0</ele><time>2023-08-19T17:28:49Z</time></trkpt><trkpt lat="46.888533" lon="-121.506081"><ele>1670.4</ele><time>2023-08-19T17:28:50Z</time></trkpt><trkpt lat="46.888552" lon="-121.506121"><ele>1670.0</ele><time>2023-08-19T17:28:51Z</time></trkpt><trkpt lat="46.88862" lon="-121.506204"><ele>1672.0</ele><time>2023-08-19T17:28:56Z</time></trkpt><trkpt lat="46.8887" lon="-121.506212"><ele>1671.0</ele><time>2023-08-19T17:29:02Z</time></trkpt><trkpt lat="46.888742" lon="-121.506169"><ele>1673.0</ele><time>2023-08-19T17:29:06Z</time></trkpt><trkpt lat="46.888787" lon="-121.506157"><ele>1674.0</ele><time>2023-08-19T17:29:09Z</time></trkpt><trkpt lat="46.888812" lon="-121.506026"><ele>1675.0</ele><time>2023-08-19T17:29:18Z</time></trkpt><trkpt lat="46.888865" lon="-121.506056"><ele>1675.0</ele><time>2023-08-19T17:29:23Z</time></trkpt><trkpt lat="46.88886" lon="-121.506094"><ele>1672.0</ele><time>2023-08-19T17:29:26Z</time></trkpt><trkpt lat="46.888899" lon="-121.506105"><ele>1674.0</ele><time>2023-08-19T17:29:30Z</time></trkpt><trkpt lat="46.888913" lon="-121.506133"><ele>1674.0</ele><time>2023-08-19T17:29:33Z</time></trkpt><trkpt lat="46.888948" lon="-121.506129"><ele>1674.7</ele><time>2023-08-19T17:29:35Z</time></trkpt><trkpt lat="46.888964" lon="-121.506196"><ele>1674.0</ele><time>2023-08-19T17:29:38Z</time></trkpt><trkpt lat="46.889061" lon="-121.506201"><ele>1676.0</ele><time>2023-08-19T17:29:44Z</time></trkpt><trkpt lat="46.889077" lon="-121.506218"><ele>1676.0</ele><time>2023-08-19T17:29:47Z</time></trkpt><trkpt lat="46.889241" lon="-121.506207"><ele>1677.0</ele><time>2023-08-19T17:29:57Z</time></trkpt><trkpt lat="46.889254" lon="-121.506152"><ele>1676.0</ele><time>2023-08-19T17:30:00Z</time></trkpt><trkpt lat="46.889285" lon="-121.506128"><ele>1674.0</ele><time>2023-08-19T17:30:03Z</time></trkpt><trkpt lat="46.889324" lon="-121.506129"><ele>1676.0</ele><time>2023-08-19T17:30:06Z</time></trkpt><trkpt lat="46.889456" lon="-121.506261"><ele>1676.0</ele><time>2023-08-19T17:30:20Z</time></trkpt><trkpt lat="46.889492" lon="-121.506272"><ele>1676.0</ele><time>2023-08-19T17:30:23Z</time></trkpt><trkpt lat="46.889515" lon="-121.506295"><ele>1674.0</ele><time>2023-08-19T17:30:25Z</time></trkpt><trkpt lat="46.889562" lon="-121.506307"><ele>1677.6</ele><time>2023-08-19T17:30:27Z</time></trkpt><trkpt lat="46.889576" lon="-121.506364"><ele>1677.0</ele><time>2023-08-19T17:30:31Z</time></trkpt><trkpt lat="46.889687" lon="-121.506378"><ele>1679.0</ele><time>2023-08-19T17:30:39Z</time></trkpt><trkpt lat="46.889711" lon="-121.506349"><ele>1677.0</ele><time>2023-08-19T17:30:41Z</time></trkpt><trkpt lat="46.889749" lon="-121.506354"><ele>1675.0</ele><time>2023-08-19T17:30:45Z</time></trkpt><trkpt lat="46.889782" lon="-121.506339"><ele>1679.0</ele><time>2023-08-19T17:30:49Z</time></trkpt><trkpt lat="46.889748" lon="-121.506369"><ele>1680.0</ele><time>2023-08-19T17:30:54Z</time></trkpt><trkpt lat="46.889779" lon="-121.506418"><ele>1680.0</ele><time>2023-08-19T17:31:02Z</time></trkpt><trkpt lat="46.889764" lon="-121.506374"><ele>1682.0</ele><time>2023-08-19T17:31:10Z</time></trkpt><trkpt lat="46.889707" lon="-121.506327"><ele>1682.0</ele><time>2023-08-19T17:31:12Z</time></trkpt><trkpt lat="46.889655" lon="-121.506312"><ele>1676.0</ele><time>2023-08-19T17:31:25Z</time></trkpt><trkpt lat="46.889824" lon="-121.506429"><ele>1678.0</ele><time>2023-08-19T17:31:45Z</time></trkpt><trkpt lat="46.889839" lon="-121.506455"><ele>1679.0</ele><time>2023-08-19T17:31:47Z</time></trkpt><trkpt lat="46.889901" lon="-121.506481"><ele>1678.0</ele><time>2023-08-19T17:31:51Z</time></trkpt><trkpt lat="46.889928" lon="-121.506547"><ele>1681.2</ele><time>2023-08-19T17:31:58Z</time></trkpt><trkpt lat="46.889958" lon="-121.506567"><ele>1680.0</ele><time>2023-08-19T17:32:02Z</time></trkpt><trkpt lat="46.890035" lon="-121.506543"><ele>1682.0</ele><time>2023-08-19T17:32:10Z</time></trkpt><trkpt lat="46.890091" lon="-121.506497"><ele>1683.9</ele><time>2023-08-19T17:32:14Z</time></trkpt><trkpt lat="46.890125" lon="-121.506411"><ele>1684.0</ele><time>2023-08-19T17:32:20Z</time></trkpt><trkpt lat="46.89015" lon="-121.506383"><ele>1683.0</ele><time>2023-08-19T17:32:22Z</time></trkpt><trkpt lat="46.890181" lon="-121.506367"><ele>1684.0</ele><time>2023-08-19T17:32:25Z</time></trkpt><trkpt lat="46.890226" lon="-121.50636"><ele>1686.0</ele><time>2023-08-19T17:32:28Z</time></trkpt><trkpt lat="46.890298" lon="-121.506381"><ele>1687.0</ele><time>2023-08-19T17:32:32Z</time></trkpt><trkpt lat="46.890338" lon="-121.506377"><ele>1688.0</ele><time>2023-08-19T17:32:34Z</time></trkpt><trkpt lat="46.890431" lon="-121.506333"><ele>1688.0</ele><time>2023-08-19T17:32:41Z</time></trkpt><trkpt lat="46.890472" lon="-121.506346"><ele>1689.5</ele><time>2023-08-19T17:32:42Z</time></trkpt><trkpt lat="46.890506" lon="-121.506313"><ele>1689.0</ele><time>2023-08-19T17:32:44Z</time></trkpt><trkpt lat="46.890521" lon="-121.506278"><ele>1690.0</ele><time>2023-08-19T17:32:46Z</time></trkpt><trkpt lat="46.890531" lon="-121.506193"><ele>1689.0</ele><time>2023-08-19T17:32:51Z</time></trkpt><trkpt lat="46.89057" lon="-121.506123"><ele>1689.0</ele><time>2023-08-19T17:32:56Z</time></trkpt><trkpt lat="46.890568" lon="-121.506083"><ele>1689.8</ele><time>2023-08-19T17:32:57Z</time></trkpt><trkpt lat="46.890541" lon="-121.506054"><ele>1688.0</ele><time>2023-08-19T17:32:59Z</time></trkpt><trkpt lat="46.890498" lon="-121.50597"><ele>1689.9</ele><time>2023-08-19T17:33:01Z</time></trkpt><trkpt lat="46.890514" lon="-121.505783"><ele>1692.0</ele><time>2023-08-19T17:33:13Z</time></trkpt><trkpt lat="46.890595" lon="-121.505814"><ele>1689.0</ele><time>2023-08-19T17:33:22Z</time></trkpt><trkpt lat="46.890626" lon="-121.505793"><ele>1690.0</ele><time>2023-08-19T17:33:24Z</time></trkpt><trkpt lat="46.890681" lon="-121.505834"><ele>1688.0</ele><time>2023-08-19T17:33:29Z</time></trkpt><trkpt lat="46.890822" lon="-121.505836"><ele>1690.0</ele><time>2023-08-19T17:33:38Z</time></trkpt><trkpt lat="46.890932" lon="-121.505876"><ele>1692.0</ele><time>2023-08-19T17:33:47Z</time></trkpt><trkpt lat="46.890978" lon="-121.505883"><ele>1692.0</ele><time>2023-08-19T17:33:52Z</time></trkpt><trkpt lat="46.891046" lon="-121.505884"><ele>1692.0</ele><time>2023-08-19T17:33:56Z</time></trkpt><trkpt lat="46.891123" lon="-121.505806"><ele>1695.0</ele><time>2023-08-19T17:34:04Z</time></trkpt><trkpt lat="46.89116" lon="-121.505816"><ele>1694.0</ele><time>2023-08-19T17:34:07Z</time></trkpt><trkpt lat="46.891194" lon="-121.505846"><ele>1695.0</ele><time>2023-08-19T17:34:09Z</time></trkpt><trkpt lat="46.891334" lon="-121.505908"><ele>1698.0</ele><time>2023-08-19T17:34:22Z</time></trkpt><trkpt lat="46.891411" lon="-121.505894"><ele>1700.0</ele><time>2023-08-19T17:34:26Z</time></trkpt><trkpt lat="46.891478" lon="-121.505907"><ele>1698.0</ele><time>2023-08-19T17:34:31Z</time></trkpt><trkpt lat="46.891516" lon="-121.505877"><ele>1701.5</ele><time>2023-08-19T17:34:33Z</time></trkpt><trkpt lat="46.891554" lon="-121.505773"><ele>1702.0</ele><time>2023-08-19T17:34:40Z</time></trkpt><trkpt lat="46.891601" lon="-121.505749"><ele>1702.0</ele><time>2023-08-19T17:34:46Z</time></trkpt><trkpt lat="46.891695" lon="-121.50573"><ele>1704.0</ele><time>2023-08-19T17:34:53Z</time></trkpt><trkpt lat="46.891887" lon="-121.505759"><ele>1706.0</ele><time>2023-08-19T17:35:08Z</time></trkpt><trkpt lat="46.891919" lon="-121.505745"><ele>1706.0</ele><time>2023-08-19T17:35:10Z</time></trkpt><trkpt lat="46.891963" lon="-121.505583"><ele>1707.0</ele><time>2023-08-19T17:35:17Z</time></trkpt><trkpt lat="46.891946" lon="-121.505477"><ele>1707.0</ele><time>2023-08-19T17:35:25Z</time></trkpt><trkpt lat="46.891984" lon="-121.505366"><ele>1707.0</ele><time>2023-08-19T17:35:33Z</time></trkpt><trkpt lat="46.891971" lon="-121.505286"><ele>1705.0</ele><time>2023-08-19T17:35:39Z</time></trkpt><trkpt lat="46.892026" lon="-121.505124"><ele>1708.4</ele><time>2023-08-19T17:35:50Z</time></trkpt><trkpt lat="46.89208" lon="-121.505064"><ele>1708.0</ele><time>2023-08-19T17:35:54Z</time></trkpt><trkpt lat="46.89212" lon="-121.504961"><ele>1710.0</ele><time>2023-08-19T17:35:59Z</time></trkpt><trkpt lat="46.892149" lon="-121.504926"><ele>1710.0</ele><time>2023-08-19T17:36:02Z</time></trkpt><trkpt lat="46.892136" lon="-121.504895"><ele>1712.1</ele><time>2023-08-19T17:36:04Z</time></trkpt><trkpt lat="46.892099" lon="-121.504867"><ele>1710.0</ele><time>2023-08-19T17:36:06Z</time></trkpt><trkpt lat="46.892083" lon="-121.504823"><ele>1711.0</ele><time>2023-08-19T17:36:08Z</time></trkpt><trkpt lat="46.892083" lon="-121.50478"><ele>1710.0</ele><time>2023-08-19T17:36:10Z</time></trkpt><trkpt lat="46.892042" lon="-121.504722"><ele>1711.0</ele><time>2023-08-19T17:36:14Z</time></trkpt><trkpt lat="46.89206" lon="-121.504675"><ele>1710.0</ele><time>2023-08-19T17:36:16Z</time></trkpt><trkpt lat="46.892074" lon="-121.504581"><ele>1711.0</ele><time>2023-08-19T17:36:22Z</time></trkpt><trkpt lat="46.892049" lon="-121.50446"><ele>1713.0</ele><time>2023-08-19T17:36:29Z</time></trkpt><trkpt lat="46.892088" lon="-121.504381"><ele>1712.0</ele><time>2023-08-19T17:36:35Z</time></trkpt><trkpt lat="46.892044" lon="-121.504345"><ele>1714.3</ele><time>2023-08-19T17:36:38Z</time></trkpt><trkpt lat="46.892017" lon="-121.504291"><ele>1713.0</ele><time>2023-08-19T17:36:42Z</time></trkpt><trkpt lat="46.892022" lon="-121.504221"><ele>1713.0</ele><time>2023-08-19T17:36:48Z</time></trkpt><trkpt lat="46.892" lon="-121.50418"><ele>1713.0</ele><time>2023-08-19T17:36:51Z</time></trkpt><trkpt lat="46.892" lon="-121.504137"><ele>1713.0</ele><time>2023-08-19T17:36:54Z</time></trkpt><trkpt lat="46.892022" lon="-121.504107"><ele>1713.0</ele><time>2023-08-19T17:36:57Z</time></trkpt><trkpt lat="46.891996" lon="-121.504003"><ele>1714.0</ele><time>2023-08-19T17:37:04Z</time></trkpt><trkpt lat="46.892008" lon="-121.503942"><ele>1713.0</ele><time>2023-08-19T17:37:09Z</time></trkpt><trkpt lat="46.891958" lon="-121.503864"><ele>1714.0</ele><time>2023-08-19T17:37:15Z</time></trkpt><trkpt lat="46.891968" lon="-121.50374"><ele>1716.0</ele><time>2023-08-19T17:37:21Z</time></trkpt><trkpt lat="46.891962" lon="-121.503674"><ele>1716.0</ele><time>2023-08-19T17:37:25Z</time></trkpt><trkpt lat="46.891998" lon="-121.50361"><ele>1717.7</ele><time>2023-08-19T17:37:31Z</time></trkpt><trkpt lat="46.891999" lon="-121.503544"><ele>1717.0</ele><time>2023-08-19T17:37:34Z</time></trkpt><trkpt lat="46.892021" lon="-121.503482"><ele>1716.0</ele><time>2023-08-19T17:37:38Z</time></trkpt><trkpt lat="46.892034" lon="-121.503406"><ele>1716.0</ele><time>2023-08-19T17:37:44Z</time></trkpt><trkpt lat="46.892056" lon="-121.503371"><ele>1718.9</ele><time>2023-08-19T17:37:46Z</time></trkpt><trkpt lat="46.892082" lon="-121.503288"><ele>1720.0</ele><time>2023-08-19T17:37:52Z</time></trkpt><trkpt lat="46.89214" lon="-121.503212"><ele>1722.0</ele><time>2023-08-19T17:37:59Z</time></trkpt><trkpt lat="46.892091" lon="-121.503108"><ele>1723.0</ele><time>2023-08-19T17:38:05Z</time></trkpt><trkpt lat="46.892136" lon="-121.502942"><ele>1724.0</ele><time>2023-08-19T17:38:16Z</time></trkpt><trkpt lat="46.8922" lon="-121.502859"><ele>1725.0</ele><time>2023-08-19T17:38:21Z</time></trkpt><trkpt lat="46.892195" lon="-121.502822"><ele>1724.0</ele><time>2023-08-19T17:38:25Z</time></trkpt><trkpt lat="46.892212" lon="-121.502787"><ele>1724.0</ele><time>2023-08-19T17:38:28Z</time></trkpt><trkpt lat="46.89229" lon="-121.502736"><ele>1725.0</ele><time>2023-08-19T17:38:32Z</time></trkpt><trkpt lat="46.892353" lon="-121.502714"><ele>1725.0</ele><time>2023-08-19T17:38:37Z</time></trkpt><trkpt lat="46.892385" lon="-121.502686"><ele>1728.0</ele><time>2023-08-19T17:38:40Z</time></trkpt><trkpt lat="46.892471" lon="-121.502492"><ele>1729.0</ele><time>2023-08-19T17:38:59Z</time></trkpt><trkpt lat="46.892489" lon="-121.502566"><ele>1734.0</ele><time>2023-08-19T17:39:05Z</time></trkpt><trkpt lat="46.89248" lon="-121.502615"><ele>1735.0</ele><time>2023-08-19T17:39:09Z</time></trkpt><trkpt lat="46.892456" lon="-121.502661"><ele>1734.0</ele><time>2023-08-19T17:39:13Z</time></trkpt><trkpt lat="46.892453" lon="-121.502704"><ele>1734.0</ele><time>2023-08-19T17:39:16Z</time></trkpt><trkpt lat="46.892471" lon="-121.502822"><ele>1734.0</ele><time>2023-08-19T17:39:25Z</time></trkpt><trkpt lat="46.892456" lon="-121.502899"><ele>1734.0</ele><time>2023-08-19T17:39:30Z</time></trkpt><trkpt lat="46.892469" lon="-121.503008"><ele>1736.0</ele><time>2023-08-19T17:39:37Z</time></trkpt><trkpt lat="46.892579" lon="-121.50316"><ele>1737.0</ele><time>2023-08-19T17:39:49Z</time></trkpt><trkpt lat="46.892668" lon="-121.503219"><ele>1738.0</ele><time>2023-08-19T17:39:56Z</time></trkpt><trkpt lat="46.892702" lon="-121.503256"><ele>1737.0</ele><time>2023-08-19T17:40:01Z</time></trkpt><trkpt lat="46.89271" lon="-121.503478"><ele>1741.0</ele><time>2023-08-19T17:40:14Z</time></trkpt><trkpt lat="46.89273" lon="-121.503506"><ele>1740.0</ele><time>2023-08-19T17:40:17Z</time></trkpt><trkpt lat="46.892735" lon="-121.503603"><ele>1742.0</ele><time>2023-08-19T17:40:22Z</time></trkpt><trkpt lat="46.892759" lon="-121.503626"><ele>1742.0</ele><time>2023-08-19T17:40:24Z</time></trkpt><trkpt lat="46.892922" lon="-121.503426"><ele>1743.0</ele><time>2023-08-19T17:40:40Z</time></trkpt><trkpt lat="46.892994" lon="-121.503396"><ele>1744.0</ele><time>2023-08-19T17:40:45Z</time></trkpt><trkpt lat="46.893098" lon="-121.503444"><ele>1746.0</ele><time>2023-08-19T17:40:56Z</time></trkpt><trkpt lat="46.893233" lon="-121.50344"><ele>1748.0</ele><time>2023-08-19T17:41:07Z</time></trkpt><trkpt lat="46.893312" lon="-121.50335"><ele>1750.0</ele><time>2023-08-19T17:41:16Z</time></trkpt><trkpt lat="46.893345" lon="-121.503328"><ele>1750.0</ele><time>2023-08-19T17:41:18Z</time></trkpt><trkpt lat="46.89336" lon="-121.503261"><ele>1749.0</ele><time>2023-08-19T17:41:22Z</time></trkpt><trkpt lat="46.893414" lon="-121.503188"><ele>1752.0</ele><time>2023-08-19T17:41:28Z</time></trkpt><trkpt lat="46.89346" lon="-121.503173"><ele>1752.0</ele><time>2023-08-19T17:41:33Z</time></trkpt><trkpt lat="46.893494" lon="-121.50318"><ele>1753.0</ele><time>2023-08-19T17:41:35Z</time></trkpt><trkpt lat="46.893579" lon="-121.50316"><ele>1752.0</ele><time>2023-08-19T17:41:45Z</time></trkpt><trkpt lat="46.893687" lon="-121.50316"><ele>1753.0</ele><time>2023-08-19T17:41:56Z</time></trkpt><trkpt lat="46.893797" lon="-121.503112"><ele>1755.0</ele><time>2023-08-19T17:42:07Z</time></trkpt><trkpt lat="46.893891" lon="-121.503002"><ele>1754.0</ele><time>2023-08-19T17:42:19Z</time></trkpt><trkpt lat="46.893975" lon="-121.502939"><ele>1754.0</ele><time>2023-08-19T17:42:25Z</time></trkpt><trkpt lat="46.89404" lon="-121.502874"><ele>1752.0</ele><time>2023-08-19T17:42:33Z</time></trkpt><trkpt lat="46.894053" lon="-121.502834"><ele>1753.0</ele><time>2023-08-19T17:42:36Z</time></trkpt><trkpt lat="46.893952" lon="-121.502724"><ele>1751.0</ele><time>2023-08-19T17:42:44Z</time></trkpt><trkpt lat="46.893924" lon="-121.502635"><ele>1751.0</ele><time>2023-08-19T17:42:49Z</time></trkpt><trkpt lat="46.893916" lon="-121.502514"><ele>1750.0</ele><time>2023-08-19T17:42:57Z</time></trkpt><trkpt lat="46.893891" lon="-121.502536"><ele>1753.0</ele><time>2023-08-19T17:56:59Z</time></trkpt><trkpt lat="46.893824" lon="-121.502449"><ele>1754.0</ele><time>2023-08-19T17:57:20Z</time></trkpt><trkpt lat="46.893719" lon="-121.502394"><ele>1756.0</ele><time>2023-08-19T17:57:27Z</time></trkpt><trkpt lat="46.893662" lon="-121.502349"><ele>1756.0</ele><time>2023-08-19T17:57:31Z</time></trkpt><trkpt lat="46.893618" lon="-121.502264"><ele>1752.0</ele><time>2023-08-19T17:57:38Z</time></trkpt><trkpt lat="46.893618" lon="-121.502156"><ele>1754.0</ele><time>2023-08-19T17:57:44Z</time></trkpt><trkpt lat="46.893646" lon="-121.502107"><ele>1752.0</ele><time>2023-08-19T17:57:51Z</time></trkpt><trkpt lat="46.893631" lon="-121.502066"><ele>1752.0</ele><time>2023-08-19T17:57:57Z</time></trkpt><trkpt lat="46.893711" lon="-121.502105"><ele>1750.0</ele><time>2023-08-19T17:58:09Z</time></trkpt><trkpt lat="46.893747" lon="-121.50209"><ele>1751.0</ele><time>2023-08-19T17:58:37Z</time></trkpt><trkpt lat="46.893744" lon="-121.5022"><ele>1752.0</ele><time>2023-08-19T17:58:54Z</time></trkpt><trkpt lat="46.893702" lon="-121.502268"><ele>1752.0</ele><time>2023-08-19T17:59:00Z</time></trkpt><trkpt lat="46.893697" lon="-121.502336"><ele>1752.0</ele><time>2023-08-19T17:59:04Z</time></trkpt><trkpt lat="46.893712" lon="-121.502384"><ele>1751.0</ele><time>2023-08-19T17:59:07Z</time></trkpt><trkpt lat="46.893745" lon="-121.502401"><ele>1750.0</ele><time>2023-08-19T17:59:09Z</time></trkpt><trkpt lat="46.893842" lon="-121.502495"><ele>1752.0</ele><time>2023-08-19T17:59:20Z</time></trkpt><trkpt lat="46.893909" lon="-121.502538"><ele>1752.0</ele><time>2023-08-19T18:00:15Z</time></trkpt><trkpt lat="46.893922" lon="-121.502466"><ele>1752.0</ele><time>2023-08-19T18:00:27Z</time></trkpt><trkpt lat="46.894032" lon="-121.502243"><ele>1752.0</ele><time>2023-08-19T18:00:50Z</time></trkpt><trkpt lat="46.894089" lon="-121.502175"><ele>1752.0</ele><time>2023-08-19T18:00:56Z</time></trkpt><trkpt lat="46.894247" lon="-121.502057"><ele>1752.0</ele><time>2023-08-19T18:01:13Z</time></trkpt><trkpt lat="46.894309" lon="-121.502033"><ele>1752.0</ele><time>2023-08-19T18:01:18Z</time></trkpt><trkpt lat="46.894342" lon="-121.502008"><ele>1752.0</ele><time>2023-08-19T18:01:21Z</time></trkpt><trkpt lat="46.894362" lon="-121.501983"><ele>1752.0</ele><time>2023-08-19T18:01:24Z</time></trkpt><trkpt lat="46.894374" lon="-121.50194"><ele>1752.0</ele><time>2023-08-19T18:01:27Z</time></trkpt><trkpt lat="46.894368" lon="-121.501898"><ele>1752.0</ele><time>2023-08-19T18:01:29Z</time></trkpt><trkpt lat="46.894325" lon="-121.501798"><ele>1752.0</ele><time>2023-08-19T18:01:35Z</time></trkpt><trkpt lat="46.894258" lon="-121.501716"><ele>1752.0</ele><time>2023-08-19T18:01:42Z</time></trkpt><trkpt lat="46.894171" lon="-121.501563"><ele>1752.0</ele><time>2023-08-19T18:01:52Z</time></trkpt><trkpt lat="46.894181" lon="-121.50151"><ele>1752.0</ele><time>2023-08-19T18:01:56Z</time></trkpt><trkpt lat="46.894257" lon="-121.501505"><ele>1752.0</ele><time>2023-08-19T18:02:02Z</time></trkpt><trkpt lat="46.894399" lon="-121.501465"><ele>1755.0</ele><time>2023-08-19T18:02:14Z</time></trkpt><trkpt lat="46.894496" lon="-121.501429"><ele>1755.0</ele><time>2023-08-19T18:02:23Z</time></trkpt><trkpt lat="46.894561" lon="-121.501384"><ele>1755.0</ele><time>2023-08-19T18:02:30Z</time></trkpt><trkpt lat="46.894602" lon="-121.50138"><ele>1755.0</ele><time>2023-08-19T18:02:33Z</time></trkpt><trkpt lat="46.894755" lon="-121.501327"><ele>1755.0</ele><time>2023-08-19T18:02:49Z</time></trkpt><trkpt lat="46.894807" lon="-121.501304"><ele>1756.0</ele><time>2023-08-19T18:02:53Z</time></trkpt><trkpt lat="46.894858" lon="-121.501245"><ele>1755.0</ele><time>2023-08-19T18:02:59Z</time></trkpt><trkpt lat="46.894925" lon="-121.501205"><ele>1757.0</ele><time>2023-08-19T18:03:05Z</time></trkpt><trkpt lat="46.894961" lon="-121.501211"><ele>1756.0</ele><time>2023-08-19T18:03:08Z</time></trkpt><trkpt lat="46.895021" lon="-121.501254"><ele>1758.0</ele><time>2023-08-19T18:03:15Z</time></trkpt><trkpt lat="46.895093" lon="-121.501258"><ele>1760.0</ele><time>2023-08-19T18:03:20Z</time></trkpt><trkpt lat="46.895186" lon="-121.501222"><ele>1761.6</ele><time>2023-08-19T18:03:32Z</time></trkpt><trkpt lat="46.895289" lon="-121.501115"><ele>1761.0</ele><time>2023-08-19T18:03:46Z</time></trkpt><trkpt lat="46.89543" lon="-121.500882"><ele>1764.0</ele><time>2023-08-19T18:04:08Z</time></trkpt><trkpt lat="46.895525" lon="-121.500819"><ele>1766.0</ele><time>2023-08-19T18:04:16Z</time></trkpt><trkpt lat="46.895522" lon="-121.500718"><ele>1768.0</ele><time>2023-08-19T18:04:22Z</time></trkpt><trkpt lat="46.895557" lon="-121.500639"><ele>1770.0</ele><time>2023-08-19T18:04:29Z</time></trkpt><trkpt lat="46.89561" lon="-121.500578"><ele>1770.0</ele><time>2023-08-19T18:04:35Z</time></trkpt><trkpt lat="46.895697" lon="-121.500506"><ele>1772.0</ele><time>2023-08-19T18:04:42Z</time></trkpt><trkpt lat="46.895739" lon="-121.500443"><ele>1772.0</ele><time>2023-08-19T18:04:47Z</time></trkpt><trkpt lat="46.895762" lon="-121.500349"><ele>1772.0</ele><time>2023-08-19T18:04:53Z</time></trkpt><trkpt lat="46.895749" lon="-121.500271"><ele>1774.0</ele><time>2023-08-19T18:04:57Z</time></trkpt><trkpt lat="46.895767" lon="-121.500128"><ele>1774.0</ele><time>2023-08-19T18:05:06Z</time></trkpt><trkpt lat="46.895758" lon="-121.500053"><ele>1775.0</ele><time>2023-08-19T18:05:10Z</time></trkpt><trkpt lat="46.89577" lon="-121.500022"><ele>1776.0</ele><time>2023-08-19T18:05:12Z</time></trkpt><trkpt lat="46.895875" lon="-121.499947"><ele>1776.0</ele><time>2023-08-19T18:05:23Z</time></trkpt><trkpt lat="46.895903" lon="-121.499916"><ele>1776.0</ele><time>2023-08-19T18:05:26Z</time></trkpt><trkpt lat="46.896051" lon="-121.499673"><ele>1780.0</ele><time>2023-08-19T18:05:43Z</time></trkpt><trkpt lat="46.896095" lon="-121.499488"><ele>1779.0</ele><time>2023-08-19T18:05:53Z</time></trkpt><trkpt lat="46.895968" lon="-121.499175"><ele>1782.0</ele><time>2023-08-19T18:06:13Z</time></trkpt><trkpt lat="46.89589" lon="-121.499153"><ele>1784.0</ele><time>2023-08-19T18:06:20Z</time></trkpt><trkpt lat="46.895855" lon="-121.499163"><ele>1783.0</ele><time>2023-08-19T18:06:23Z</time></trkpt><trkpt lat="46.895754" lon="-121.499133"><ele>1785.0</ele><time>2023-08-19T18:06:32Z</time></trkpt><trkpt lat="46.895636" lon="-121.499164"><ele>1787.0</ele><time>2023-08-19T18:06:41Z</time></trkpt><trkpt lat="46.895601" lon="-121.499161"><ele>1786.0</ele><time>2023-08-19T18:06:44Z</time></trkpt><trkpt lat="46.895549" lon="-121.499109"><ele>1788.0</ele><time>2023-08-19T18:06:50Z</time></trkpt><trkpt lat="46.895483" lon="-121.499005"><ele>1788.0</ele><time>2023-08-19T18:06:57Z</time></trkpt><trkpt lat="46.895444" lon="-121.498849"><ele>1786.0</ele><time>2023-08-19T18:07:08Z</time></trkpt><trkpt lat="46.895437" lon="-121.498665"><ele>1787.0</ele><time>2023-08-19T18:07:19Z</time></trkpt><trkpt lat="46.895486" lon="-121.498563"><ele>1788.0</ele><time>2023-08-19T18:07:29Z</time></trkpt><trkpt lat="46.895587" lon="-121.498574"><ele>1788.0</ele><time>2023-08-19T18:07:39Z</time></trkpt><trkpt lat="46.895705" lon="-121.498634"><ele>1792.0</ele><time>2023-08-19T18:07:52Z</time></trkpt><trkpt lat="46.895779" lon="-121.498607"><ele>1794.0</ele><time>2023-08-19T18:07:57Z</time></trkpt><trkpt lat="46.895852" lon="-121.498527"><ele>1796.0</ele><time>2023-08-19T18:08:06Z</time></trkpt><trkpt lat="46.895852" lon="-121.498456"><ele>1796.0</ele><time>2023-08-19T18:08:10Z</time></trkpt><trkpt lat="46.895873" lon="-121.498335"><ele>1798.0</ele><time>2023-08-19T18:08:17Z</time></trkpt><trkpt lat="46.895933" lon="-121.498249"><ele>1799.0</ele><time>2023-08-19T18:08:24Z</time></trkpt><trkpt lat="46.896011" lon="-121.498199"><ele>1802.0</ele><time>2023-08-19T18:08:31Z</time></trkpt><trkpt lat="46.896094" lon="-121.498193"><ele>1800.0</ele><time>2023-08-19T18:08:39Z</time></trkpt><trkpt lat="46.89616" lon="-121.498202"><ele>1804.0</ele><time>2023-08-19T18:08:46Z</time></trkpt><trkpt lat="46.89619" lon="-121.498218"><ele>1803.0</ele><time>2023-08-19T18:08:49Z</time></trkpt><trkpt lat="46.896256" lon="-121.498214"><ele>1806.0</ele><time>2023-08-19T18:08:55Z</time></trkpt><trkpt lat="46.896317" lon="-121.498232"><ele>1806.0</ele><time>2023-08-19T18:09:02Z</time></trkpt><trkpt lat="46.896385" lon="-121.498235"><ele>1806.0</ele><time>2023-08-19T18:09:08Z</time></trkpt><trkpt lat="46.896417" lon="-121.498254"><ele>1809.0</ele><time>2023-08-19T18:09:11Z</time></trkpt><trkpt lat="46.896483" lon="-121.498262"><ele>1809.0</ele><time>2023-08-19T18:09:17Z</time></trkpt><trkpt lat="46.896541" lon="-121.498242"><ele>1810.0</ele><time>2023-08-19T18:09:22Z</time></trkpt><trkpt lat="46.8966" lon="-121.498242"><ele>1810.0</ele><time>2023-08-19T18:09:28Z</time></trkpt><trkpt lat="46.896658" lon="-121.498267"><ele>1808.0</ele><time>2023-08-19T18:09:35Z</time></trkpt><trkpt lat="46.896704" lon="-121.498264"><ele>1810.0</ele><time>2023-08-19T18:09:38Z</time></trkpt><trkpt lat="46.896752" lon="-121.498217"><ele>1812.0</ele><time>2023-08-19T18:09:43Z</time></trkpt><trkpt lat="46.896785" lon="-121.498218"><ele>1812.0</ele><time>2023-08-19T18:09:45Z</time></trkpt><trkpt lat="46.896839" lon="-121.498319"><ele>1812.0</ele><time>2023-08-19T18:09:54Z</time></trkpt><trkpt lat="46.897002" lon="-121.498439"><ele>1814.0</ele><time>2023-08-19T18:10:11Z</time></trkpt><trkpt lat="46.897039" lon="-121.49849"><ele>1817.1</ele><time>2023-08-19T18:10:15Z</time></trkpt><trkpt lat="46.897068" lon="-121.498507"><ele>1815.0</ele><time>2023-08-19T18:10:18Z</time></trkpt><trkpt lat="46.897136" lon="-121.498518"><ele>1817.0</ele><time>2023-08-19T18:10:24Z</time></trkpt><trkpt lat="46.897207" lon="-121.498512"><ele>1818.0</ele><time>2023-08-19T18:10:30Z</time></trkpt><trkpt lat="46.89734" lon="-121.498547"><ele>1820.0</ele><time>2023-08-19T18:10:43Z</time></trkpt><trkpt lat="46.897395" lon="-121.498602"><ele>1821.0</ele><time>2023-08-19T18:10:50Z</time></trkpt><trkpt lat="46.897425" lon="-121.498669"><ele>1821.0</ele><time>2023-08-19T18:10:55Z</time></trkpt><trkpt lat="46.897511" lon="-121.498763"><ele>1826.1</ele><time>2023-08-19T18:11:06Z</time></trkpt><trkpt lat="46.897576" lon="-121.498803"><ele>1824.0</ele><time>2023-08-19T18:11:13Z</time></trkpt><trkpt lat="46.897666" lon="-121.498835"><ele>1824.0</ele><time>2023-08-19T18:11:27Z</time></trkpt><trkpt lat="46.897666" lon="-121.498877"><ele>1827.0</ele><time>2023-08-19T18:11:32Z</time></trkpt><trkpt lat="46.897645" lon="-121.498923"><ele>1823.0</ele><time>2023-08-19T18:12:22Z</time></trkpt><trkpt lat="46.897648" lon="-121.498999"><ele>1831.0</ele><time>2023-08-19T18:13:36Z</time></trkpt><trkpt lat="46.897599" lon="-121.499071"><ele>1827.0</ele><time>2023-08-19T18:13:45Z</time></trkpt><trkpt lat="46.897588" lon="-121.499135"><ele>1829.0</ele><time>2023-08-19T18:13:50Z</time></trkpt><trkpt lat="46.897606" lon="-121.499325"><ele>1830.0</ele><time>2023-08-19T18:14:02Z</time></trkpt><trkpt lat="46.897599" lon="-121.499391"><ele>1830.0</ele><time>2023-08-19T18:14:06Z</time></trkpt><trkpt lat="46.897619" lon="-121.499464"><ele>1829.0</ele><time>2023-08-19T18:14:12Z</time></trkpt><trkpt lat="46.897664" lon="-121.499462"><ele>1830.0</ele><time>2023-08-19T18:14:16Z</time></trkpt><trkpt lat="46.897701" lon="-121.499395"><ele>1831.0</ele><time>2023-08-19T18:14:21Z</time></trkpt><trkpt lat="46.897824" lon="-121.49931"><ele>1832.0</ele><time>2023-08-19T18:14:33Z</time></trkpt><trkpt lat="46.897939" lon="-121.499302"><ele>1833.0</ele><time>2023-08-19T18:14:42Z</time></trkpt><trkpt lat="46.89797" lon="-121.499284"><ele>1833.0</ele><time>2023-08-19T18:14:45Z</time></trkpt><trkpt lat="46.898168" lon="-121.499238"><ele>1835.0</ele><time>2023-08-19T18:15:03Z</time></trkpt><trkpt lat="46.898236" lon="-121.499254"><ele>1836.0</ele><time>2023-08-19T18:15:09Z</time></trkpt><trkpt lat="46.898352" lon="-121.499313"><ele>1837.0</ele><time>2023-08-19T18:15:22Z</time></trkpt><trkpt lat="46.898386" lon="-121.499274"><ele>1839.0</ele><time>2023-08-19T18:15:28Z</time></trkpt><trkpt lat="46.898406" lon="-121.49916"><ele>1840.0</ele><time>2023-08-19T18:15:40Z</time></trkpt><trkpt lat="46.898411" lon="-121.499051"><ele>1841.0</ele><time>2023-08-19T18:15:46Z</time></trkpt><trkpt lat="46.898355" lon="-121.499023"><ele>1840.0</ele><time>2023-08-19T18:15:48Z</time></trkpt><trkpt lat="46.898392" lon="-121.498868"><ele>1840.0</ele><time>2023-08-19T18:15:57Z</time></trkpt><trkpt lat="46.898431" lon="-121.498804"><ele>1842.0</ele><time>2023-08-19T18:16:02Z</time></trkpt><trkpt lat="46.898518" lon="-121.498728"><ele>1844.0</ele><time>2023-08-19T18:16:10Z</time></trkpt><trkpt lat="46.898455" lon="-121.498418"><ele>1848.0</ele><time>2023-08-19T18:16:29Z</time></trkpt><trkpt lat="46.898431" lon="-121.498389"><ele>1848.0</ele><time>2023-08-19T18:16:32Z</time></trkpt><trkpt lat="46.898414" lon="-121.498313"><ele>1848.0</ele><time>2023-08-19T18:16:36Z</time></trkpt><trkpt lat="46.89837" lon="-121.498244"><ele>1849.0</ele><time>2023-08-19T18:16:41Z</time></trkpt><trkpt lat="46.898276" lon="-121.498154"><ele>1850.0</ele><time>2023-08-19T18:16:49Z</time></trkpt><trkpt lat="46.898177" lon="-121.498088"><ele>1851.0</ele><time>2023-08-19T18:16:59Z</time></trkpt><trkpt lat="46.898071" lon="-121.497978"><ele>1851.0</ele><time>2023-08-19T18:17:11Z</time></trkpt><trkpt lat="46.89803" lon="-121.497911"><ele>1851.0</ele><time>2023-08-19T18:17:17Z</time></trkpt><trkpt lat="46.898004" lon="-121.497834"><ele>1852.0</ele><time>2023-08-19T18:17:23Z</time></trkpt><trkpt lat="46.897934" lon="-121.497762"><ele>1854.0</ele><time>2023-08-19T18:17:32Z</time></trkpt><trkpt lat="46.897877" lon="-121.497626"><ele>1854.0</ele><time>2023-08-19T18:17:42Z</time></trkpt><trkpt lat="46.897782" lon="-121.497498"><ele>1854.0</ele><time>2023-08-19T18:17:55Z</time></trkpt><trkpt lat="46.89777" lon="-121.497469"><ele>1854.0</ele><time>2023-08-19T18:17:58Z</time></trkpt><trkpt lat="46.897822" lon="-121.49733"><ele>1857.0</ele><time>2023-08-19T18:18:09Z</time></trkpt><trkpt lat="46.897829" lon="-121.497252"><ele>1857.0</ele><time>2023-08-19T18:18:14Z</time></trkpt><trkpt lat="46.897881" lon="-121.497198"><ele>1855.0</ele><time>2023-08-19T18:18:21Z</time></trkpt><trkpt lat="46.897974" lon="-121.497152"><ele>1860.0</ele><time>2023-08-19T18:18:31Z</time></trkpt><trkpt lat="46.898004" lon="-121.497173"><ele>1860.8</ele><time>2023-08-19T18:18:34Z</time></trkpt><trkpt lat="46.898089" lon="-121.497142"><ele>1860.0</ele><time>2023-08-19T18:18:43Z</time></trkpt><trkpt lat="46.89833" lon="-121.496996"><ele>1865.0</ele><time>2023-08-19T18:19:08Z</time></trkpt><trkpt lat="46.898388" lon="-121.497002"><ele>1866.0</ele><time>2023-08-19T18:19:14Z</time></trkpt><trkpt lat="46.898492" lon="-121.497093"><ele>1866.0</ele><time>2023-08-19T18:19:30Z</time></trkpt><trkpt lat="46.898526" lon="-121.497093"><ele>1866.0</ele><time>2023-08-19T18:19:33Z</time></trkpt><trkpt lat="46.898599" lon="-121.497061"><ele>1869.0</ele><time>2023-08-19T18:19:39Z</time></trkpt><trkpt lat="46.898622" lon="-121.497025"><ele>1869.0</ele><time>2023-08-19T18:19:42Z</time></trkpt><trkpt lat="46.898619" lon="-121.496945"><ele>1869.0</ele><time>2023-08-19T18:19:48Z</time></trkpt><trkpt lat="46.898579" lon="-121.496763"><ele>1869.0</ele><time>2023-08-19T18:20:02Z</time></trkpt><trkpt lat="46.898546" lon="-121.496697"><ele>1872.0</ele><time>2023-08-19T18:20:07Z</time></trkpt><trkpt lat="46.898507" lon="-121.496673"><ele>1871.0</ele><time>2023-08-19T18:20:11Z</time></trkpt><trkpt lat="46.898487" lon="-121.496639"><ele>1873.4</ele><time>2023-08-19T18:20:14Z</time></trkpt><trkpt lat="46.898494" lon="-121.496609"><ele>1872.0</ele><time>2023-08-19T18:20:16Z</time></trkpt><trkpt lat="46.898528" lon="-121.496584"><ele>1872.0</ele><time>2023-08-19T18:20:19Z</time></trkpt><trkpt lat="46.898619" lon="-121.496416"><ele>1875.0</ele><time>2023-08-19T18:20:34Z</time></trkpt><trkpt lat="46.898643" lon="-121.49635"><ele>1878.0</ele><time>2023-08-19T18:20:40Z</time></trkpt><trkpt lat="46.898692" lon="-121.496296"><ele>1878.0</ele><time>2023-08-19T18:20:45Z</time></trkpt><trkpt lat="46.898729" lon="-121.49622"><ele>1878.0</ele><time>2023-08-19T18:20:51Z</time></trkpt><trkpt lat="46.89874" lon="-121.496144"><ele>1878.0</ele><time>2023-08-19T18:20:56Z</time></trkpt><trkpt lat="46.898694" lon="-121.495966"><ele>1880.0</ele><time>2023-08-19T18:21:10Z</time></trkpt><trkpt lat="46.898666" lon="-121.495755"><ele>1881.0</ele><time>2023-08-19T18:21:24Z</time></trkpt><trkpt lat="46.898676" lon="-121.495717"><ele>1875.0</ele><time>2023-08-19T18:21:53Z</time></trkpt><trkpt lat="46.898668" lon="-121.495651"><ele>1882.0</ele><time>2023-08-19T18:22:14Z</time></trkpt><trkpt lat="46.89876" lon="-121.495852"><ele>1881.0</ele><time>2023-08-19T18:22:30Z</time></trkpt><trkpt lat="46.898898" lon="-121.496019"><ele>1887.3</ele><time>2023-08-19T18:22:46Z</time></trkpt><trkpt lat="46.898942" lon="-121.496052"><ele>1887.0</ele><time>2023-08-19T18:22:51Z</time></trkpt><trkpt lat="46.899014" lon="-121.496192"><ele>1887.0</ele><time>2023-08-19T18:23:03Z</time></trkpt><trkpt lat="46.899091" lon="-121.496291"><ele>1890.0</ele><time>2023-08-19T18:23:13Z</time></trkpt><trkpt lat="46.89916" lon="-121.496421"><ele>1892.0</ele><time>2023-08-19T18:23:24Z</time></trkpt><trkpt lat="46.899234" lon="-121.496489"><ele>1894.0</ele><time>2023-08-19T18:23:33Z</time></trkpt><trkpt lat="46.899321" lon="-121.496612"><ele>1893.0</ele><time>2023-08-19T18:23:51Z</time></trkpt><trkpt lat="46.899451" lon="-121.496736"><ele>1896.0</ele><time>2023-08-19T18:24:10Z</time></trkpt><trkpt lat="46.899501" lon="-121.496844"><ele>1899.0</ele><time>2023-08-19T18:24:35Z</time></trkpt><trkpt lat="46.899549" lon="-121.496885"><ele>1901.0</ele><time>2023-08-19T18:24:41Z</time></trkpt><trkpt lat="46.899585" lon="-121.496944"><ele>1900.0</ele><time>2023-08-19T18:24:49Z</time></trkpt><trkpt lat="46.899638" lon="-121.497115"><ele>1900.0</ele><time>2023-08-19T18:25:02Z</time></trkpt><trkpt lat="46.899642" lon="-121.4972"><ele>1902.0</ele><time>2023-08-19T18:25:08Z</time></trkpt><trkpt lat="46.899666" lon="-121.497264"><ele>1904.0</ele><time>2023-08-19T18:25:13Z</time></trkpt><trkpt lat="46.899726" lon="-121.497507"><ele>1906.0</ele><time>2023-08-19T18:25:34Z</time></trkpt><trkpt lat="46.899745" lon="-121.497697"><ele>1908.0</ele><time>2023-08-19T18:25:48Z</time></trkpt><trkpt lat="46.899781" lon="-121.497804"><ele>1911.0</ele><time>2023-08-19T18:25:56Z</time></trkpt><trkpt lat="46.899967" lon="-121.498191"><ele>1914.0</ele><time>2023-08-19T18:26:30Z</time></trkpt><trkpt lat="46.899996" lon="-121.498235"><ele>1916.0</ele><time>2023-08-19T18:26:37Z</time></trkpt><trkpt lat="46.900026" lon="-121.498339"><ele>1919.0</ele><time>2023-08-19T18:26:46Z</time></trkpt><trkpt lat="46.900095" lon="-121.498473"><ele>1920.8</ele><time>2023-08-19T18:26:57Z</time></trkpt><trkpt lat="46.900123" lon="-121.498622"><ele>1922.0</ele><time>2023-08-19T18:27:13Z</time></trkpt><trkpt lat="46.900192" lon="-121.498856"><ele>1923.0</ele><time>2023-08-19T18:27:30Z</time></trkpt><trkpt lat="46.900275" lon="-121.498978"><ele>1923.0</ele><time>2023-08-19T18:27:51Z</time></trkpt><trkpt lat="46.900302" lon="-121.499051"><ele>1924.0</ele><time>2023-08-19T18:27:56Z</time></trkpt><trkpt lat="46.900388" lon="-121.4992"><ele>1926.0</ele><time>2023-08-19T18:28:07Z</time></trkpt><trkpt lat="46.900415" lon="-121.499271"><ele>1926.0</ele><time>2023-08-19T18:28:12Z</time></trkpt><trkpt lat="46.900602" lon="-121.499556"><ele>1930.0</ele><time>2023-08-19T18:28:34Z</time></trkpt><trkpt lat="46.900632" lon="-121.499586"><ele>1931.5</ele><time>2023-08-19T18:28:38Z</time></trkpt><trkpt lat="46.900695" lon="-121.499698"><ele>1932.0</ele><time>2023-08-19T18:28:47Z</time></trkpt><trkpt lat="46.900743" lon="-121.499757"><ele>1932.0</ele><time>2023-08-19T18:28:54Z</time></trkpt><trkpt lat="46.900805" lon="-121.499797"><ele>1930.0</ele><time>2023-08-19T18:29:01Z</time></trkpt><trkpt lat="46.900835" lon="-121.499828"><ele>1930.0</ele><time>2023-08-19T18:29:06Z</time></trkpt><trkpt lat="46.900899" lon="-121.49986"><ele>1935.0</ele><time>2023-08-19T18:29:15Z</time></trkpt><trkpt lat="46.900947" lon="-121.499924"><ele>1938.0</ele><time>2023-08-19T18:29:23Z</time></trkpt><trkpt lat="46.900912" lon="-121.499952"><ele>1938.0</ele><time>2023-08-19T18:29:44Z</time></trkpt><trkpt lat="46.900909" lon="-121.499983"><ele>1940.0</ele><time>2023-08-19T18:29:56Z</time></trkpt><trkpt lat="46.900985" lon="-121.500049"><ele>1944.0</ele><time>2023-08-19T18:30:07Z</time></trkpt><trkpt lat="46.901071" lon="-121.500195"><ele>1944.0</ele><time>2023-08-19T18:30:26Z</time></trkpt><trkpt lat="46.901107" lon="-121.50038"><ele>1944.0</ele><time>2023-08-19T18:30:43Z</time></trkpt><trkpt lat="46.901132" lon="-121.500353"><ele>1948.0</ele><time>2023-08-19T18:30:48Z</time></trkpt><trkpt lat="46.901129" lon="-121.500315"><ele>1949.0</ele><time>2023-08-19T18:30:53Z</time></trkpt><trkpt lat="46.901156" lon="-121.500221"><ele>1950.7</ele><time>2023-08-19T18:31:03Z</time></trkpt><trkpt lat="46.901157" lon="-121.500187"><ele>1950.0</ele><time>2023-08-19T18:31:06Z</time></trkpt><trkpt lat="46.901182" lon="-121.500139"><ele>1948.0</ele><time>2023-08-19T18:32:53Z</time></trkpt><trkpt lat="46.901186" lon="-121.500116"><ele>1952.0</ele><time>2023-08-19T18:42:04Z</time></trkpt><trkpt lat="46.90121" lon="-121.500178"><ele>1954.0</ele><time>2023-08-19T18:42:24Z</time></trkpt><trkpt lat="46.90126" lon="-121.500234"><ele>1952.0</ele><time>2023-08-19T18:42:28Z</time></trkpt><trkpt lat="46.901333" lon="-121.500388"><ele>1949.0</ele><time>2023-08-19T18:42:40Z</time></trkpt><trkpt lat="46.901449" lon="-121.500527"><ele>1952.0</ele><time>2023-08-19T18:42:52Z</time></trkpt><trkpt lat="46.901511" lon="-121.500561"><ele>1950.0</ele><time>2023-08-19T18:42:59Z</time></trkpt><trkpt lat="46.901623" lon="-121.500569"><ele>1950.0</ele><time>2023-08-19T18:43:08Z</time></trkpt><trkpt lat="46.901666" lon="-121.500563"><ele>1950.0</ele><time>2023-08-19T18:43:11Z</time></trkpt><trkpt lat="46.901725" lon="-121.500538"><ele>1950.0</ele><time>2023-08-19T18:43:16Z</time></trkpt><trkpt lat="46.901864" lon="-121.500512"><ele>1947.0</ele><time>2023-08-19T18:43:27Z</time></trkpt><trkpt lat="46.902096" lon="-121.500544"><ele>1941.0</ele><time>2023-08-19T18:43:49Z</time></trkpt><trkpt lat="46.902167" lon="-121.500564"><ele>1941.0</ele><time>2023-08-19T18:43:55Z</time></trkpt><trkpt lat="46.902309" lon="-121.500542"><ele>1939.0</ele><time>2023-08-19T18:44:06Z</time></trkpt><trkpt lat="46.902371" lon="-121.500577"><ele>1938.0</ele><time>2023-08-19T18:44:11Z</time></trkpt><trkpt lat="46.902406" lon="-121.500575"><ele>1936.0</ele><time>2023-08-19T18:44:15Z</time></trkpt><trkpt lat="46.902484" lon="-121.500613"><ele>1936.4</ele><time>2023-08-19T18:44:22Z</time></trkpt><trkpt lat="46.902547" lon="-121.50067"><ele>1936.0</ele><time>2023-08-19T18:44:33Z</time></trkpt><trkpt lat="46.902565" lon="-121.500702"><ele>1932.0</ele><time>2023-08-19T18:44:38Z</time></trkpt><trkpt lat="46.902625" lon="-121.500737"><ele>1936.0</ele><time>2023-08-19T18:44:46Z</time></trkpt><trkpt lat="46.902695" lon="-121.500736"><ele>1935.0</ele><time>2023-08-19T18:44:52Z</time></trkpt><trkpt lat="46.902768" lon="-121.500752"><ele>1935.0</ele><time>2023-08-19T18:44:58Z</time></trkpt><trkpt lat="46.902839" lon="-121.500741"><ele>1935.0</ele><time>2023-08-19T18:45:04Z</time></trkpt><trkpt lat="46.903022" lon="-121.500738"><ele>1932.0</ele><time>2023-08-19T18:45:22Z</time></trkpt><trkpt lat="46.903125" lon="-121.500761"><ele>1932.0</ele><time>2023-08-19T18:45:31Z</time></trkpt><trkpt lat="46.90318" lon="-121.500783"><ele>1932.0</ele><time>2023-08-19T18:45:37Z</time></trkpt><trkpt lat="46.903284" lon="-121.500782"><ele>1932.0</ele><time>2023-08-19T18:45:47Z</time></trkpt><trkpt lat="46.903406" lon="-121.500686"><ele>1932.0</ele><time>2023-08-19T18:46:00Z</time></trkpt><trkpt lat="46.90351" lon="-121.500632"><ele>1931.0</ele><time>2023-08-19T18:46:12Z</time></trkpt><trkpt lat="46.903539" lon="-121.500641"><ele>1933.0</ele><time>2023-08-19T18:46:17Z</time></trkpt><trkpt lat="46.903616" lon="-121.500534"><ele>1933.0</ele><time>2023-08-19T18:46:26Z</time></trkpt><trkpt lat="46.903659" lon="-121.500525"><ele>1932.0</ele><time>2023-08-19T18:46:33Z</time></trkpt><trkpt lat="46.903706" lon="-121.500599"><ele>1935.0</ele><time>2023-08-19T18:46:56Z</time></trkpt><trkpt lat="46.903895" lon="-121.500561"><ele>1930.0</ele><time>2023-08-19T18:48:57Z</time></trkpt><trkpt lat="46.903901" lon="-121.500525"><ele>1934.5</ele><time>2023-08-19T18:50:26Z</time></trkpt><trkpt lat="46.903802" lon="-121.500558"><ele>1935.0</ele><time>2023-08-19T18:50:42Z</time></trkpt><trkpt lat="46.903769" lon="-121.50055"><ele>1932.0</ele><time>2023-08-19T18:50:48Z</time></trkpt><trkpt lat="46.903732" lon="-121.500586"><ele>1936.0</ele><time>2023-08-19T18:51:03Z</time></trkpt><trkpt lat="46.903672" lon="-121.500587"><ele>1935.0</ele><time>2023-08-19T18:51:15Z</time></trkpt><trkpt lat="46.903665" lon="-121.500524"><ele>1932.0</ele><time>2023-08-19T18:51:27Z</time></trkpt><trkpt lat="46.903651" lon="-121.500489"><ele>1932.0</ele><time>2023-08-19T18:51:32Z</time></trkpt><trkpt lat="46.903571" lon="-121.500521"><ele>1928.0</ele><time>2023-08-19T18:51:45Z</time></trkpt><trkpt lat="46.903554" lon="-121.500554"><ele>1928.0</ele><time>2023-08-19T18:51:48Z</time></trkpt><trkpt lat="46.903516" lon="-121.500584"><ele>1930.0</ele><time>2023-08-19T18:51:52Z</time></trkpt><trkpt lat="46.903444" lon="-121.5006"><ele>1929.0</ele><time>2023-08-19T18:51:59Z</time></trkpt><trkpt lat="46.903424" lon="-121.50063"><ele>1930.0</ele><time>2023-08-19T18:52:03Z</time></trkpt><trkpt lat="46.903352" lon="-121.500657"><ele>1929.0</ele><time>2023-08-19T18:52:10Z</time></trkpt><trkpt lat="46.903269" lon="-121.500725"><ele>1929.0</ele><time>2023-08-19T18:52:19Z</time></trkpt><trkpt lat="46.903154" lon="-121.500726"><ele>1928.0</ele><time>2023-08-19T18:52:38Z</time></trkpt><trkpt lat="46.903125" lon="-121.50069"><ele>1933.3</ele><time>2023-08-19T18:52:43Z</time></trkpt><trkpt lat="46.903014" lon="-121.500654"><ele>1930.0</ele><time>2023-08-19T18:52:52Z</time></trkpt><trkpt lat="46.902905" lon="-121.500649"><ele>1931.0</ele><time>2023-08-19T18:53:00Z</time></trkpt><trkpt lat="46.902866" lon="-121.500638"><ele>1932.0</ele><time>2023-08-19T18:53:04Z</time></trkpt><trkpt lat="46.902767" lon="-121.50064"><ele>1932.0</ele><time>2023-08-19T18:53:14Z</time></trkpt><trkpt lat="46.902798" lon="-121.500658"><ele>1932.0</ele><time>2023-08-19T18:53:39Z</time></trkpt><trkpt lat="46.90274" lon="-121.500686"><ele>1934.0</ele><time>2023-08-19T18:53:57Z</time></trkpt><trkpt lat="46.902586" lon="-121.500669"><ele>1929.0</ele><time>2023-08-19T18:54:20Z</time></trkpt><trkpt lat="46.902473" lon="-121.500561"><ele>1932.0</ele><time>2023-08-19T18:54:37Z</time></trkpt><trkpt lat="46.902405" lon="-121.500526"><ele>1934.0</ele><time>2023-08-19T18:54:43Z</time></trkpt><trkpt lat="46.902232" lon="-121.500475"><ele>1936.0</ele><time>2023-08-19T18:54:59Z</time></trkpt><trkpt lat="46.902093" lon="-121.500502"><ele>1939.0</ele><time>2023-08-19T18:55:13Z</time></trkpt><trkpt lat="46.901976" lon="-121.500474"><ele>1940.0</ele><time>2023-08-19T18:55:24Z</time></trkpt><trkpt lat="46.901833" lon="-121.500463"><ele>1940.0</ele><time>2023-08-19T18:55:39Z</time></trkpt><trkpt lat="46.901672" lon="-121.500504"><ele>1946.0</ele><time>2023-08-19T18:55:57Z</time></trkpt><trkpt lat="46.901614" lon="-121.500539"><ele>1948.0</ele><time>2023-08-19T18:56:02Z</time></trkpt><trkpt lat="46.901534" lon="-121.500486"><ele>1948.0</ele><time>2023-08-19T18:56:10Z</time></trkpt><trkpt lat="46.901473" lon="-121.500459"><ele>1948.0</ele><time>2023-08-19T18:56:16Z</time></trkpt><trkpt lat="46.901394" lon="-121.500372"><ele>1951.0</ele><time>2023-08-19T18:56:24Z</time></trkpt><trkpt lat="46.901335" lon="-121.500339"><ele>1950.0</ele><time>2023-08-19T18:56:30Z</time></trkpt><trkpt lat="46.901263" lon="-121.500219"><ele>1952.0</ele><time>2023-08-19T18:56:41Z</time></trkpt><trkpt lat="46.901218" lon="-121.500165"><ele>1950.0</ele><time>2023-08-19T18:56:47Z</time></trkpt><trkpt lat="46.901191" lon="-121.500149"><ele>1951.0</ele><time>2023-08-19T18:56:50Z</time></trkpt><trkpt lat="46.901167" lon="-121.500162"><ele>1952.0</ele><time>2023-08-19T18:56:52Z</time></trkpt><trkpt lat="46.901139" lon="-121.500202"><ele>1944.0</ele><time>2023-08-19T18:58:56Z</time></trkpt><trkpt lat="46.901116" lon="-121.50035"><ele>1945.0</ele><time>2023-08-19T19:00:49Z</time></trkpt><trkpt lat="46.901096" lon="-121.500261"><ele>1946.0</ele><time>2023-08-19T19:00:57Z</time></trkpt><trkpt lat="46.901072" lon="-121.500205"><ele>1945.0</ele><time>2023-08-19T19:01:02Z</time></trkpt><trkpt lat="46.901044" lon="-121.500173"><ele>1943.0</ele><time>2023-08-19T19:01:07Z</time></trkpt><trkpt lat="46.90101" lon="-121.500066"><ele>1940.0</ele><time>2023-08-19T19:01:16Z</time></trkpt><trkpt lat="46.900976" lon="-121.5"><ele>1938.0</ele><time>2023-08-19T19:01:21Z</time></trkpt><trkpt lat="46.900888" lon="-121.499907"><ele>1935.0</ele><time>2023-08-19T19:01:32Z</time></trkpt><trkpt lat="46.900822" lon="-121.499872"><ele>1935.0</ele><time>2023-08-19T19:01:39Z</time></trkpt><trkpt lat="46.900803" lon="-121.499841"><ele>1934.0</ele><time>2023-08-19T19:01:41Z</time></trkpt><trkpt lat="46.900686" lon="-121.499744"><ele>1933.0</ele><time>2023-08-19T19:01:53Z</time></trkpt><trkpt lat="46.900662" lon="-121.499737"><ele>1932.0</ele><time>2023-08-19T19:01:56Z</time></trkpt><trkpt lat="46.900641" lon="-121.499657"><ele>1931.0</ele><time>2023-08-19T19:02:01Z</time></trkpt><trkpt lat="46.900623" lon="-121.499625"><ele>1929.0</ele><time>2023-08-19T19:02:04Z</time></trkpt><trkpt lat="46.900536" lon="-121.499553"><ele>1929.0</ele><time>2023-08-19T19:02:14Z</time></trkpt><trkpt lat="46.900483" lon="-121.499449"><ele>1926.0</ele><time>2023-08-19T19:02:22Z</time></trkpt><trkpt lat="46.900425" lon="-121.499397"><ele>1928.8</ele><time>2023-08-19T19:02:27Z</time></trkpt><trkpt lat="46.900304" lon="-121.499103"><ele>1925.0</ele><time>2023-08-19T19:02:42Z</time></trkpt><trkpt lat="46.900262" lon="-121.499051"><ele>1924.0</ele><time>2023-08-19T19:02:47Z</time></trkpt><trkpt lat="46.900249" lon="-121.499018"><ele>1924.0</ele><time>2023-08-19T19:02:49Z</time></trkpt><trkpt lat="46.900241" lon="-121.498936"><ele>1922.0</ele><time>2023-08-19T19:02:53Z</time></trkpt><trkpt lat="46.900193" lon="-121.498852"><ele>1920.0</ele><time>2023-08-19T19:02:59Z</time></trkpt><trkpt lat="46.900152" lon="-121.498749"><ele>1922.0</ele><time>2023-08-19T19:03:06Z</time></trkpt><trkpt lat="46.900148" lon="-121.498667"><ele>1922.0</ele><time>2023-08-19T19:03:10Z</time></trkpt><trkpt lat="46.900129" lon="-121.498635"><ele>1923.0</ele><time>2023-08-19T19:03:12Z</time></trkpt><trkpt lat="46.90009" lon="-121.498482"><ele>1920.0</ele><time>2023-08-19T19:03:34Z</time></trkpt><trkpt lat="46.900071" lon="-121.498461"><ele>1920.0</ele><time>2023-08-19T19:03:39Z</time></trkpt><trkpt lat="46.900003" lon="-121.498239"><ele>1914.0</ele><time>2023-08-19T19:03:56Z</time></trkpt><trkpt lat="46.899959" lon="-121.498186"><ele>1912.0</ele><time>2023-08-19T19:04:02Z</time></trkpt><trkpt lat="46.899904" lon="-121.498091"><ele>1910.0</ele><time>2023-08-19T19:04:10Z</time></trkpt><trkpt lat="46.899825" lon="-121.497906"><ele>1907.0</ele><time>2023-08-19T19:04:23Z</time></trkpt><trkpt lat="46.899795" lon="-121.49786"><ele>1906.0</ele><time>2023-08-19T19:04:27Z</time></trkpt><trkpt lat="46.899753" lon="-121.497697"><ele>1905.0</ele><time>2023-08-19T19:04:36Z</time></trkpt><trkpt lat="46.89971" lon="-121.497287"><ele>1902.0</ele><time>2023-08-19T19:04:59Z</time></trkpt><trkpt lat="46.899648" lon="-121.497155"><ele>1902.0</ele><time>2023-08-19T19:05:07Z</time></trkpt><trkpt lat="46.899645" lon="-121.49706"><ele>1902.0</ele><time>2023-08-19T19:05:12Z</time></trkpt><trkpt lat="46.899619" lon="-121.496986"><ele>1897.0</ele><time>2023-08-19T19:05:22Z</time></trkpt><trkpt lat="46.899531" lon="-121.496866"><ele>1899.0</ele><time>2023-08-19T19:05:36Z</time></trkpt><trkpt lat="46.899342" lon="-121.496677"><ele>1896.0</ele><time>2023-08-19T19:05:59Z</time></trkpt><trkpt lat="46.89929" lon="-121.496589"><ele>1896.4</ele><time>2023-08-19T19:06:06Z</time></trkpt><trkpt lat="46.899236" lon="-121.496534"><ele>1894.0</ele><time>2023-08-19T19:06:12Z</time></trkpt><trkpt lat="46.899206" lon="-121.496459"><ele>1890.0</ele><time>2023-08-19T19:06:18Z</time></trkpt><trkpt lat="46.899153" lon="-121.496419"><ele>1891.0</ele><time>2023-08-19T19:06:23Z</time></trkpt><trkpt lat="46.89911" lon="-121.496314"><ele>1890.0</ele><time>2023-08-19T19:06:29Z</time></trkpt><trkpt lat="46.899055" lon="-121.496223"><ele>1890.0</ele><time>2023-08-19T19:06:35Z</time></trkpt><trkpt lat="46.899008" lon="-121.496182"><ele>1890.0</ele><time>2023-08-19T19:06:39Z</time></trkpt><trkpt lat="46.898917" lon="-121.496026"><ele>1889.0</ele><time>2023-08-19T19:06:49Z</time></trkpt><trkpt lat="46.898833" lon="-121.495976"><ele>1890.4</ele><time>2023-08-19T19:06:55Z</time></trkpt><trkpt lat="46.898749" lon="-121.495878"><ele>1887.0</ele><time>2023-08-19T19:07:03Z</time></trkpt><trkpt lat="46.898715" lon="-121.495855"><ele>1887.0</ele><time>2023-08-19T19:07:06Z</time></trkpt><trkpt lat="46.898675" lon="-121.495794"><ele>1885.0</ele><time>2023-08-19T19:07:12Z</time></trkpt><trkpt lat="46.898666" lon="-121.495747"><ele>1884.0</ele><time>2023-08-19T19:07:14Z</time></trkpt><trkpt lat="46.898621" lon="-121.495676"><ele>1880.0</ele><time>2023-08-19T19:07:22Z</time></trkpt><trkpt lat="46.898613" lon="-121.495726"><ele>1881.0</ele><time>2023-08-19T19:07:25Z</time></trkpt><trkpt lat="46.898648" lon="-121.495784"><ele>1878.0</ele><time>2023-08-19T19:07:30Z</time></trkpt><trkpt lat="46.898704" lon="-121.495975"><ele>1879.4</ele><time>2023-08-19T19:07:41Z</time></trkpt><trkpt lat="46.898724" lon="-121.496132"><ele>1878.0</ele><time>2023-08-19T19:07:49Z</time></trkpt><trkpt lat="46.898714" lon="-121.496215"><ele>1878.0</ele><time>2023-08-19T19:07:53Z</time></trkpt><trkpt lat="46.898675" lon="-121.496275"><ele>1880.0</ele><time>2023-08-19T19:07:57Z</time></trkpt><trkpt lat="46.898585" lon="-121.49637"><ele>1880.0</ele><time>2023-08-19T19:08:05Z</time></trkpt><trkpt lat="46.898469" lon="-121.496587"><ele>1878.0</ele><time>2023-08-19T19:08:20Z</time></trkpt><trkpt lat="46.898464" lon="-121.496623"><ele>1878.0</ele><time>2023-08-19T19:08:22Z</time></trkpt><trkpt lat="46.898487" lon="-121.496698"><ele>1878.0</ele><time>2023-08-19T19:08:26Z</time></trkpt><trkpt lat="46.898544" lon="-121.496777"><ele>1875.2</ele><time>2023-08-19T19:08:35Z</time></trkpt><trkpt lat="46.898561" lon="-121.49682"><ele>1872.0</ele><time>2023-08-19T19:08:38Z</time></trkpt><trkpt lat="46.898591" lon="-121.496973"><ele>1872.0</ele><time>2023-08-19T19:08:49Z</time></trkpt><trkpt lat="46.898563" lon="-121.497051"><ele>1871.0</ele><time>2023-08-19T19:08:54Z</time></trkpt><trkpt lat="46.898495" lon="-121.497064"><ele>1869.0</ele><time>2023-08-19T19:08:59Z</time></trkpt><trkpt lat="46.898455" lon="-121.497053"><ele>1869.0</ele><time>2023-08-19T19:09:02Z</time></trkpt><trkpt lat="46.898362" lon="-121.496967"><ele>1868.0</ele><time>2023-08-19T19:09:11Z</time></trkpt><trkpt lat="46.898329" lon="-121.496957"><ele>1868.0</ele><time>2023-08-19T19:09:14Z</time></trkpt><trkpt lat="46.898297" lon="-121.496961"><ele>1868.0</ele><time>2023-08-19T19:09:17Z</time></trkpt><trkpt lat="46.898109" lon="-121.497096"><ele>1863.0</ele><time>2023-08-19T19:09:34Z</time></trkpt><trkpt lat="46.897963" lon="-121.497146"><ele>1860.0</ele><time>2023-08-19T19:09:46Z</time></trkpt><trkpt lat="46.897929" lon="-121.49714"><ele>1860.0</ele><time>2023-08-19T19:09:49Z</time></trkpt><trkpt lat="46.897872" lon="-121.497166"><ele>1860.0</ele><time>2023-08-19T19:09:55Z</time></trkpt><trkpt lat="46.897817" lon="-121.497217"><ele>1858.0</ele><time>2023-08-19T19:10:00Z</time></trkpt><trkpt lat="46.897797" lon="-121.497282"><ele>1858.0</ele><time>2023-08-19T19:10:03Z</time></trkpt><trkpt lat="46.897772" lon="-121.497501"><ele>1858.0</ele><time>2023-08-19T19:10:17Z</time></trkpt><trkpt lat="46.897784" lon="-121.497541"><ele>1857.0</ele><time>2023-08-19T19:10:19Z</time></trkpt><trkpt lat="46.897813" lon="-121.497555"><ele>1857.0</ele><time>2023-08-19T19:10:22Z</time></trkpt><trkpt lat="46.897841" lon="-121.497623"><ele>1857.8</ele><time>2023-08-19T19:10:27Z</time></trkpt><trkpt lat="46.897885" lon="-121.497656"><ele>1857.0</ele><time>2023-08-19T19:10:32Z</time></trkpt><trkpt lat="46.897942" lon="-121.497764"><ele>1854.0</ele><time>2023-08-19T19:10:42Z</time></trkpt><trkpt lat="46.897965" lon="-121.497789"><ele>1854.0</ele><time>2023-08-19T19:10:44Z</time></trkpt><trkpt lat="46.897986" lon="-121.497847"><ele>1854.0</ele><time>2023-08-19T19:10:47Z</time></trkpt><trkpt lat="46.898018" lon="-121.49788"><ele>1854.0</ele><time>2023-08-19T19:10:50Z</time></trkpt><trkpt lat="46.898114" lon="-121.49802"><ele>1852.0</ele><time>2023-08-19T19:11:01Z</time></trkpt><trkpt lat="46.89815" lon="-121.498041"><ele>1852.4</ele><time>2023-08-19T19:11:05Z</time></trkpt><trkpt lat="46.898231" lon="-121.498127"><ele>1850.0</ele><time>2023-08-19T19:11:13Z</time></trkpt><trkpt lat="46.89833" lon="-121.498186"><ele>1848.0</ele><time>2023-08-19T19:11:22Z</time></trkpt><trkpt lat="46.898376" lon="-121.498229"><ele>1848.0</ele><time>2023-08-19T19:11:26Z</time></trkpt><trkpt lat="46.898396" lon="-121.498261"><ele>1848.0</ele><time>2023-08-19T19:11:28Z</time></trkpt><trkpt lat="46.898475" lon="-121.498477"><ele>1846.0</ele><time>2023-08-19T19:11:42Z</time></trkpt><trkpt lat="46.898495" lon="-121.498669"><ele>1844.0</ele><time>2023-08-19T19:11:51Z</time></trkpt><trkpt lat="46.898489" lon="-121.498727"><ele>1844.1</ele><time>2023-08-19T19:11:57Z</time></trkpt><trkpt lat="46.898392" lon="-121.498802"><ele>1840.0</ele><time>2023-08-19T19:12:06Z</time></trkpt><trkpt lat="46.898361" lon="-121.498888"><ele>1841.0</ele><time>2023-08-19T19:12:10Z</time></trkpt><trkpt lat="46.898349" lon="-121.499094"><ele>1840.0</ele><time>2023-08-19T19:12:20Z</time></trkpt><trkpt lat="46.898375" lon="-121.499217"><ele>1840.0</ele><time>2023-08-19T19:12:26Z</time></trkpt><trkpt lat="46.898357" lon="-121.499297"><ele>1839.0</ele><time>2023-08-19T19:12:32Z</time></trkpt><trkpt lat="46.89833" lon="-121.499339"><ele>1838.0</ele><time>2023-08-19T19:12:35Z</time></trkpt><trkpt lat="46.898257" lon="-121.499319"><ele>1838.0</ele><time>2023-08-19T19:12:42Z</time></trkpt><trkpt lat="46.898157" lon="-121.499256"><ele>1836.0</ele><time>2023-08-19T19:12:50Z</time></trkpt><trkpt lat="46.898108" lon="-121.499259"><ele>1836.0</ele><time>2023-08-19T19:12:54Z</time></trkpt><trkpt lat="46.898038" lon="-121.499238"><ele>1836.0</ele><time>2023-08-19T19:12:59Z</time></trkpt><trkpt lat="46.897872" lon="-121.499287"><ele>1834.0</ele><time>2023-08-19T19:13:13Z</time></trkpt><trkpt lat="46.897837" lon="-121.499285"><ele>1833.0</ele><time>2023-08-19T19:13:15Z</time></trkpt><trkpt lat="46.897804" lon="-121.499296"><ele>1831.0</ele><time>2023-08-19T19:13:18Z</time></trkpt><trkpt lat="46.897687" lon="-121.499379"><ele>1829.0</ele><time>2023-08-19T19:13:29Z</time></trkpt><trkpt lat="46.897611" lon="-121.499465"><ele>1828.0</ele><time>2023-08-19T19:13:36Z</time></trkpt><trkpt lat="46.897569" lon="-121.499455"><ele>1828.0</ele><time>2023-08-19T19:13:39Z</time></trkpt><trkpt lat="46.897553" lon="-121.499406"><ele>1828.0</ele><time>2023-08-19T19:13:41Z</time></trkpt><trkpt lat="46.89758" lon="-121.499269"><ele>1828.0</ele><time>2023-08-19T19:13:47Z</time></trkpt><trkpt lat="46.89757" lon="-121.499196"><ele>1827.0</ele><time>2023-08-19T19:13:51Z</time></trkpt><trkpt lat="46.897579" lon="-121.499079"><ele>1826.0</ele><time>2023-08-19T19:13:57Z</time></trkpt><trkpt lat="46.897632" lon="-121.498899"><ele>1824.0</ele><time>2023-08-19T19:14:09Z</time></trkpt><trkpt lat="46.89767" lon="-121.498832"><ele>1824.0</ele><time>2023-08-19T19:14:15Z</time></trkpt><trkpt lat="46.897664" lon="-121.498792"><ele>1824.0</ele><time>2023-08-19T19:14:17Z</time></trkpt><trkpt lat="46.897593" lon="-121.498771"><ele>1822.0</ele><time>2023-08-19T19:14:22Z</time></trkpt><trkpt lat="46.897481" lon="-121.498718"><ele>1820.0</ele><time>2023-08-19T19:14:32Z</time></trkpt><trkpt lat="46.897418" lon="-121.498669"><ele>1821.0</ele><time>2023-08-19T19:14:39Z</time></trkpt><trkpt lat="46.897333" lon="-121.498536"><ele>1820.0</ele><time>2023-08-19T19:14:49Z</time></trkpt><trkpt lat="46.897225" lon="-121.498489"><ele>1818.0</ele><time>2023-08-19T19:14:59Z</time></trkpt><trkpt lat="46.897083" lon="-121.498495"><ele>1814.0</ele><time>2023-08-19T19:15:10Z</time></trkpt><trkpt lat="46.897058" lon="-121.49847"><ele>1814.0</ele><time>2023-08-19T19:15:11Z</time></trkpt><trkpt lat="46.897009" lon="-121.49845"><ele>1813.8</ele><time>2023-08-19T19:15:16Z</time></trkpt><trkpt lat="46.896936" lon="-121.498392"><ele>1811.0</ele><time>2023-08-19T19:15:23Z</time></trkpt><trkpt lat="46.896783" lon="-121.498257"><ele>1811.0</ele><time>2023-08-19T19:15:35Z</time></trkpt><trkpt lat="46.896765" lon="-121.498223"><ele>1809.0</ele><time>2023-08-19T19:15:38Z</time></trkpt><trkpt lat="46.896734" lon="-121.498201"><ele>1808.0</ele><time>2023-08-19T19:15:42Z</time></trkpt><trkpt lat="46.896667" lon="-121.498257"><ele>1807.0</ele><time>2023-08-19T19:15:48Z</time></trkpt><trkpt lat="46.896634" lon="-121.498271"><ele>1806.0</ele><time>2023-08-19T19:15:51Z</time></trkpt><trkpt lat="46.896577" lon="-121.498232"><ele>1806.0</ele><time>2023-08-19T19:15:56Z</time></trkpt><trkpt lat="46.896511" lon="-121.498216"><ele>1806.0</ele><time>2023-08-19T19:16:01Z</time></trkpt><trkpt lat="46.896427" lon="-121.498228"><ele>1806.0</ele><time>2023-08-19T19:16:10Z</time></trkpt><trkpt lat="46.896364" lon="-121.498221"><ele>1793.0</ele><time>2023-08-19T19:16:22Z</time></trkpt><trkpt lat="46.896367" lon="-121.498184"><ele>1806.0</ele><time>2023-08-19T19:16:54Z</time></trkpt><trkpt lat="46.896234" lon="-121.498188"><ele>1804.0</ele><time>2023-08-19T19:18:02Z</time></trkpt><trkpt lat="46.896131" lon="-121.498177"><ele>1804.0</ele><time>2023-08-19T19:18:10Z</time></trkpt><trkpt lat="46.896095" lon="-121.49816"><ele>1803.0</ele><time>2023-08-19T19:18:12Z</time></trkpt><trkpt lat="46.896034" lon="-121.498172"><ele>1802.0</ele><time>2023-08-19T19:18:19Z</time></trkpt><trkpt lat="46.895911" lon="-121.498233"><ele>1800.0</ele><time>2023-08-19T19:18:28Z</time></trkpt><trkpt lat="46.895839" lon="-121.49833"><ele>1798.4</ele><time>2023-08-19T19:18:37Z</time></trkpt><trkpt lat="46.895817" lon="-121.498514"><ele>1796.0</ele><time>2023-08-19T19:18:47Z</time></trkpt><trkpt lat="46.895809" lon="-121.498551"><ele>1796.0</ele><time>2023-08-19T19:18:49Z</time></trkpt><trkpt lat="46.895788" lon="-121.498579"><ele>1794.0</ele><time>2023-08-19T19:18:51Z</time></trkpt><trkpt lat="46.895682" lon="-121.49864"><ele>1794.0</ele><time>2023-08-19T19:18:59Z</time></trkpt><trkpt lat="46.895651" lon="-121.498639"><ele>1795.0</ele><time>2023-08-19T19:19:01Z</time></trkpt><trkpt lat="46.895561" lon="-121.498575"><ele>1794.0</ele><time>2023-08-19T19:19:07Z</time></trkpt><trkpt lat="46.895526" lon="-121.498561"><ele>1794.0</ele><time>2023-08-19T19:19:10Z</time></trkpt><trkpt lat="46.895453" lon="-121.498553"><ele>1791.0</ele><time>2023-08-19T19:19:15Z</time></trkpt><trkpt lat="46.895422" lon="-121.498575"><ele>1792.0</ele><time>2023-08-19T19:19:18Z</time></trkpt><trkpt lat="46.895389" lon="-121.498652"><ele>1790.0</ele><time>2023-08-19T19:19:21Z</time></trkpt><trkpt lat="46.895405" lon="-121.498876"><ele>1788.0</ele><time>2023-08-19T19:19:32Z</time></trkpt><trkpt lat="46.895444" lon="-121.499085"><ele>1787.0</ele><time>2023-08-19T19:19:42Z</time></trkpt><trkpt lat="46.895569" lon="-121.499211"><ele>1782.0</ele><time>2023-08-19T19:19:54Z</time></trkpt><trkpt lat="46.895609" lon="-121.499219"><ele>1782.0</ele><time>2023-08-19T19:19:57Z</time></trkpt><trkpt lat="46.895772" lon="-121.499165"><ele>1780.0</ele><time>2023-08-19T19:20:09Z</time></trkpt><trkpt lat="46.895892" lon="-121.499184"><ele>1782.0</ele><time>2023-08-19T19:20:19Z</time></trkpt><trkpt lat="46.895964" lon="-121.49921"><ele>1780.0</ele><time>2023-08-19T19:20:25Z</time></trkpt><trkpt lat="46.895988" lon="-121.499245"><ele>1780.0</ele><time>2023-08-19T19:20:27Z</time></trkpt><trkpt lat="46.895993" lon="-121.499291"><ele>1781.0</ele><time>2023-08-19T19:20:29Z</time></trkpt><trkpt lat="46.89603" lon="-121.499396"><ele>1780.0</ele><time>2023-08-19T19:20:35Z</time></trkpt><trkpt lat="46.896053" lon="-121.499551"><ele>1779.0</ele><time>2023-08-19T19:20:44Z</time></trkpt><trkpt lat="46.896009" lon="-121.499703"><ele>1776.0</ele><time>2023-08-19T19:20:54Z</time></trkpt><trkpt lat="46.895858" lon="-121.499894"><ele>1776.0</ele><time>2023-08-19T19:21:07Z</time></trkpt><trkpt lat="46.895775" lon="-121.499968"><ele>1775.0</ele><time>2023-08-19T19:21:14Z</time></trkpt><trkpt lat="46.89572" lon="-121.500046"><ele>1774.0</ele><time>2023-08-19T19:21:21Z</time></trkpt><trkpt lat="46.895718" lon="-121.500126"><ele>1767.0</ele><time>2023-08-19T19:21:46Z</time></trkpt><trkpt lat="46.895694" lon="-121.500286"><ele>1772.0</ele><time>2023-08-19T19:22:03Z</time></trkpt><trkpt lat="46.895698" lon="-121.500351"><ele>1772.0</ele><time>2023-08-19T19:22:07Z</time></trkpt><trkpt lat="46.895678" lon="-121.500418"><ele>1770.0</ele><time>2023-08-19T19:22:11Z</time></trkpt><trkpt lat="46.895626" lon="-121.500508"><ele>1770.0</ele><time>2023-08-19T19:22:18Z</time></trkpt><trkpt lat="46.895575" lon="-121.500546"><ele>1768.0</ele><time>2023-08-19T19:22:23Z</time></trkpt><trkpt lat="46.895523" lon="-121.500607"><ele>1768.0</ele><time>2023-08-19T19:22:29Z</time></trkpt><trkpt lat="46.89547" lon="-121.500638"><ele>1767.0</ele><time>2023-08-19T19:22:36Z</time></trkpt><trkpt lat="46.895433" lon="-121.500768"><ele>1767.5</ele><time>2023-08-19T19:22:45Z</time></trkpt><trkpt lat="46.895366" lon="-121.500849"><ele>1766.0</ele><time>2023-08-19T19:22:50Z</time></trkpt><trkpt lat="46.895286" lon="-121.500991"><ele>1764.0</ele><time>2023-08-19T19:23:00Z</time></trkpt><trkpt lat="46.895174" lon="-121.501121"><ele>1757.0</ele><time>2023-08-19T19:23:13Z</time></trkpt><trkpt lat="46.89508" lon="-121.501177"><ele>1756.0</ele><time>2023-08-19T19:23:23Z</time></trkpt><trkpt lat="46.894996" lon="-121.501196"><ele>1755.0</ele><time>2023-08-19T19:23:31Z</time></trkpt><trkpt lat="46.894923" lon="-121.501195"><ele>1755.0</ele><time>2023-08-19T19:23:38Z</time></trkpt><trkpt lat="46.89489" lon="-121.501183"><ele>1756.0</ele><time>2023-08-19T19:23:41Z</time></trkpt><trkpt lat="46.89486" lon="-121.501188"><ele>1755.0</ele><time>2023-08-19T19:23:43Z</time></trkpt><trkpt lat="46.894801" lon="-121.501245"><ele>1755.0</ele><time>2023-08-19T19:23:49Z</time></trkpt><trkpt lat="46.894678" lon="-121.501328"><ele>1754.0</ele><time>2023-08-19T19:24:01Z</time></trkpt><trkpt lat="46.894545" lon="-121.50133"><ele>1752.0</ele><time>2023-08-19T19:24:12Z</time></trkpt><trkpt lat="46.894475" lon="-121.50138"><ele>1752.0</ele><time>2023-08-19T19:24:18Z</time></trkpt><trkpt lat="46.894446" lon="-121.501385"><ele>1752.0</ele><time>2023-08-19T19:24:20Z</time></trkpt><trkpt lat="46.89435" lon="-121.50138"><ele>1752.0</ele><time>2023-08-19T19:24:28Z</time></trkpt><trkpt lat="46.894153" lon="-121.501479"><ele>1752.0</ele><time>2023-08-19T19:24:45Z</time></trkpt><trkpt lat="46.894134" lon="-121.501518"><ele>1751.0</ele><time>2023-08-19T19:24:48Z</time></trkpt><trkpt lat="46.894153" lon="-121.501599"><ele>1750.0</ele><time>2023-08-19T19:24:53Z</time></trkpt><trkpt lat="46.894188" lon="-121.501622"><ele>1749.0</ele><time>2023-08-19T19:24:56Z</time></trkpt><trkpt lat="46.894221" lon="-121.501694"><ele>1750.0</ele><time>2023-08-19T19:25:00Z</time></trkpt><trkpt lat="46.894267" lon="-121.501749"><ele>1749.0</ele><time>2023-08-19T19:25:05Z</time></trkpt><trkpt lat="46.894309" lon="-121.501855"><ele>1750.0</ele><time>2023-08-19T19:25:11Z</time></trkpt><trkpt lat="46.89432" lon="-121.501921"><ele>1749.0</ele><time>2023-08-19T19:25:16Z</time></trkpt><trkpt lat="46.894313" lon="-121.501965"><ele>1749.0</ele><time>2023-08-19T19:25:19Z</time></trkpt><trkpt lat="46.894066" lon="-121.502105"><ele>1749.0</ele><time>2023-08-19T19:25:39Z</time></trkpt><trkpt lat="46.893963" lon="-121.502253"><ele>1749.0</ele><time>2023-08-19T19:25:51Z</time></trkpt><trkpt lat="46.893903" lon="-121.502369"><ele>1750.0</ele><time>2023-08-19T19:26:00Z</time></trkpt><trkpt lat="46.893898" lon="-121.502401"><ele>1747.0</ele><time>2023-08-19T19:26:51Z</time></trkpt><trkpt lat="46.893909" lon="-121.502423"><ele>1740.0</ele><time>2023-08-19T19:28:17Z</time></trkpt><trkpt lat="46.89387" lon="-121.502479"><ele>1748.0</ele><time>2023-08-19T19:29:43Z</time></trkpt><trkpt lat="46.893864" lon="-121.502581"><ele>1748.0</ele><time>2023-08-19T19:29:52Z</time></trkpt><trkpt lat="46.893888" lon="-121.502677"><ele>1748.0</ele><time>2023-08-19T19:30:00Z</time></trkpt><trkpt lat="46.893958" lon="-121.502825"><ele>1750.0</ele><time>2023-08-19T19:30:10Z</time></trkpt><trkpt lat="46.89398" lon="-121.502904"><ele>1751.0</ele><time>2023-08-19T19:30:20Z</time></trkpt><trkpt lat="46.893887" lon="-121.502943"><ele>1749.0</ele><time>2023-08-19T19:30:33Z</time></trkpt><trkpt lat="46.893703" lon="-121.503078"><ele>1752.0</ele><time>2023-08-19T19:30:52Z</time></trkpt><trkpt lat="46.893628" lon="-121.503107"><ele>1752.0</ele><time>2023-08-19T19:30:58Z</time></trkpt><trkpt lat="46.893598" lon="-121.503097"><ele>1754.0</ele><time>2023-08-19T19:31:01Z</time></trkpt><trkpt lat="46.893527" lon="-121.503122"><ele>1752.0</ele><time>2023-08-19T19:31:08Z</time></trkpt><trkpt lat="46.893462" lon="-121.503124"><ele>1752.0</ele><time>2023-08-19T19:31:14Z</time></trkpt><trkpt lat="46.893349" lon="-121.503147"><ele>1749.0</ele><time>2023-08-19T19:31:23Z</time></trkpt><trkpt lat="46.893296" lon="-121.503196"><ele>1750.0</ele><time>2023-08-19T19:31:28Z</time></trkpt><trkpt lat="46.893233" lon="-121.50339"><ele>1746.0</ele><time>2023-08-19T19:31:40Z</time></trkpt><trkpt lat="46.893207" lon="-121.503416"><ele>1746.0</ele><time>2023-08-19T19:31:42Z</time></trkpt><trkpt lat="46.893102" lon="-121.503426"><ele>1746.0</ele><time>2023-08-19T19:31:50Z</time></trkpt><trkpt lat="46.892901" lon="-121.503371"><ele>1743.0</ele><time>2023-08-19T19:32:07Z</time></trkpt><trkpt lat="46.892863" lon="-121.503376"><ele>1743.0</ele><time>2023-08-19T19:32:10Z</time></trkpt><trkpt lat="46.892823" lon="-121.503463"><ele>1742.0</ele><time>2023-08-19T19:32:14Z</time></trkpt><trkpt lat="46.892786" lon="-121.503491"><ele>1740.0</ele><time>2023-08-19T19:32:19Z</time></trkpt><trkpt lat="46.892746" lon="-121.503484"><ele>1745.0</ele><time>2023-08-19T19:32:25Z</time></trkpt><trkpt lat="46.892724" lon="-121.503513"><ele>1743.0</ele><time>2023-08-19T19:32:31Z</time></trkpt><trkpt lat="46.892716" lon="-121.50347"><ele>1741.0</ele><time>2023-08-19T19:32:36Z</time></trkpt><trkpt lat="46.892675" lon="-121.503403"><ele>1741.0</ele><time>2023-08-19T19:32:40Z</time></trkpt><trkpt lat="46.892651" lon="-121.503321"><ele>1738.0</ele><time>2023-08-19T19:32:47Z</time></trkpt><trkpt lat="46.892676" lon="-121.503193"><ele>1736.0</ele><time>2023-08-19T19:32:53Z</time></trkpt><trkpt lat="46.892631" lon="-121.503133"><ele>1734.0</ele><time>2023-08-19T19:32:58Z</time></trkpt><trkpt lat="46.892546" lon="-121.503073"><ele>1736.0</ele><time>2023-08-19T19:33:04Z</time></trkpt><trkpt lat="46.892502" lon="-121.503008"><ele>1736.0</ele><time>2023-08-19T19:33:08Z</time></trkpt><trkpt lat="46.89245" lon="-121.502966"><ele>1736.0</ele><time>2023-08-19T19:33:12Z</time></trkpt><trkpt lat="46.892433" lon="-121.502937"><ele>1735.0</ele><time>2023-08-19T19:33:14Z</time></trkpt><trkpt lat="46.892427" lon="-121.502907"><ele>1733.0</ele><time>2023-08-19T19:33:16Z</time></trkpt><trkpt lat="46.892463" lon="-121.502801"><ele>1732.0</ele><time>2023-08-19T19:33:22Z</time></trkpt><trkpt lat="46.892452" lon="-121.502742"><ele>1731.0</ele><time>2023-08-19T19:33:27Z</time></trkpt><trkpt lat="46.89246" lon="-121.50266"><ele>1732.0</ele><time>2023-08-19T19:33:31Z</time></trkpt><trkpt lat="46.892454" lon="-121.502602"><ele>1732.2</ele><time>2023-08-19T19:33:34Z</time></trkpt><trkpt lat="46.892511" lon="-121.502492"><ele>1734.0</ele><time>2023-08-19T19:33:40Z</time></trkpt><trkpt lat="46.892503" lon="-121.502448"><ele>1734.0</ele><time>2023-08-19T19:33:42Z</time></trkpt><trkpt lat="46.892474" lon="-121.502418"><ele>1735.0</ele><time>2023-08-19T19:33:44Z</time></trkpt><trkpt lat="46.892402" lon="-121.502407"><ele>1735.0</ele><time>2023-08-19T19:33:47Z</time></trkpt><trkpt lat="46.892375" lon="-121.502439"><ele>1735.8</ele><time>2023-08-19T19:33:48Z</time></trkpt><trkpt lat="46.892326" lon="-121.502551"><ele>1730.0</ele><time>2023-08-19T19:33:54Z</time></trkpt><trkpt lat="46.892323" lon="-121.502595"><ele>1728.0</ele><time>2023-08-19T19:33:56Z</time></trkpt><trkpt lat="46.892277" lon="-121.502723"><ele>1724.0</ele><time>2023-08-19T19:34:02Z</time></trkpt><trkpt lat="46.892254" lon="-121.50276"><ele>1724.0</ele><time>2023-08-19T19:34:04Z</time></trkpt><trkpt lat="46.892166" lon="-121.502771"><ele>1722.0</ele><time>2023-08-19T19:34:09Z</time></trkpt><trkpt lat="46.892131" lon="-121.502789"><ele>1724.0</ele><time>2023-08-19T19:34:12Z</time></trkpt><trkpt lat="46.892069" lon="-121.502928"><ele>1720.8</ele><time>2023-08-19T19:34:20Z</time></trkpt><trkpt lat="46.892018" lon="-121.503066"><ele>1720.0</ele><time>2023-08-19T19:34:27Z</time></trkpt><trkpt lat="46.892008" lon="-121.503144"><ele>1718.0</ele><time>2023-08-19T19:34:31Z</time></trkpt><trkpt lat="46.892025" lon="-121.503281"><ele>1718.0</ele><time>2023-08-19T19:34:37Z</time></trkpt><trkpt lat="46.892009" lon="-121.503317"><ele>1719.0</ele><time>2023-08-19T19:34:39Z</time></trkpt><trkpt lat="46.891958" lon="-121.503379"><ele>1716.0</ele><time>2023-08-19T19:34:45Z</time></trkpt><trkpt lat="46.891912" lon="-121.50361"><ele>1715.0</ele><time>2023-08-19T19:34:57Z</time></trkpt><trkpt lat="46.891907" lon="-121.503724"><ele>1714.0</ele><time>2023-08-19T19:35:03Z</time></trkpt><trkpt lat="46.891868" lon="-121.503821"><ele>1716.0</ele><time>2023-08-19T19:35:09Z</time></trkpt><trkpt lat="46.891879" lon="-121.504018"><ele>1713.0</ele><time>2023-08-19T19:35:20Z</time></trkpt><trkpt lat="46.891936" lon="-121.504198"><ele>1709.0</ele><time>2023-08-19T19:35:33Z</time></trkpt><trkpt lat="46.89194" lon="-121.504268"><ele>1708.0</ele><time>2023-08-19T19:35:37Z</time></trkpt><trkpt lat="46.891953" lon="-121.504297"><ele>1708.0</ele><time>2023-08-19T19:35:39Z</time></trkpt><trkpt lat="46.891931" lon="-121.504385"><ele>1707.0</ele><time>2023-08-19T19:35:43Z</time></trkpt><trkpt lat="46.891973" lon="-121.504505"><ele>1708.0</ele><time>2023-08-19T19:35:49Z</time></trkpt><trkpt lat="46.891968" lon="-121.504551"><ele>1708.0</ele><time>2023-08-19T19:35:52Z</time></trkpt><trkpt lat="46.892001" lon="-121.504566"><ele>1704.0</ele><time>2023-08-19T19:35:56Z</time></trkpt><trkpt lat="46.892" lon="-121.504538"><ele>1706.0</ele><time>2023-08-19T19:36:00Z</time></trkpt><trkpt lat="46.891963" lon="-121.504583"><ele>1707.7</ele><time>2023-08-19T19:36:05Z</time></trkpt><trkpt lat="46.891978" lon="-121.504642"><ele>1707.0</ele><time>2023-08-19T19:36:09Z</time></trkpt><trkpt lat="46.891976" lon="-121.50468"><ele>1706.0</ele><time>2023-08-19T19:36:12Z</time></trkpt><trkpt lat="46.891945" lon="-121.504768"><ele>1706.0</ele><time>2023-08-19T19:36:17Z</time></trkpt><trkpt lat="46.891934" lon="-121.504864"><ele>1706.0</ele><time>2023-08-19T19:36:21Z</time></trkpt><trkpt lat="46.891937" lon="-121.505114"><ele>1704.0</ele><time>2023-08-19T19:36:33Z</time></trkpt><trkpt lat="46.891948" lon="-121.505196"><ele>1703.0</ele><time>2023-08-19T19:36:37Z</time></trkpt><trkpt lat="46.891918" lon="-121.505312"><ele>1702.0</ele><time>2023-08-19T19:36:43Z</time></trkpt><trkpt lat="46.891842" lon="-121.505435"><ele>1699.8</ele><time>2023-08-19T19:36:52Z</time></trkpt><trkpt lat="46.891814" lon="-121.505534"><ele>1699.0</ele><time>2023-08-19T19:36:58Z</time></trkpt><trkpt lat="46.891808" lon="-121.505619"><ele>1700.0</ele><time>2023-08-19T19:37:02Z</time></trkpt><trkpt lat="46.891753" lon="-121.50572"><ele>1698.0</ele><time>2023-08-19T19:37:09Z</time></trkpt><trkpt lat="46.891726" lon="-121.505739"><ele>1698.0</ele><time>2023-08-19T19:37:11Z</time></trkpt><trkpt lat="46.891688" lon="-121.505804"><ele>1700.0</ele><time>2023-08-19T19:37:16Z</time></trkpt><trkpt lat="46.89163" lon="-121.505733"><ele>1702.0</ele><time>2023-08-19T19:37:21Z</time></trkpt><trkpt lat="46.8916" lon="-121.505718"><ele>1701.0</ele><time>2023-08-19T19:37:24Z</time></trkpt><trkpt lat="46.891483" lon="-121.505736"><ele>1702.0</ele><time>2023-08-19T19:37:32Z</time></trkpt><trkpt lat="46.89131" lon="-121.505837"><ele>1701.0</ele><time>2023-08-19T19:37:47Z</time></trkpt><trkpt lat="46.891267" lon="-121.505846"><ele>1701.0</ele><time>2023-08-19T19:37:50Z</time></trkpt><trkpt lat="46.891236" lon="-121.50582"><ele>1702.0</ele><time>2023-08-19T19:37:52Z</time></trkpt><trkpt lat="46.891168" lon="-121.505838"><ele>1700.0</ele><time>2023-08-19T19:37:57Z</time></trkpt><trkpt lat="46.891147" lon="-121.505878"><ele>1700.0</ele><time>2023-08-19T19:37:59Z</time></trkpt><trkpt lat="46.891113" lon="-121.505896"><ele>1700.0</ele><time>2023-08-19T19:38:01Z</time></trkpt><trkpt lat="46.891074" lon="-121.505881"><ele>1699.0</ele><time>2023-08-19T19:38:04Z</time></trkpt><trkpt lat="46.891051" lon="-121.505842"><ele>1698.0</ele><time>2023-08-19T19:38:06Z</time></trkpt><trkpt lat="46.891023" lon="-121.505822"><ele>1697.0</ele><time>2023-08-19T19:38:08Z</time></trkpt><trkpt lat="46.890925" lon="-121.505809"><ele>1695.0</ele><time>2023-08-19T19:38:17Z</time></trkpt><trkpt lat="46.890831" lon="-121.505861"><ele>1695.0</ele><time>2023-08-19T19:38:24Z</time></trkpt><trkpt lat="46.890789" lon="-121.505842"><ele>1695.0</ele><time>2023-08-19T19:38:28Z</time></trkpt><trkpt lat="46.890766" lon="-121.505812"><ele>1696.0</ele><time>2023-08-19T19:38:30Z</time></trkpt><trkpt lat="46.890699" lon="-121.505846"><ele>1697.0</ele><time>2023-08-19T19:38:36Z</time></trkpt><trkpt lat="46.89067" lon="-121.505807"><ele>1698.0</ele><time>2023-08-19T19:38:39Z</time></trkpt><trkpt lat="46.890643" lon="-121.505791"><ele>1696.0</ele><time>2023-08-19T19:38:41Z</time></trkpt><trkpt lat="46.89058" lon="-121.505793"><ele>1695.0</ele><time>2023-08-19T19:38:45Z</time></trkpt><trkpt lat="46.890485" lon="-121.505726"><ele>1694.0</ele><time>2023-08-19T19:38:53Z</time></trkpt><trkpt lat="46.890398" lon="-121.505815"><ele>1695.0</ele><time>2023-08-19T19:39:03Z</time></trkpt><trkpt lat="46.890373" lon="-121.505995"><ele>1691.0</ele><time>2023-08-19T19:39:10Z</time></trkpt><trkpt lat="46.89038" lon="-121.506144"><ele>1688.0</ele><time>2023-08-19T19:39:16Z</time></trkpt><trkpt lat="46.890369" lon="-121.506187"><ele>1687.0</ele><time>2023-08-19T19:39:18Z</time></trkpt><trkpt lat="46.890381" lon="-121.506222"><ele>1687.4</ele><time>2023-08-19T19:39:20Z</time></trkpt><trkpt lat="46.890343" lon="-121.506248"><ele>1686.0</ele><time>2023-08-19T19:39:21Z</time></trkpt><trkpt lat="46.890291" lon="-121.506373"><ele>1683.0</ele><time>2023-08-19T19:39:29Z</time></trkpt><trkpt lat="46.89026" lon="-121.50639"><ele>1684.0</ele><time>2023-08-19T19:39:32Z</time></trkpt><trkpt lat="46.890198" lon="-121.506355"><ele>1685.0</ele><time>2023-08-19T19:39:37Z</time></trkpt><trkpt lat="46.890173" lon="-121.506326"><ele>1684.0</ele><time>2023-08-19T19:39:39Z</time></trkpt><trkpt lat="46.890153" lon="-121.50636"><ele>1685.0</ele><time>2023-08-19T19:39:41Z</time></trkpt><trkpt lat="46.890055" lon="-121.506395"><ele>1686.0</ele><time>2023-08-19T19:39:48Z</time></trkpt><trkpt lat="46.890029" lon="-121.506416"><ele>1686.0</ele><time>2023-08-19T19:39:51Z</time></trkpt><trkpt lat="46.88994" lon="-121.506539"><ele>1684.0</ele><time>2023-08-19T19:40:01Z</time></trkpt><trkpt lat="46.889867" lon="-121.506559"><ele>1680.0</ele><time>2023-08-19T19:40:07Z</time></trkpt><trkpt lat="46.889826" lon="-121.506583"><ele>1680.0</ele><time>2023-08-19T19:40:09Z</time></trkpt><trkpt lat="46.889798" lon="-121.506574"><ele>1682.1</ele><time>2023-08-19T19:40:12Z</time></trkpt><trkpt lat="46.88978" lon="-121.506546"><ele>1680.0</ele><time>2023-08-19T19:40:15Z</time></trkpt><trkpt lat="46.889762" lon="-121.50647"><ele>1679.0</ele><time>2023-08-19T19:40:20Z</time></trkpt><trkpt lat="46.889713" lon="-121.506409"><ele>1677.0</ele><time>2023-08-19T19:40:25Z</time></trkpt><trkpt lat="46.889554" lon="-121.50637"><ele>1675.0</ele><time>2023-08-19T19:40:39Z</time></trkpt><trkpt lat="46.889538" lon="-121.506327"><ele>1674.0</ele><time>2023-08-19T19:40:41Z</time></trkpt><trkpt lat="46.889459" lon="-121.506326"><ele>1674.0</ele><time>2023-08-19T19:40:46Z</time></trkpt><trkpt lat="46.889381" lon="-121.506272"><ele>1674.0</ele><time>2023-08-19T19:40:52Z</time></trkpt><trkpt lat="46.889295" lon="-121.506229"><ele>1675.0</ele><time>2023-08-19T19:40:59Z</time></trkpt><trkpt lat="46.889244" lon="-121.506224"><ele>1674.0</ele><time>2023-08-19T19:41:04Z</time></trkpt><trkpt lat="46.889168" lon="-121.506185"><ele>1671.0</ele><time>2023-08-19T19:41:10Z</time></trkpt><trkpt lat="46.889046" lon="-121.506197"><ele>1670.0</ele><time>2023-08-19T19:41:20Z</time></trkpt><trkpt lat="46.888902" lon="-121.506151"><ele>1674.0</ele><time>2023-08-19T19:41:32Z</time></trkpt><trkpt lat="46.88887" lon="-121.506132"><ele>1673.0</ele><time>2023-08-19T19:41:34Z</time></trkpt><trkpt lat="46.888755" lon="-121.506134"><ele>1671.0</ele><time>2023-08-19T19:41:42Z</time></trkpt><trkpt lat="46.88868" lon="-121.506111"><ele>1669.0</ele><time>2023-08-19T19:41:48Z</time></trkpt><trkpt lat="46.888595" lon="-121.50611"><ele>1669.0</ele><time>2023-08-19T19:41:55Z</time></trkpt><trkpt lat="46.888536" lon="-121.506127"><ele>1668.0</ele><time>2023-08-19T19:41:58Z</time></trkpt><trkpt lat="46.888505" lon="-121.506154"><ele>1668.0</ele><time>2023-08-19T19:42:01Z</time></trkpt><trkpt lat="46.888468" lon="-121.506154"><ele>1668.0</ele><time>2023-08-19T19:42:05Z</time></trkpt><trkpt lat="46.88843" lon="-121.506145"><ele>1668.0</ele><time>2023-08-19T19:42:07Z</time></trkpt><trkpt lat="46.888367" lon="-121.506095"><ele>1670.0</ele><time>2023-08-19T19:42:13Z</time></trkpt><trkpt lat="46.888366" lon="-121.506024"><ele>1671.0</ele><time>2023-08-19T19:42:15Z</time></trkpt><trkpt lat="46.888299" lon="-121.505943"><ele>1670.0</ele><time>2023-08-19T19:42:20Z</time></trkpt><trkpt lat="46.88827" lon="-121.505929"><ele>1668.0</ele><time>2023-08-19T19:42:22Z</time></trkpt><trkpt lat="46.888201" lon="-121.505814"><ele>1666.0</ele><time>2023-08-19T19:42:30Z</time></trkpt><trkpt lat="46.888197" lon="-121.505766"><ele>1667.0</ele><time>2023-08-19T19:42:32Z</time></trkpt><trkpt lat="46.888146" lon="-121.505632"><ele>1666.0</ele><time>2023-08-19T19:42:39Z</time></trkpt><trkpt lat="46.888138" lon="-121.505577"><ele>1666.0</ele><time>2023-08-19T19:42:42Z</time></trkpt><trkpt lat="46.888057" lon="-121.505411"><ele>1664.0</ele><time>2023-08-19T19:42:52Z</time></trkpt><trkpt lat="46.888051" lon="-121.505364"><ele>1662.0</ele><time>2023-08-19T19:42:54Z</time></trkpt><trkpt lat="46.888029" lon="-121.505331"><ele>1662.0</ele><time>2023-08-19T19:42:56Z</time></trkpt><trkpt lat="46.887969" lon="-121.505292"><ele>1660.0</ele><time>2023-08-19T19:43:02Z</time></trkpt><trkpt lat="46.887914" lon="-121.505151"><ele>1659.0</ele><time>2023-08-19T19:43:11Z</time></trkpt><trkpt lat="46.887848" lon="-121.50504"><ele>1658.0</ele><time>2023-08-19T19:43:21Z</time></trkpt><trkpt lat="46.887816" lon="-121.505027"><ele>1656.0</ele><time>2023-08-19T19:43:24Z</time></trkpt><trkpt lat="46.887765" lon="-121.50503"><ele>1656.0</ele><time>2023-08-19T19:43:29Z</time></trkpt><trkpt lat="46.887738" lon="-121.505"><ele>1654.0</ele><time>2023-08-19T19:43:32Z</time></trkpt><trkpt lat="46.88769" lon="-121.504897"><ele>1654.0</ele><time>2023-08-19T19:43:38Z</time></trkpt><trkpt lat="46.887647" lon="-121.504845"><ele>1654.0</ele><time>2023-08-19T19:43:42Z</time></trkpt><trkpt lat="46.88759" lon="-121.504746"><ele>1653.0</ele><time>2023-08-19T19:43:49Z</time></trkpt><trkpt lat="46.887556" lon="-121.504737"><ele>1653.0</ele><time>2023-08-19T19:43:52Z</time></trkpt><trkpt lat="46.887523" lon="-121.504747"><ele>1652.0</ele><time>2023-08-19T19:43:54Z</time></trkpt><trkpt lat="46.8875" lon="-121.504773"><ele>1652.0</ele><time>2023-08-19T19:43:56Z</time></trkpt><trkpt lat="46.887446" lon="-121.504879"><ele>1650.0</ele><time>2023-08-19T19:44:03Z</time></trkpt><trkpt lat="46.887335" lon="-121.505165"><ele>1650.0</ele><time>2023-08-19T19:44:18Z</time></trkpt><trkpt lat="46.887267" lon="-121.505295"><ele>1648.0</ele><time>2023-08-19T19:44:28Z</time></trkpt><trkpt lat="46.887263" lon="-121.505378"><ele>1650.0</ele><time>2023-08-19T19:44:32Z</time></trkpt><trkpt lat="46.887189" lon="-121.505506"><ele>1648.0</ele><time>2023-08-19T19:44:41Z</time></trkpt><trkpt lat="46.887113" lon="-121.505809"><ele>1650.0</ele><time>2023-08-19T19:45:08Z</time></trkpt><trkpt lat="46.887048" lon="-121.506009"><ele>1650.0</ele><time>2023-08-19T19:45:21Z</time></trkpt><trkpt lat="46.886911" lon="-121.50631"><ele>1648.0</ele><time>2023-08-19T19:45:40Z</time></trkpt><trkpt lat="46.886632" lon="-121.507017"><ele>1644.0</ele><time>2023-08-19T19:46:28Z</time></trkpt><trkpt lat="46.886543" lon="-121.507165"><ele>1646.0</ele><time>2023-08-19T19:46:40Z</time></trkpt><trkpt lat="46.886317" lon="-121.507471"><ele>1644.0</ele><time>2023-08-19T19:47:05Z</time></trkpt><trkpt lat="46.886268" lon="-121.507516"><ele>1642.0</ele><time>2023-08-19T19:47:09Z</time></trkpt><trkpt lat="46.886237" lon="-121.507576"><ele>1642.0</ele><time>2023-08-19T19:47:13Z</time></trkpt><trkpt lat="46.886146" lon="-121.507699"><ele>1642.0</ele><time>2023-08-19T19:47:22Z</time></trkpt><trkpt lat="46.886101" lon="-121.507786"><ele>1644.0</ele><time>2023-08-19T19:47:28Z</time></trkpt><trkpt lat="46.886069" lon="-121.507808"><ele>1642.0</ele><time>2023-08-19T19:47:30Z</time></trkpt><trkpt lat="46.886027" lon="-121.507871"><ele>1640.0</ele><time>2023-08-19T19:47:37Z</time></trkpt><trkpt lat="46.885936" lon="-121.507916"><ele>1637.0</ele><time>2023-08-19T19:47:45Z</time></trkpt><trkpt lat="46.885914" lon="-121.507945"><ele>1634.0</ele><time>2023-08-19T19:47:48Z</time></trkpt><trkpt lat="46.885906" lon="-121.507985"><ele>1632.0</ele><time>2023-08-19T19:47:50Z</time></trkpt><trkpt lat="46.885831" lon="-121.50815"><ele>1632.0</ele><time>2023-08-19T19:48:00Z</time></trkpt><trkpt lat="46.885785" lon="-121.508197"><ele>1630.0</ele><time>2023-08-19T19:48:05Z</time></trkpt><trkpt lat="46.885766" lon="-121.508237"><ele>1630.0</ele><time>2023-08-19T19:48:07Z</time></trkpt><trkpt lat="46.885696" lon="-121.508332"><ele>1632.0</ele><time>2023-08-19T19:48:15Z</time></trkpt><trkpt lat="46.885623" lon="-121.508411"><ele>1630.0</ele><time>2023-08-19T19:48:23Z</time></trkpt><trkpt lat="46.885583" lon="-121.508507"><ele>1631.4</ele><time>2023-08-19T19:48:28Z</time></trkpt><trkpt lat="46.885532" lon="-121.508575"><ele>1628.0</ele><time>2023-08-19T19:48:34Z</time></trkpt><trkpt lat="46.885509" lon="-121.508651"><ele>1630.0</ele><time>2023-08-19T19:48:38Z</time></trkpt><trkpt lat="46.885455" lon="-121.508697"><ele>1630.0</ele><time>2023-08-19T19:48:42Z</time></trkpt><trkpt lat="46.885386" lon="-121.50888"><ele>1632.0</ele><time>2023-08-19T19:48:53Z</time></trkpt><trkpt lat="46.885343" lon="-121.508929"><ele>1626.0</ele><time>2023-08-19T19:48:59Z</time></trkpt><trkpt lat="46.885308" lon="-121.508945"><ele>1627.0</ele><time>2023-08-19T19:49:02Z</time></trkpt><trkpt lat="46.885282" lon="-121.50897"><ele>1628.0</ele><time>2023-08-19T19:49:05Z</time></trkpt><trkpt lat="46.885222" lon="-121.50905"><ele>1630.0</ele><time>2023-08-19T19:49:14Z</time></trkpt><trkpt lat="46.885171" lon="-121.509079"><ele>1628.0</ele><time>2023-08-19T19:49:18Z</time></trkpt><trkpt lat="46.885126" lon="-121.50907"><ele>1630.0</ele><time>2023-08-19T19:49:22Z</time></trkpt><trkpt lat="46.884992" lon="-121.509117"><ele>1624.0</ele><time>2023-08-19T19:49:41Z</time></trkpt><trkpt lat="46.884889" lon="-121.509175"><ele>1621.0</ele><time>2023-08-19T19:49:59Z</time></trkpt><trkpt lat="46.884818" lon="-121.509194"><ele>1620.0</ele><time>2023-08-19T19:50:05Z</time></trkpt><trkpt lat="46.884745" lon="-121.509283"><ele>1618.7</ele><time>2023-08-19T19:50:14Z</time></trkpt><trkpt lat="46.884724" lon="-121.509349"><ele>1617.0</ele><time>2023-08-19T19:50:18Z</time></trkpt><trkpt lat="46.884631" lon="-121.509416"><ele>1620.0</ele><time>2023-08-19T19:50:27Z</time></trkpt><trkpt lat="46.884597" lon="-121.509417"><ele>1620.0</ele><time>2023-08-19T19:50:30Z</time></trkpt><trkpt lat="46.884567" lon="-121.509432"><ele>1620.0</ele><time>2023-08-19T19:50:32Z</time></trkpt><trkpt lat="46.884533" lon="-121.509494"><ele>1617.0</ele><time>2023-08-19T19:50:37Z</time></trkpt><trkpt lat="46.884479" lon="-121.509543"><ele>1616.0</ele><time>2023-08-19T19:50:44Z</time></trkpt><trkpt lat="46.884374" lon="-121.509677"><ele>1615.0</ele><time>2023-08-19T19:50:58Z</time></trkpt><trkpt lat="46.884365" lon="-121.509724"><ele>1614.0</ele><time>2023-08-19T19:51:02Z</time></trkpt><trkpt lat="46.884338" lon="-121.509774"><ele>1612.0</ele><time>2023-08-19T19:51:05Z</time></trkpt><trkpt lat="46.884252" lon="-121.509857"><ele>1614.0</ele><time>2023-08-19T19:51:13Z</time></trkpt><trkpt lat="46.884236" lon="-121.509884"><ele>1614.0</ele><time>2023-08-19T19:51:16Z</time></trkpt><trkpt lat="46.884162" lon="-121.510065"><ele>1617.0</ele><time>2023-08-19T19:51:29Z</time></trkpt><trkpt lat="46.884074" lon="-121.510215"><ele>1618.0</ele><time>2023-08-19T19:51:42Z</time></trkpt><trkpt lat="46.884033" lon="-121.510323"><ele>1619.0</ele><time>2023-08-19T19:51:47Z</time></trkpt><trkpt lat="46.883978" lon="-121.51041"><ele>1618.0</ele><time>2023-08-19T19:51:55Z</time></trkpt><trkpt lat="46.88393" lon="-121.510532"><ele>1618.0</ele><time>2023-08-19T19:52:03Z</time></trkpt><trkpt lat="46.883875" lon="-121.510617"><ele>1618.0</ele><time>2023-08-19T19:52:09Z</time></trkpt><trkpt lat="46.883784" lon="-121.510828"><ele>1620.0</ele><time>2023-08-19T19:52:23Z</time></trkpt><trkpt lat="46.883737" lon="-121.510892"><ele>1620.0</ele><time>2023-08-19T19:52:28Z</time></trkpt><trkpt lat="46.883662" lon="-121.511046"><ele>1621.0</ele><time>2023-08-19T19:52:39Z</time></trkpt><trkpt lat="46.883561" lon="-121.51121"><ele>1620.0</ele><time>2023-08-19T19:52:51Z</time></trkpt><trkpt lat="46.883468" lon="-121.511394"><ele>1623.0</ele><time>2023-08-19T19:53:04Z</time></trkpt><trkpt lat="46.88341" lon="-121.51149"><ele>1623.0</ele><time>2023-08-19T19:53:11Z</time></trkpt><trkpt lat="46.883242" lon="-121.511696"><ele>1622.0</ele><time>2023-08-19T19:53:27Z</time></trkpt><trkpt lat="46.883056" lon="-121.512013"><ele>1624.0</ele><time>2023-08-19T19:53:51Z</time></trkpt><trkpt lat="46.882797" lon="-121.512375"><ele>1626.0</ele><time>2023-08-19T19:54:18Z</time></trkpt><trkpt lat="46.882758" lon="-121.512457"><ele>1626.0</ele><time>2023-08-19T19:54:23Z</time></trkpt><trkpt lat="46.882704" lon="-121.512536"><ele>1626.0</ele><time>2023-08-19T19:54:28Z</time></trkpt><trkpt lat="46.882654" lon="-121.512573"><ele>1626.0</ele><time>2023-08-19T19:54:33Z</time></trkpt><trkpt lat="46.88259" lon="-121.512691"><ele>1627.0</ele><time>2023-08-19T19:54:40Z</time></trkpt><trkpt lat="46.882556" lon="-121.512731"><ele>1627.0</ele><time>2023-08-19T19:54:42Z</time></trkpt><trkpt lat="46.882527" lon="-121.51275"><ele>1627.0</ele><time>2023-08-19T19:54:45Z</time></trkpt><trkpt lat="46.88246" lon="-121.512754"><ele>1626.0</ele><time>2023-08-19T19:54:49Z</time></trkpt><trkpt lat="46.882423" lon="-121.512776"><ele>1628.0</ele><time>2023-08-19T19:54:53Z</time></trkpt><trkpt lat="46.882348" lon="-121.512792"><ele>1626.0</ele><time>2023-08-19T19:54:59Z</time></trkpt><trkpt lat="46.882249" lon="-121.51285"><ele>1626.0</ele><time>2023-08-19T19:55:07Z</time></trkpt><trkpt lat="46.882151" lon="-121.512956"><ele>1626.0</ele><time>2023-08-19T19:55:17Z</time></trkpt><trkpt lat="46.882136" lon="-121.51299"><ele>1626.0</ele><time>2023-08-19T19:55:19Z</time></trkpt><trkpt lat="46.882001" lon="-121.513155"><ele>1627.0</ele><time>2023-08-19T19:55:33Z</time></trkpt><trkpt lat="46.881922" lon="-121.513282"><ele>1626.0</ele><time>2023-08-19T19:55:42Z</time></trkpt><trkpt lat="46.881773" lon="-121.513473"><ele>1629.0</ele><time>2023-08-19T19:55:57Z</time></trkpt><trkpt lat="46.881648" lon="-121.513607"><ele>1629.0</ele><time>2023-08-19T19:56:10Z</time></trkpt><trkpt lat="46.881616" lon="-121.513666"><ele>1630.0</ele><time>2023-08-19T19:56:14Z</time></trkpt><trkpt lat="46.881488" lon="-121.513818"><ele>1632.0</ele><time>2023-08-19T19:56:27Z</time></trkpt><trkpt lat="46.881136" lon="-121.514147"><ele>1635.0</ele><time>2023-08-19T19:56:58Z</time></trkpt><trkpt lat="46.881098" lon="-121.514162"><ele>1635.0</ele><time>2023-08-19T19:57:01Z</time></trkpt><trkpt lat="46.881025" lon="-121.514246"><ele>1636.0</ele><time>2023-08-19T19:57:09Z</time></trkpt><trkpt lat="46.880865" lon="-121.514363"><ele>1634.0</ele><time>2023-08-19T19:57:23Z</time></trkpt><trkpt lat="46.88081" lon="-121.514433"><ele>1635.0</ele><time>2023-08-19T19:57:28Z</time></trkpt><trkpt lat="46.880746" lon="-121.514477"><ele>1635.0</ele><time>2023-08-19T19:57:34Z</time></trkpt><trkpt lat="46.880721" lon="-121.514513"><ele>1636.0</ele><time>2023-08-19T19:57:36Z</time></trkpt><trkpt lat="46.88048" lon="-121.514677"><ele>1635.0</ele><time>2023-08-19T19:57:58Z</time></trkpt><trkpt lat="46.88047" lon="-121.514706"><ele>1634.0</ele><time>2023-08-19T19:58:00Z</time></trkpt><trkpt lat="46.880414" lon="-121.514753"><ele>1634.0</ele><time>2023-08-19T19:58:05Z</time></trkpt><trkpt lat="46.88036" lon="-121.514775"><ele>1634.0</ele><time>2023-08-19T19:58:09Z</time></trkpt><trkpt lat="46.88017" lon="-121.514951"><ele>1632.0</ele><time>2023-08-19T19:58:27Z</time></trkpt><trkpt lat="46.880108" lon="-121.51503"><ele>1632.0</ele><time>2023-08-19T19:58:35Z</time></trkpt><trkpt lat="46.879981" lon="-121.515138"><ele>1628.0</ele><time>2023-08-19T19:58:51Z</time></trkpt><trkpt lat="46.879879" lon="-121.515246"><ele>1633.0</ele><time>2023-08-19T19:59:05Z</time></trkpt><trkpt lat="46.879769" lon="-121.515295"><ele>1634.0</ele><time>2023-08-19T19:59:15Z</time></trkpt><trkpt lat="46.879737" lon="-121.515299"><ele>1636.0</ele><time>2023-08-19T19:59:18Z</time></trkpt><trkpt lat="46.879554" lon="-121.515364"><ele>1633.0</ele><time>2023-08-19T19:59:34Z</time></trkpt><trkpt lat="46.879518" lon="-121.515389"><ele>1632.0</ele><time>2023-08-19T19:59:37Z</time></trkpt><trkpt lat="46.879443" lon="-121.515413"><ele>1633.0</ele><time>2023-08-19T19:59:43Z</time></trkpt><trkpt lat="46.879209" lon="-121.515536"><ele>1635.0</ele><time>2023-08-19T20:00:02Z</time></trkpt><trkpt lat="46.879165" lon="-121.515547"><ele>1638.0</ele><time>2023-08-19T20:00:05Z</time></trkpt><trkpt lat="46.879127" lon="-121.515545"><ele>1636.0</ele><time>2023-08-19T20:00:08Z</time></trkpt><trkpt lat="46.87891" lon="-121.515631"><ele>1632.0</ele><time>2023-08-19T20:00:28Z</time></trkpt><trkpt lat="46.878842" lon="-121.515679"><ele>1638.0</ele><time>2023-08-19T20:00:42Z</time></trkpt><trkpt lat="46.878764" lon="-121.515695"><ele>1636.0</ele><time>2023-08-19T20:00:48Z</time></trkpt><trkpt lat="46.87871" lon="-121.515724"><ele>1634.0</ele><time>2023-08-19T20:00:59Z</time></trkpt><trkpt lat="46.878651" lon="-121.515779"><ele>1632.0</ele><time>2023-08-19T20:01:06Z</time></trkpt><trkpt lat="46.878529" lon="-121.515858"><ele>1632.0</ele><time>2023-08-19T20:01:17Z</time></trkpt><trkpt lat="46.878317" lon="-121.516048"><ele>1634.0</ele><time>2023-08-19T20:01:36Z</time></trkpt><trkpt lat="46.878269" lon="-121.516113"><ele>1634.0</ele><time>2023-08-19T20:01:40Z</time></trkpt><trkpt lat="46.878166" lon="-121.516212"><ele>1636.0</ele><time>2023-08-19T20:01:49Z</time></trkpt><trkpt lat="46.877932" lon="-121.516488"><ele>1638.0</ele><time>2023-08-19T20:02:12Z</time></trkpt><trkpt lat="46.877869" lon="-121.516532"><ele>1638.0</ele><time>2023-08-19T20:02:18Z</time></trkpt><trkpt lat="46.877461" lon="-121.516977"><ele>1638.0</ele><time>2023-08-19T20:03:01Z</time></trkpt><trkpt lat="46.877345" lon="-121.517137"><ele>1641.0</ele><time>2023-08-19T20:03:13Z</time></trkpt><trkpt lat="46.877249" lon="-121.517197"><ele>1641.0</ele><time>2023-08-19T20:03:21Z</time></trkpt><trkpt lat="46.877146" lon="-121.517287"><ele>1641.2</ele><time>2023-08-19T20:03:31Z</time></trkpt><trkpt lat="46.87708" lon="-121.517377"><ele>1642.0</ele><time>2023-08-19T20:03:39Z</time></trkpt><trkpt lat="46.876925" lon="-121.517512"><ele>1641.0</ele><time>2023-08-19T20:03:53Z</time></trkpt><trkpt lat="46.876863" lon="-121.517554"><ele>1640.0</ele><time>2023-08-19T20:03:59Z</time></trkpt><trkpt lat="46.876782" lon="-121.517681"><ele>1639.0</ele><time>2023-08-19T20:04:11Z</time></trkpt><trkpt lat="46.876589" lon="-121.517864"><ele>1646.0</ele><time>2023-08-19T20:04:29Z</time></trkpt><trkpt lat="46.876468" lon="-121.517945"><ele>1644.0</ele><time>2023-08-19T20:04:40Z</time></trkpt><trkpt lat="46.876376" lon="-121.518056"><ele>1647.0</ele><time>2023-08-19T20:04:49Z</time></trkpt><trkpt lat="46.876095" lon="-121.518261"><ele>1647.0</ele><time>2023-08-19T20:05:16Z</time></trkpt><trkpt lat="46.875942" lon="-121.518345"><ele>1648.0</ele><time>2023-08-19T20:05:30Z</time></trkpt><trkpt lat="46.875809" lon="-121.518404"><ele>1647.0</ele><time>2023-08-19T20:05:41Z</time></trkpt><trkpt lat="46.875707" lon="-121.51843"><ele>1648.0</ele><time>2023-08-19T20:05:50Z</time></trkpt><trkpt lat="46.875646" lon="-121.518458"><ele>1647.0</ele><time>2023-08-19T20:05:56Z</time></trkpt><trkpt lat="46.875634" lon="-121.518418"><ele>1646.0</ele><time>2023-08-19T20:06:31Z</time></trkpt><trkpt lat="46.875575" lon="-121.518405"><ele>1646.0</ele><time>2023-08-19T20:06:52Z</time></trkpt><trkpt lat="46.875553" lon="-121.518373"><ele>1644.0</ele><time>2023-08-19T20:07:11Z</time></trkpt><trkpt lat="46.875549" lon="-121.518335"><ele>1645.0</ele><time>2023-08-19T20:07:16Z</time></trkpt><trkpt lat="46.875466" lon="-121.518161"><ele>1641.0</ele><time>2023-08-19T20:07:27Z</time></trkpt><trkpt lat="46.875393" lon="-121.518105"><ele>1641.0</ele><time>2023-08-19T20:07:36Z</time></trkpt><trkpt lat="46.875419" lon="-121.518119"><ele>1642.4</ele><time>2023-08-19T20:07:42Z</time></trkpt><trkpt lat="46.875297" lon="-121.518062"><ele>1639.0</ele><time>2023-08-19T20:07:53Z</time></trkpt><trkpt lat="46.875227" lon="-121.517943"><ele>1638.0</ele><time>2023-08-19T20:08:02Z</time></trkpt><trkpt lat="46.875185" lon="-121.517934"><ele>1640.5</ele><time>2023-08-19T20:08:10Z</time></trkpt></trkseg></trk></gpx>